{"type":"FeatureCollection","features":[{"type":"Feature","geometry":{"type":"LineString","coordinates":[[508.839181,417.945932],[511.838382,458.964321],[467.442489,504.454129],[366.46938,515.459063],[298.487486,502.953457]]},"properties":{"mapType":"Sketch","genType3":"Multi-MultiOmissionMerge","SketchRouteSeqOrder":3,"aligned":true,"feat_type":null,"id":"G26","isRoute":"Yes","otype":"Line","selected":false,"sid":"S39","group":true,"groupID":"26","gen_id":"g.71.73.75.77.79.81"}},{"type":"Feature","geometry":{"type":"MultiLineString","coordinates":[[[366.46938,515.459063],[384.959263,569.462875]],[[467.442489,504.454129],[520.923052,553.955923]],[[511.838382,458.964321],[581.897757,481.485972]]]},"properties":{"mapType":"Sketch","genType3":"Others","SketchRouteSeqOrder":null,"aligned":true,"feat_type":null,"id":"G27","isRoute":null,"otype":"Line","selected":false,"sid":"S41","group":true,"groupID":"27","gen_id":"g.72.74.76.78.80"}},{"id":"0","type":"Feature","properties":{"SketchRouteSeqOrder":24,"aligned":true,"feat_type":null,"group":null,"groupID":null,"id":"4","isRoute":"Yes","otype":"Line","selected":false,"sid":"S4","mapType":"Sketch","gen_id":"g.61"},"geometry":{"type":"LineString","coordinates":[[498.983359,13.183],[603.455535,12.932888],[598.456866,85.465404]]}},{"id":"1","type":"Feature","properties":{"SketchRouteSeqOrder":null,"aligned":true,"feat_type":null,"group":null,"groupID":null,"id":"7","isRoute":null,"otype":"Line","selected":false,"sid":"S7","mapType":"Sketch","gen_id":"g.57.59"},"geometry":{"type":"LineString","coordinates":[[598.456866,85.465404],[596.467117,123.485922]]}},{"id":"2","type":"Feature","properties":{"SketchRouteSeqOrder":null,"aligned":true,"feat_type":null,"group":null,"groupID":null,"id":"10","isRoute":null,"otype":"Line","selected":false,"sid":"S10","mapType":"Sketch","gen_id":"g.60"},"geometry":{"type":"LineString","coordinates":[[598.456866,85.465404],[749.395894,97.438881]]}},{"id":"3","type":"Feature","properties":{"SketchRouteSeqOrder":null,"aligned":true,"feat_type":null,"group":null,"groupID":null,"id":"11","isRoute":null,"otype":"Line","selected":false,"sid":"S11","mapType":"Sketch","gen_id":"g.55"},"geometry":{"type":"LineString","coordinates":[[596.467117,123.485922],[414.48509,121.449645]]}},{"id":"4","type":"Feature","properties":{"SketchRouteSeqOrder":23,"aligned":true,"feat_type":null,"group":null,"groupID":null,"id":"12","isRoute":"Yes","otype":"Line","selected":false,"sid":"S12","mapType":"Sketch","gen_id":"g.56"},"geometry":{"type":"LineString","coordinates":[[414.48509,121.449645],[410.486155,85.933723],[435.479498,64.42408],[468.970579,45.415559],[491.964455,31.40928],[498.983359,13.183]]}},{"id":"5","type":"Feature","properties":{"SketchRouteSeqOrder":null,"aligned":true,"feat_type":null,"group":null,"groupID":null,"id":"13","isRoute":null,"otype":"Line","selected":false,"sid":"S13","mapType":"Sketch","gen_id":"g.63"},"geometry":{"type":"LineString","coordinates":[[498.983359,13.183],[405.987353,11.40031]]}},{"id":"6","type":"Feature","properties":{"SketchRouteSeqOrder":null,"aligned":true,"feat_type":null,"group":null,"groupID":null,"id":"14","isRoute":null,"otype":"Line","selected":false,"sid":"S14","mapType":"Sketch","gen_id":"g.52.54"},"geometry":{"type":"LineString","coordinates":[[596.467117,123.485922],[593.937296,222.494942]]}},{"id":"7","type":"Feature","properties":{"SketchRouteSeqOrder":null,"aligned":true,"feat_type":null,"group":null,"groupID":null,"id":"15","isRoute":null,"otype":"Line","selected":false,"sid":"S15","mapType":"Sketch","gen_id":"g.115.123"},"geometry":{"type":"LineString","coordinates":[[593.937296,222.494942],[299.954736,212.91992]]}},{"id":"8","type":"Feature","properties":{"SketchRouteSeqOrder":null,"aligned":true,"feat_type":null,"group":null,"groupID":null,"id":"16","isRoute":null,"otype":"Line","selected":false,"sid":"S16","mapType":"Sketch","gen_id":"g.8.39.41.43.47.113"},"geometry":{"type":"LineString","coordinates":[[593.937296,222.494942],[593.876457,381.995715]]}},{"id":"9","type":"Feature","properties":{"SketchRouteSeqOrder":22,"aligned":true,"feat_type":null,"group":null,"groupID":null,"id":"18","isRoute":"Yes","otype":"Line","selected":false,"sid":"S18","mapType":"Sketch","gen_id":"g.37"},"geometry":{"type":"LineString","coordinates":[[299.954736,212.91992],[310.951807,155.894356],[338.944352,126.881349],[414.48509,121.449645]]}},{"id":"10","type":"Feature","properties":{"SketchRouteSeqOrder":null,"aligned":true,"feat_type":null,"group":null,"groupID":null,"id":"19","isRoute":null,"otype":"Line","selected":false,"sid":"S19","mapType":"Sketch","gen_id":"g.38"},"geometry":{"type":"LineString","coordinates":[[593.876457,381.995715],[752.834122,356.984503]]}},{"id":"11","type":"Feature","properties":{"SketchRouteSeqOrder":21,"aligned":true,"feat_type":null,"group":null,"groupID":null,"id":"22","isRoute":"Yes","otype":"Line","selected":false,"sid":"S22","mapType":"Sketch","gen_id":"g.30.31.33.254.258"},"geometry":{"type":"LineString","coordinates":[[291.91533,270.918574],[299.954736,212.91992]]}},{"id":"12","type":"Feature","properties":{"SketchRouteSeqOrder":null,"aligned":true,"feat_type":null,"group":null,"groupID":null,"id":"23","isRoute":null,"otype":"Line","selected":false,"sid":"S23","mapType":"Sketch","gen_id":"g.29"},"geometry":{"type":"LineString","coordinates":[[291.91533,270.918574],[194.941157,271.919023]]}},{"id":"13","type":"Feature","properties":{"SketchRouteSeqOrder":16,"aligned":true,"feat_type":null,"group":null,"groupID":null,"id":"24","isRoute":"Yes","otype":"Line","selected":false,"sid":"S24","mapType":"Sketch","gen_id":"g.16.18.23.25.27.28"},"geometry":{"type":"LineString","coordinates":[[293.914798,413.982709],[291.91533,270.918574]]}},{"id":"14","type":"Feature","properties":{"SketchRouteSeqOrder":null,"aligned":true,"feat_type":null,"group":null,"groupID":null,"id":"25","isRoute":null,"otype":"Line","selected":false,"sid":"S25","mapType":"Sketch","gen_id":"g.1.82"},"geometry":{"type":"LineString","coordinates":[[293.914798,413.982709],[461.851695,414.944587],[508.839181,417.945932]]}},{"id":"15","type":"Feature","properties":{"SketchRouteSeqOrder":2,"aligned":true,"feat_type":null,"group":null,"groupID":null,"id":"26","isRoute":"Yes","otype":"Line","selected":false,"sid":"S26","mapType":"Sketch","gen_id":"g.6.83"},"geometry":{"type":"LineString","coordinates":[[593.876457,381.995715],[558.825868,403.939653],[508.839181,417.945932]]}},{"id":"16","type":"Feature","properties":{"SketchRouteSeqOrder":null,"aligned":true,"feat_type":null,"group":null,"groupID":null,"id":"27","isRoute":null,"otype":"Line","selected":false,"sid":"S27","mapType":"Sketch","gen_id":"g.7"},"geometry":{"type":"LineString","coordinates":[[593.876457,381.995715],[617.810159,439.955799],[647.802171,487.977327]]}},{"id":"24","type":"Feature","properties":{"SketchRouteSeqOrder":9,"aligned":true,"feat_type":null,"group":null,"groupID":null,"id":"43","isRoute":"Yes","otype":"Line","selected":false,"sid":"S43","mapType":"Sketch","gen_id":"g.99"},"geometry":{"type":"LineString","coordinates":[[298.487486,502.953457],[288.923851,476.450671]]}},{"id":"25","type":"Feature","properties":{"SketchRouteSeqOrder":10,"aligned":true,"feat_type":null,"group":null,"groupID":null,"id":"44","isRoute":"Yes","otype":"Line","selected":false,"sid":"S44","mapType":"Sketch","gen_id":"g.101"},"geometry":{"type":"LineString","coordinates":[[288.923851,476.450671],[293.914798,413.982709]]}},{"id":"26","type":"Feature","properties":{"SketchRouteSeqOrder":null,"aligned":true,"feat_type":null,"group":null,"groupID":null,"id":"45","isRoute":null,"otype":"Line","selected":false,"sid":"S45","mapType":"Sketch","gen_id":"g.97"},"geometry":{"type":"LineString","coordinates":[[288.923851,476.450671],[123.967783,478.451568]]}},{"id":"27","type":"Feature","properties":{"SketchRouteSeqOrder":null,"aligned":true,"feat_type":null,"group":null,"groupID":null,"id":"46","isRoute":null,"otype":"Line","selected":false,"sid":"S46","mapType":"Sketch","gen_id":"g.103"},"geometry":{"type":"LineString","coordinates":[[293.914798,413.982709],[121.968315,414.422864]]}},{"id":"28","type":"Feature","properties":{"SketchRouteSeqOrder":null,"aligned":true,"feat_type":null,"group":null,"groupID":null,"id":"47","isRoute":null,"otype":"Line","selected":false,"sid":"S47","mapType":"Sketch","gen_id":"g.105.107"},"geometry":{"type":"LineString","coordinates":[[121.968315,414.422864],[123.967783,478.451568]]}},{"id":"29","type":"Feature","properties":{"SketchRouteSeqOrder":null,"aligned":true,"feat_type":null,"group":null,"groupID":null,"id":"48","isRoute":null,"otype":"Line","selected":false,"sid":"S48","mapType":"Sketch","gen_id":"g.95"},"geometry":{"type":"LineString","coordinates":[[123.967783,478.451568],[109.971511,563.48969]]}},{"id":"30","type":"Feature","properties":{"SketchRouteSeqOrder":null,"aligned":true,"feat_type":null,"group":null,"groupID":null,"id":"49","isRoute":null,"otype":"Line","selected":false,"sid":"S49","mapType":"Sketch","gen_id":"g.87"},"geometry":{"type":"LineString","coordinates":[[298.487486,502.953457],[287.924117,555.486102]]}},{"id":"31","type":"Feature","properties":{"SketchRouteSeqOrder":null,"aligned":true,"feat_type":null,"group":null,"groupID":null,"id":"57","isRoute":null,"otype":"Line","selected":false,"sid":"S57","mapType":"Sketch","gen_id":"g.111"},"geometry":{"type":"LineString","coordinates":[[0,414.423761],[121.968315,414.422864]]}},{"type":"Feature","properties":{"id":"0","sid":"S0","isRoute":null,"feat_type":"Landmark","selected":false,"aligned":true,"otype":"Polygon","mapType":"Sketch","gen_id":"g.207"},"geometry":{"type":"Polygon","coordinates":[[[464.963656,87.924753],[516.949811,88.925202],[523.947947,63.913989],[467.46299,59.411971],[464.963656,87.924753]]]}},{"type":"Feature","properties":{"id":"1","sid":"S1","isRoute":null,"feat_type":"Landmark","selected":false,"aligned":true,"otype":"Polygon","mapType":"Sketch","gen_id":"g.235"},"geometry":{"type":"Polygon","coordinates":[[[503.482161,72.459573],[520.793238,75.188863],[523.947947,63.913989],[504.489229,62.363072],[503.482161,72.459573]]]}},{"type":"Feature","properties":{"id":"2","sid":"S2","isRoute":null,"feat_type":"Landmark","selected":false,"aligned":true,"otype":"Polygon","mapType":"Sketch","gen_id":"g.236"},"geometry":{"type":"Polygon","coordinates":[[[527.725704,101.722692],[563.466185,104.473925],[558.967384,89.967422],[529.975105,85.965628],[527.725704,101.722692]]]}},{"type":"Feature","properties":{"id":"3","sid":"S3","isRoute":null,"feat_type":"Landmark","selected":false,"aligned":true,"otype":"Polygon","mapType":"Sketch","gen_id":"g.227"},"geometry":{"type":"Polygon","coordinates":[[[539.972442,63.205425],[567.964987,66.456883],[570.714255,49.949482],[546.220778,45.447464],[539.972442,63.205425]]]}},{"type":"Feature","properties":{"id":"8","sid":"S8","isRoute":null,"feat_type":"Landmark","selected":false,"aligned":true,"otype":"Polygon","mapType":"Sketch","gen_id":"g.219"},"geometry":{"type":"Polygon","coordinates":[[[621.960328,76.714955],[644.204404,77.715404],[644.204404,67.710919],[624.459662,64.209349],[621.960328,76.714955]]]}},{"type":"Feature","properties":{"id":"9","sid":"S9","isRoute":null,"feat_type":"Landmark","selected":false,"aligned":true,"otype":"Polygon","mapType":"Sketch","gen_id":"g.213"},"geometry":{"type":"Polygon","coordinates":[[[647.922919,57.420941],[695.910138,57.921165],[700.40894,32.909953],[648.422785,26.407038],[647.922919,57.420941]]]}},{"type":"Feature","properties":{"id":"20","sid":"S20","isRoute":null,"feat_type":"Landmark","selected":false,"aligned":true,"otype":"Polygon","mapType":"Sketch","gen_id":"g.218"},"geometry":{"type":"Polygon","coordinates":[[[195.940891,164.871034],[267.92172,170.873725],[272.920389,115.849058],[210.936897,104.844124],[195.940891,164.871034]]]}},{"type":"Feature","properties":{"id":"21","sid":"S21","isRoute":null,"feat_type":"Landmark","selected":false,"aligned":true,"otype":"Polygon","mapType":"Sketch","gen_id":"g.216"},"geometry":{"type":"Polygon","coordinates":[[[231.931306,255.911847],[271.920655,259.913641],[269.921188,239.904671],[226.932637,233.90198],[231.931306,255.911847]]]}},{"type":"Feature","properties":{"id":"50","sid":"S50","isRoute":null,"feat_type":"Landmark","selected":false,"aligned":true,"otype":"Polygon","mapType":"Sketch","gen_id":"g.232"},"geometry":{"type":"Polygon","coordinates":[[[185.23063,502.368947],[256.211726,503.619507],[258.960993,487.612331],[187.480031,483.610537],[185.23063,502.368947]]]}},{"type":"Feature","properties":{"id":"51","sid":"S51","isRoute":null,"feat_type":"Landmark","selected":false,"aligned":false,"otype":"Polygon","mapType":"Sketch"},"geometry":{"type":"Polygon","coordinates":[[[216.972176,463.351455],[233.467783,464.351904],[230.718515,450.845849],[215.972442,451.346073],[216.972176,463.351455]]]}},{"type":"Feature","properties":{"id":"52","sid":"S52","isRoute":null,"feat_type":"Landmark","selected":false,"aligned":true,"otype":"Polygon","mapType":"Sketch","gen_id":"g.228"},"geometry":{"type":"Polygon","coordinates":[[[159.987353,448.094616],[179.982028,456.348316],[183.980963,445.09327],[171.734224,439.840916],[159.987353,448.094616]]]}},{"type":"Feature","properties":{"id":"53","sid":"S53","isRoute":null,"feat_type":"Landmark","selected":false,"aligned":true,"otype":"Polygon","mapType":"Sketch","gen_id":"g.229"},"geometry":{"type":"Polygon","coordinates":[[[145.24128,435.088785],[144.991347,442.342037],[159.987353,448.094616],[171.734224,439.840916],[168.735023,432.837776],[145.24128,435.088785]]]}},{"type":"Feature","properties":{"id":"54","sid":"S54","isRoute":null,"feat_type":"Landmark","selected":false,"aligned":true,"otype":"Polygon","mapType":"Sketch","gen_id":"g.231"},"geometry":{"type":"Polygon","coordinates":[[[168.735023,432.837776],[166.235689,426.084749],[143.991613,425.584525],[145.24128,435.088785],[168.735023,432.837776]]]}},{"type":"Feature","properties":{"id":"55","sid":"S55","isRoute":null,"feat_type":"Landmark","selected":false,"aligned":true,"otype":"Polygon","mapType":"Sketch","gen_id":"g.195.197.199.201"},"geometry":{"type":"Polygon","coordinates":[[[86.976303,538.750003],[90.975238,494.730269],[56.984291,487.727129],[36.928643,486.456053],[33.929442,525.473544],[86.976303,538.750003]]]}},{"type":"Feature","properties":{"id":"56","sid":"S56","isRoute":null,"feat_type":"Landmark","selected":false,"aligned":true,"otype":"Polygon","mapType":"Sketch","gen_id":"g.203.205"},"geometry":{"type":"Polygon","coordinates":[[[37.928377,461.44484],[102.91107,469.448428],[101.911336,429.430489],[34.929176,433.432283],[37.928377,461.44484]]]}},{"type":"Feature","properties":{"id":"58","sid":"S58","isRoute":null,"feat_type":"Landmark","selected":false,"aligned":true,"otype":"Polygon","mapType":"Sketch","gen_id":"g.131"},"geometry":{"type":"Polygon","coordinates":[[[342.934634,494.73453],[386.423052,496.235202],[426.912268,496.735426],[436.409739,474.72556],[403.418525,468.222644],[363.429176,465.221299],[344.934101,467.222196],[342.934634,494.73453]]]}},{"type":"Feature","properties":{"id":"59","sid":"S59","isRoute":null,"feat_type":"Landmark","selected":false,"aligned":true,"otype":"Polygon","mapType":"Sketch","gen_id":"g.133"},"geometry":{"type":"Polygon","coordinates":[[[448.406544,474.225335],[473.899754,475.726008],[473.899754,453.215917],[455.40468,454.71659],[445.407343,459.718832],[448.406544,474.225335]]]}}]}