{"type":"FeatureCollection","features":[{"type":"Feature","geometry":{"type":"MultiLineString","coordinates":[[[514.876191,485.921065],[587.856754,544.947526]],[[568.861813,440.900883],[672.834122,457.908507]]]},"properties":{"mapType":"Sketch","genType3":"Others","SketchRouteSeqOrder":null,"aligned":true,"feat_type":null,"id":"G1","isRoute":null,"otype":"Line","selected":false,"sid":"S1","group":true,"groupID":"1","gen_id":"g.72.74.76.78.80"}},{"type":"Feature","geometry":{"type":"LineString","coordinates":[[534.895095,383.84213],[559.888438,409.853791],[568.861813,440.900883],[552.890302,466.879355],[514.876191,485.921065],[485.908141,483.88698],[418.925981,493.891465],[324.951009,497.893258]]},"properties":{"mapType":"Sketch","genType3":"Multi-MultiOmissionMerge","SketchRouteSeqOrder":3,"aligned":true,"feat_type":null,"id":"G2","isRoute":"Yes","otype":"Line","selected":false,"sid":"S5","group":true,"groupID":"2","gen_id":"g.71.73.75.77.79.81"}},{"type":"Feature","geometry":{"type":"LineString","coordinates":[[315.92172,419.821051],[328.908674,311.937211],[352.95234,243.987891],[372.922253,149.762298]]},"properties":{"mapType":"Sketch","genType3":"Multi-MultiOmissionMerge","SketchRouteSeqOrder":21,"aligned":true,"feat_type":null,"id":"G26","isRoute":"Yes","otype":"Line","selected":false,"sid":"S35","group":true,"groupID":"26","gen_id":"g.16.18.23.25.27.28.30.31.33.37.254.258"}},{"type":"Feature","geometry":{"type":"MultiLineString","coordinates":[[[196.953405,430.825984],[315.92172,419.821051]],[[352.95234,243.987891],[225.936098,228.899986]],[[328.908674,311.937211],[192.944885,295.930035]]]},"properties":{"mapType":"Sketch","genType3":"Others","SketchRouteSeqOrder":null,"aligned":true,"feat_type":null,"id":"G27","isRoute":null,"otype":"Line","selected":false,"sid":"S33","group":true,"groupID":"27","gen_id":"g.19.22.26.29.32.34.36"}},{"id":"5","type":"Feature","properties":{"SketchRouteSeqOrder":null,"aligned":true,"feat_type":null,"group":null,"groupID":null,"id":"6","isRoute":null,"otype":"Line","selected":false,"sid":"S6","mapType":"Sketch","gen_id":"g.87"},"geometry":{"type":"LineString","coordinates":[[324.951009,497.893258],[318.961659,552.898192]]}},{"id":"6","type":"Feature","properties":{"SketchRouteSeqOrder":null,"aligned":true,"feat_type":null,"group":null,"groupID":null,"id":"7","isRoute":null,"otype":"Line","selected":false,"sid":"S7","mapType":"Sketch","gen_id":"g.89"},"geometry":{"type":"LineString","coordinates":[[318.961659,552.898192],[318.961659,600]]}},{"id":"7","type":"Feature","properties":{"SketchRouteSeqOrder":null,"aligned":true,"feat_type":null,"group":null,"groupID":null,"id":"8","isRoute":null,"otype":"Line","selected":false,"sid":"S8","mapType":"Sketch","gen_id":"g.91"},"geometry":{"type":"LineString","coordinates":[[318.961659,552.898192],[192.95447,545.877561]]}},{"id":"8","type":"Feature","properties":{"SketchRouteSeqOrder":null,"aligned":true,"feat_type":null,"group":null,"groupID":null,"id":"9","isRoute":null,"otype":"Line","selected":false,"sid":"S9","mapType":"Sketch"},"geometry":{"type":"LineString","coordinates":[[192.95447,545.877561],[196.953405,430.825984]]}},{"id":"9","type":"Feature","properties":{"SketchRouteSeqOrder":null,"aligned":true,"feat_type":null,"group":null,"groupID":null,"id":"10","isRoute":null,"otype":"Line","selected":false,"sid":"S10","mapType":"Sketch","gen_id":"g.93"},"geometry":{"type":"LineString","coordinates":[[192.95447,545.877561],[51.992012,547.878458]]}},{"id":"10","type":"Feature","properties":{"SketchRouteSeqOrder":null,"aligned":true,"feat_type":null,"group":null,"groupID":null,"id":"11","isRoute":null,"otype":"Line","selected":false,"sid":"S11","mapType":"Sketch","gen_id":"g.111"},"geometry":{"type":"LineString","coordinates":[[196.953405,430.825984],[47.993077,415.819257]]}},{"id":"12","type":"Feature","properties":{"SketchRouteSeqOrder":10,"aligned":true,"feat_type":null,"group":null,"groupID":null,"id":"13","isRoute":"Yes","otype":"Line","selected":false,"sid":"S13","mapType":"Sketch","gen_id":"g.95.99.101.105.107"},"geometry":{"type":"LineString","coordinates":[[324.951009,497.893258],[315.92172,419.821051]]}},{"id":"13","type":"Feature","properties":{"SketchRouteSeqOrder":null,"aligned":true,"feat_type":null,"group":null,"groupID":null,"id":"16","isRoute":null,"otype":"Line","selected":false,"sid":"S16","mapType":"Sketch","gen_id":"g.1.82"},"geometry":{"type":"LineString","coordinates":[[315.92172,419.821051],[437.840778,411.809839],[506.822407,390.80042],[534.895095,383.84213]]}},{"id":"14","type":"Feature","properties":{"SketchRouteSeqOrder":2,"aligned":true,"feat_type":null,"group":null,"groupID":null,"id":"18","isRoute":"Yes","otype":"Line","selected":false,"sid":"S18","mapType":"Sketch","gen_id":"g.6.83"},"geometry":{"type":"LineString","coordinates":[[645.833856,335.782032],[534.895095,383.84213]]}},{"id":"15","type":"Feature","properties":{"SketchRouteSeqOrder":null,"aligned":true,"feat_type":null,"group":null,"groupID":null,"id":"19","isRoute":null,"otype":"Line","selected":false,"sid":"S19","mapType":"Sketch","gen_id":"g.7"},"geometry":{"type":"LineString","coordinates":[[645.833856,335.782032],[784.812555,378.865003]]}},{"id":"16","type":"Feature","properties":{"SketchRouteSeqOrder":null,"aligned":true,"feat_type":null,"group":null,"groupID":null,"id":"20","isRoute":null,"otype":"Line","selected":false,"sid":"S20","mapType":"Sketch","gen_id":"g.38"},"geometry":{"type":"LineString","coordinates":[[645.833856,335.782032],[812.8051,277.819706]]}},{"id":"17","type":"Feature","properties":{"SketchRouteSeqOrder":null,"aligned":true,"feat_type":null,"group":null,"groupID":null,"id":"21","isRoute":null,"otype":"Line","selected":false,"sid":"S21","mapType":"Sketch","gen_id":"g.8.39.41.43.47.50.52.54.113"},"geometry":{"type":"LineString","coordinates":[[645.833856,335.782032],[604.860481,272.817463],[553.87406,150.762747]]}},{"id":"18","type":"Feature","properties":{"SketchRouteSeqOrder":null,"aligned":true,"feat_type":null,"group":null,"groupID":null,"id":"22","isRoute":null,"otype":"Line","selected":false,"sid":"S22","mapType":"Sketch","gen_id":"g.55"},"geometry":{"type":"LineString","coordinates":[[553.87406,150.762747],[372.922253,149.762298]]}},{"id":"19","type":"Feature","properties":{"SketchRouteSeqOrder":null,"aligned":true,"feat_type":null,"group":null,"groupID":null,"id":"23","isRoute":null,"otype":"Line","selected":false,"sid":"S23","mapType":"Sketch","gen_id":"g.57.59.61"},"geometry":{"type":"LineString","coordinates":[[553.87406,150.762747],[507.886308,62.723279]]}},{"id":"20","type":"Feature","properties":{"SketchRouteSeqOrder":24,"aligned":true,"feat_type":null,"group":null,"groupID":null,"id":"24","isRoute":"Yes","otype":"Line","selected":false,"sid":"S24","mapType":"Sketch","gen_id":"g.62"},"geometry":{"type":"LineString","coordinates":[[379.920389,63.723728],[507.886308,62.723279]]}},{"id":"21","type":"Feature","properties":{"SketchRouteSeqOrder":25,"aligned":true,"feat_type":null,"group":null,"groupID":null,"id":"25","isRoute":"Yes","otype":"Line","selected":false,"sid":"S25","mapType":"Sketch","gen_id":"g.64"},"geometry":{"type":"LineString","coordinates":[[507.886308,62.723279],[507.886308,0],[508.886042,0]]}},{"id":"22","type":"Feature","properties":{"SketchRouteSeqOrder":23,"aligned":true,"feat_type":null,"group":null,"groupID":null,"id":"28","isRoute":"Yes","otype":"Line","selected":false,"sid":"S28","mapType":"Sketch","gen_id":"g.56"},"geometry":{"type":"LineString","coordinates":[[372.922253,149.762298],[379.920389,63.723728]]}},{"id":"23","type":"Feature","properties":{"SketchRouteSeqOrder":null,"aligned":true,"feat_type":null,"group":null,"groupID":null,"id":"30","isRoute":null,"otype":"Line","selected":false,"sid":"S30","mapType":"Sketch","gen_id":"g.63"},"geometry":{"type":"LineString","coordinates":[[379.920389,63.723728],[259.484557,56.390792]]}},{"type":"Feature","properties":{"id":"14","sid":"S14","isRoute":null,"feat_type":"Landmark","selected":false,"aligned":true,"otype":"Polygon","mapType":"Sketch","gen_id":"g.195.197.199.201"},"geometry":{"type":"Polygon","coordinates":[[[60.243543,534.462775],[140.72211,540.96569],[141.721843,524.208178],[99.98296,518.705711],[99.483093,505.449769],[60.74341,502.448423],[60.243543,534.462775]]]}},{"type":"Feature","properties":{"id":"15","sid":"S15","isRoute":null,"feat_type":"Landmark","selected":false,"aligned":true,"otype":"Polygon","mapType":"Sketch","gen_id":"g.203.205"},"geometry":{"type":"Polygon","coordinates":[[[104.73236,455.693938],[106.481895,468.699769],[164.966318,468.949881],[164.466452,441.437547],[80.238884,435.684968],[76.239949,451.942256],[104.73236,455.693938]]]}},{"type":"Feature","properties":{"id":"17","sid":"S17","isRoute":null,"feat_type":"Landmark","selected":false,"aligned":true,"otype":"Polygon","mapType":"Sketch","gen_id":"g.131"},"geometry":{"type":"Polygon","coordinates":[[[399.97424,477.967821],[483.701941,472.715466],[487.450942,465.212102],[481.702473,452.956608],[442.462924,455.457729],[401.223907,453.706945],[394.225771,465.462214],[399.97424,477.967821]]]}},{"type":"Feature","properties":{"id":"26","sid":"S26","isRoute":null,"feat_type":"Landmark","selected":false,"aligned":true,"otype":"Polygon","mapType":"Sketch","gen_id":"g.213"},"geometry":{"type":"Polygon","coordinates":[[[551.874593,97.738977],[620.856221,97.738977],[620.856221,65.724625],[545.876191,61.722831],[551.874593,97.738977]]]}},{"type":"Feature","properties":{"id":"27","sid":"S27","isRoute":null,"feat_type":"Landmark","selected":false,"aligned":true,"otype":"Polygon","mapType":"Sketch","gen_id":"g.207.209.211.235.236"},"geometry":{"type":"Polygon","coordinates":[[[409.463656,111.873749],[444.454337,112.874198],[450.952606,135.384289],[506.437829,134.884064],[496.940358,97.367246],[486.943021,90.364106],[446.453804,89.363658],[408.963789,89.363658],[409.463656,111.873749]]]}},{"type":"Feature","properties":{"id":"29","sid":"S29","isRoute":null,"feat_type":"Landmark","selected":false,"aligned":true,"otype":"Polygon","mapType":"Sketch","gen_id":"g.224"},"geometry":{"type":"Polygon","coordinates":[[[406.445417,45.385858],[405.445684,23.876216],[338.463523,19.374198],[330.465653,33.880701],[333.464854,43.384961],[406.445417,45.385858]]]}}]}