{"type":"FeatureCollection","features":[{"type":"Feature","geometry":{"type":"LineString","coordinates":[[532.370865,477.515433],[530.371398,495.513537],[522.373528,515.51143],[499.379652,529.010008],[463.88977,537.012536]]},"properties":{"mapType":"Sketch","genType3":"Multi-MultiOmissionMerge","SketchRouteSeqOrder":3,"aligned":true,"feat_type":null,"id":"G18","isRoute":"Yes","otype":"Line","selected":false,"sid":"S26","group":true,"groupID":"18","gen_id":"g.73.75.77.79.81"}},{"type":"Feature","geometry":{"type":"MultiLineString","coordinates":[[[522.373528,515.51143],[588.855822,529.509955]],[[530.371398,495.513537],[598.353292,506.01243]],[[463.88977,537.012536],[515.875259,570.005689]]]},"properties":{"mapType":"Sketch","genType3":"Others","SketchRouteSeqOrder":null,"aligned":true,"feat_type":null,"id":"G19","isRoute":null,"otype":"Line","selected":false,"sid":"S25","group":true,"groupID":"19","gen_id":"g.72.74.76.78.80"}},{"type":"Feature","geometry":{"type":"LineString","coordinates":[[306.931572,473.019278],[314.928776,384.025282],[349.836252,305.062995],[405.821342,240.069842],[494.797645,199.074162]]},"properties":{"mapType":"Sketch","genType3":"Multi-MultiOmissionMerge","SketchRouteSeqOrder":21,"aligned":true,"feat_type":null,"id":"G21","isRoute":"Yes","otype":"Line","selected":false,"sid":"S34","group":true,"groupID":"21","gen_id":"g.16.18.23.25.27.28.30.31.33.37.254.258"}},{"type":"Feature","geometry":{"type":"MultiLineString","coordinates":[[[695.903216,405.291224],[812.872064,409.79075]],[[686.405745,338.798229],[803.87446,331.29902]]]},"properties":{"mapType":"Sketch","genType3":"Others","SketchRouteSeqOrder":null,"aligned":true,"feat_type":null,"id":"G33","isRoute":null,"otype":"Line","selected":false,"sid":"S52","group":true,"groupID":"33","gen_id":"g.40.46.51.53"}},{"type":"Feature","geometry":{"type":"LineString","coordinates":[[606.767824,180.676098],[650.80936,235.613419],[675.802704,289.607731],[686.405745,338.798229],[695.903216,405.291224],[679.801639,474.588242]]},"properties":{"mapType":"Sketch","genType3":"Multi-MultiOmissionMerge","SketchRouteSeqOrder":null,"aligned":true,"feat_type":null,"id":"G34","isRoute":null,"otype":"Line","selected":false,"sid":"S55","group":true,"groupID":"34","gen_id":"g.8.39.41.43.47.52.54.113"}},{"type":"Feature","geometry":{"type":"MultiLineString","coordinates":[[[405.821342,240.069842],[263.85915,224.671463]],[[349.836252,305.062995],[200.875924,295.663984]],[[314.928776,384.025282],[175.882581,380.65503]]]},"properties":{"mapType":"Sketch","genType3":"Others","SketchRouteSeqOrder":null,"aligned":true,"feat_type":null,"id":"G38","isRoute":null,"otype":"Line","selected":false,"sid":"S38","group":true,"groupID":"38","gen_id":"g.19.22.26.29.32.34"}},{"id":"0","type":"Feature","properties":{"SketchRouteSeqOrder":null,"aligned":true,"feat_type":null,"id":"0","isRoute":null,"otype":"Line","selected":false,"sid":"S0","mapType":"Sketch","gen_id":"g.89"},"geometry":{"type":"LineString","coordinates":[[301.932903,600],[298.933702,566.009481]]}},{"id":"1","type":"Feature","properties":{"SketchRouteSeqOrder":null,"aligned":true,"feat_type":null,"id":"1","isRoute":null,"otype":"Line","selected":false,"sid":"S1","mapType":"Sketch","gen_id":"g.91"},"geometry":{"type":"LineString","coordinates":[[298.933702,566.009481],[151.972842,561.010008]]}},{"id":"2","type":"Feature","properties":{"SketchRouteSeqOrder":null,"aligned":true,"feat_type":null,"id":"2","isRoute":null,"otype":"Line","selected":false,"sid":"S2","mapType":"Sketch","gen_id":"g.93"},"geometry":{"type":"LineString","coordinates":[[151.972842,561.010008],[26.00639,559.010218]]}},{"id":"3","type":"Feature","properties":{"SketchRouteSeqOrder":null,"aligned":true,"feat_type":null,"id":"3","isRoute":null,"otype":"Line","selected":false,"sid":"S3","mapType":"Sketch","gen_id":"g.95"},"geometry":{"type":"LineString","coordinates":[[151.972842,561.010008],[159.970712,514.014959]]}},{"id":"4","type":"Feature","properties":{"SketchRouteSeqOrder":null,"aligned":true,"feat_type":null,"id":"4","isRoute":null,"otype":"Line","selected":false,"sid":"S4","mapType":"Sketch","gen_id":"g.97"},"geometry":{"type":"LineString","coordinates":[[159.970712,514.014959],[299.933436,520.014327]]}},{"id":"5","type":"Feature","properties":{"SketchRouteSeqOrder":null,"aligned":true,"feat_type":null,"id":"6","isRoute":null,"otype":"Line","selected":false,"sid":"S6","mapType":"Sketch","gen_id":"g.105.107"},"geometry":{"type":"LineString","coordinates":[[159.970712,514.014959],[166.968848,467.01991]]}},{"id":"6","type":"Feature","properties":{"SketchRouteSeqOrder":null,"aligned":true,"feat_type":null,"id":"7","isRoute":null,"otype":"Line","selected":false,"sid":"S7","mapType":"Sketch","gen_id":"g.111"},"geometry":{"type":"LineString","coordinates":[[166.968848,467.01991],[22.007455,468.019805]]}},{"id":"7","type":"Feature","properties":{"SketchRouteSeqOrder":null,"aligned":true,"feat_type":null,"id":"8","isRoute":null,"otype":"Line","selected":false,"sid":"S8","mapType":"Sketch","gen_id":"g.103"},"geometry":{"type":"LineString","coordinates":[[166.968848,467.01991],[306.931572,473.019278]]}},{"id":"8","type":"Feature","properties":{"SketchRouteSeqOrder":null,"aligned":true,"feat_type":null,"id":"9","isRoute":null,"otype":"Line","selected":false,"sid":"S9","mapType":"Sketch","gen_id":"g.87"},"geometry":{"type":"LineString","coordinates":[[298.933702,566.009481],[301.932903,540.01222]]}},{"id":"9","type":"Feature","properties":{"SketchRouteSeqOrder":8,"aligned":true,"feat_type":null,"id":"10","isRoute":"Yes","otype":"Line","selected":false,"sid":"S10","mapType":"Sketch","gen_id":"g.71"},"geometry":{"type":"LineString","coordinates":[[463.88977,537.012536],[429.898822,542.012009],[377.912668,543.011904],[301.932903,540.01222]]}},{"id":"10","type":"Feature","properties":{"SketchRouteSeqOrder":9,"aligned":true,"feat_type":null,"id":"11","isRoute":"Yes","otype":"Line","selected":false,"sid":"S11","mapType":"Sketch","gen_id":"g.99"},"geometry":{"type":"LineString","coordinates":[[301.932903,540.01222],[299.933436,520.014327]]}},{"id":"11","type":"Feature","properties":{"SketchRouteSeqOrder":10,"aligned":true,"feat_type":null,"id":"12","isRoute":"Yes","otype":"Line","selected":false,"sid":"S12","mapType":"Sketch","gen_id":"g.101"},"geometry":{"type":"LineString","coordinates":[[299.933436,520.014327],[306.931572,473.019278]]}},{"id":"18","type":"Feature","properties":{"SketchRouteSeqOrder":null,"aligned":true,"feat_type":null,"id":"27","isRoute":null,"otype":"Line","selected":false,"sid":"S27","mapType":"Sketch","gen_id":"g.1.82"},"geometry":{"type":"LineString","coordinates":[[532.370865,477.515433],[306.931572,473.019278]]}},{"id":"23","type":"Feature","properties":{"SketchRouteSeqOrder":23,"aligned":true,"feat_type":null,"id":"35","isRoute":"Yes","otype":"Line","selected":false,"sid":"S35","mapType":"Sketch","gen_id":"g.56"},"geometry":{"type":"LineString","coordinates":[[494.797645,199.074162],[484.800307,94.085223]]}},{"id":"27","type":"Feature","properties":{"SketchRouteSeqOrder":null,"aligned":true,"feat_type":null,"id":"39","isRoute":null,"otype":"Line","selected":false,"sid":"S39","mapType":"Sketch","gen_id":"g.55"},"geometry":{"type":"LineString","coordinates":[[494.797645,199.074162],[606.767824,180.676098]]}},{"id":"28","type":"Feature","properties":{"SketchRouteSeqOrder":null,"aligned":true,"feat_type":null,"id":"40","isRoute":null,"otype":"Line","selected":false,"sid":"S40","mapType":"Sketch","gen_id":"g.57.59.61"},"geometry":{"type":"LineString","coordinates":[[606.767824,180.676098],[602.768889,75.687159]]}},{"id":"29","type":"Feature","properties":{"SketchRouteSeqOrder":24,"aligned":true,"feat_type":null,"id":"41","isRoute":"Yes","otype":"Line","selected":false,"sid":"S41","mapType":"Sketch","gen_id":"g.62"},"geometry":{"type":"LineString","coordinates":[[484.800307,94.085223],[602.768889,75.687159]]}},{"id":"30","type":"Feature","properties":{"SketchRouteSeqOrder":null,"aligned":true,"feat_type":null,"id":"42","isRoute":null,"otype":"Line","selected":false,"sid":"S42","mapType":"Sketch","gen_id":"g.63"},"geometry":{"type":"LineString","coordinates":[[484.800307,94.085223],[316.845038,91.685474]]}},{"id":"31","type":"Feature","properties":{"SketchRouteSeqOrder":25,"aligned":true,"feat_type":null,"id":"48","isRoute":"Yes","otype":"Line","selected":false,"sid":"S48","mapType":"Sketch","gen_id":"g.64"},"geometry":{"type":"LineString","coordinates":[[602.768889,75.687159],[602.927978,13.332519]]}},{"id":"37","type":"Feature","properties":{"SketchRouteSeqOrder":2,"aligned":true,"feat_type":null,"id":"56","isRoute":"Yes","otype":"Line","selected":false,"sid":"S56","mapType":"Sketch","gen_id":"g.6.83"},"geometry":{"type":"LineString","coordinates":[[679.801639,474.588242],[532.370865,477.515433]]}},{"id":"38","type":"Feature","properties":{"SketchRouteSeqOrder":null,"aligned":true,"feat_type":null,"id":"57","isRoute":null,"otype":"Line","selected":false,"sid":"S57","mapType":"Sketch","gen_id":"g.7"},"geometry":{"type":"LineString","coordinates":[[679.801639,474.588242],[689.798976,573.577813]]}},{"id":"39","type":"Feature","properties":{"SketchRouteSeqOrder":null,"aligned":true,"feat_type":null,"id":"58","isRoute":null,"otype":"Line","selected":false,"sid":"S58","mapType":"Sketch","gen_id":"g.38"},"geometry":{"type":"LineString","coordinates":[[679.801639,474.588242],[821.76383,475.588137]]}},{"type":"Feature","properties":{"id":"5","sid":"S5","isRoute":null,"feat_type":"Landmark","selected":false,"aligned":true,"otype":"Polygon","mapType":"Sketch","gen_id":"g.195.197.199.201"},"geometry":{"type":"Polygon","coordinates":[[[0,536.012641],[111.983492,539.012325],[127.979232,524.013905],[116.982161,503.016117],[22.007455,499.016539],[0,536.012641]]]}},{"type":"Feature","properties":{"id":"13","sid":"S13","isRoute":null,"feat_type":"Landmark","selected":false,"aligned":true,"otype":"Polygon","mapType":"Sketch","gen_id":"g.232"},"geometry":{"type":"Polygon","coordinates":[[[200.495474,538.005478],[246.483226,541.505109],[244.983625,529.006426],[199.49574,527.006637],[200.495474,538.005478]]]}},{"type":"Feature","properties":{"id":"14","sid":"S14","isRoute":null,"feat_type":"Landmark","selected":false,"aligned":true,"otype":"Polygon","mapType":"Sketch","gen_id":"g.228.229.230.231"},"geometry":{"type":"Polygon","coordinates":[[[187.998802,486.010956],[184.738484,509.002739],[249.471244,512.752344],[253.970046,502.003476],[228.476836,499.50374],[230.726237,488.254925],[187.998802,486.010956]]]}},{"type":"Feature","properties":{"id":"15","sid":"S15","isRoute":null,"feat_type":"Landmark","selected":false,"aligned":true,"otype":"Polygon","mapType":"Sketch","gen_id":"g.131"},"geometry":{"type":"Polygon","coordinates":[[[354.418259,529.509955],[435.896559,529.010008],[434.396959,510.012009],[354.418259,507.512272],[354.418259,529.509955]]]}},{"type":"Feature","properties":{"id":"43","sid":"S43","isRoute":null,"feat_type":"Landmark","selected":false,"aligned":true,"otype":"Polygon","mapType":"Sketch","gen_id":"g.224.225.226"},"geometry":{"type":"Polygon","coordinates":[[[444.810958,47.690109],[524.448879,51.328516],[534.446216,68.326725],[447.969247,73.826145],[444.810958,47.690109]]]}},{"type":"Feature","properties":{"id":"44","sid":"S44","isRoute":null,"feat_type":"Landmark","selected":false,"aligned":true,"otype":"Polygon","mapType":"Sketch","gen_id":"g.207.209.235.236"},"geometry":{"type":"Polygon","coordinates":[[[544.443554,153.817718],[516.451009,153.317771],[515.951142,133.819825],[577.434767,136.819509],[580.433968,169.816032],[541.944219,169.816032],[544.443554,153.817718]]]}},{"type":"Feature","properties":{"id":"45","sid":"S45","isRoute":null,"feat_type":"Landmark","selected":false,"aligned":true,"otype":"Polygon","mapType":"Sketch","gen_id":"g.227"},"geometry":{"type":"Polygon","coordinates":[[[537.445417,124.820773],[577.434767,125.32072],[576.9349,106.822669],[535.44595,107.822564],[537.445417,124.820773]]]}},{"type":"Feature","properties":{"id":"49","sid":"S49","isRoute":null,"feat_type":"Landmark","selected":false,"aligned":true,"otype":"Polygon","mapType":"Sketch","gen_id":"g.222.223"},"geometry":{"type":"Polygon","coordinates":[[[728.894429,70.826461],[782.380184,73.326198],[814.871531,58.327778],[814.871531,37.829938],[764.384977,29.83078],[729.394296,34.830254],[715.398024,50.828568],[728.894429,70.826461]]]}},{"type":"Feature","properties":{"id":"50","sid":"S50","isRoute":null,"feat_type":"Landmark","selected":false,"aligned":true,"otype":"Polygon","mapType":"Sketch","gen_id":"g.213"},"geometry":{"type":"Polygon","coordinates":[[[644.416928,111.322195],[724.895494,109.822353],[714.39829,75.825935],[641.417727,78.825619],[644.416928,111.322195]]]}},{"type":"Feature","properties":{"id":"59","sid":"S59","isRoute":null,"feat_type":"Landmark","selected":false,"aligned":true,"otype":"CircleMarker","mapType":"Sketch","gen_id":"g.133"},"geometry":{"type":"Polygon","coordinates":[[[474,518.987179],[473.995185,518.889162],[473.980785,518.792089],[473.95694,518.696894],[473.92388,518.604496],[473.881921,518.515782],[473.83147,518.431609],[473.77301,518.352786],[473.707107,518.280072],[473.634393,518.214169],[473.55557,518.155709],[473.471397,518.105258],[473.382683,518.063299],[473.290285,518.030239],[473.19509,518.006394],[473.098017,517.991994],[473,517.987179],[472.901983,517.991994],[472.80491,518.006394],[472.709715,518.030239],[472.617317,518.063299],[472.528603,518.105258],[472.44443,518.155709],[472.365607,518.214169],[472.292893,518.280072],[472.22699,518.352786],[472.16853,518.431609],[472.118079,518.515782],[472.07612,518.604496],[472.04306,518.696894],[472.019215,518.792089],[472.004815,518.889162],[472,518.987179],[472.004815,519.085196],[472.019215,519.182269],[472.04306,519.277464],[472.07612,519.369862],[472.118079,519.458576],[472.16853,519.542749],[472.22699,519.621572],[472.292893,519.694286],[472.365607,519.760189],[472.44443,519.818649],[472.528603,519.8691],[472.617317,519.911059],[472.709715,519.944119],[472.80491,519.967964],[472.901983,519.982364],[473,519.987179],[473.098017,519.982364],[473.19509,519.967964],[473.290285,519.944119],[473.382683,519.911059],[473.471397,519.8691],[473.55557,519.818649],[473.634393,519.760189],[473.707107,519.694286],[473.77301,519.621572],[473.83147,519.542749],[473.881921,519.458576],[473.92388,519.369862],[473.95694,519.277464],[473.980785,519.182269],[473.995185,519.085196],[474,518.987179]]]}}]}