{"type":"FeatureCollection","features":[{"type":"Feature","geometry":{"type":"LineString","coordinates":[[644.833589,401.019351],[653.831193,439.036394],[647.832791,465.048055],[610.842642,495.06151],[580.85063,488.05837],[483.876457,490.059267],[385.455269,494.062374]]},"properties":{"mapType":"Sketch","genType3":"Multi-MultiOmissionMerge","SketchRouteSeqOrder":3,"aligned":true,"feat_type":null,"id":"G10","isRoute":"Yes","otype":"Line","selected":false,"sid":"S15","group":true,"groupID":"10","gen_id":"g.71.73.75.77.79.81"}},{"type":"Feature","geometry":{"type":"MultiLineString","coordinates":[[[647.832791,465.048055],[734.809626,497.062407]],[[653.831193,439.036394],[753.804567,448.040431]],[[610.842642,495.06151],[688.821874,533.078552]]]},"properties":{"mapType":"Sketch","genType3":"Others","SketchRouteSeqOrder":null,"aligned":true,"feat_type":null,"id":"G11","isRoute":null,"otype":"Line","selected":false,"sid":"S14","group":true,"groupID":"11","gen_id":"g.72.74.76.78.80"}},{"id":"0","type":"Feature","properties":{"SketchRouteSeqOrder":null,"aligned":true,"feat_type":null,"group":null,"groupID":null,"id":"0","isRoute":null,"otype":"Line","selected":false,"sid":"S0","mapType":"Sketch","gen_id":"g.95"},"geometry":{"type":"LineString","coordinates":[[207.957931,565.15659],[205.958464,471.114432]]}},{"id":"1","type":"Feature","properties":{"SketchRouteSeqOrder":null,"aligned":true,"feat_type":null,"group":null,"groupID":null,"id":"1","isRoute":null,"otype":"Line","selected":false,"sid":"S1","mapType":"Sketch","gen_id":"g.97"},"geometry":{"type":"LineString","coordinates":[[205.958464,471.114432],[383.91107,477.117123]]}},{"id":"2","type":"Feature","properties":{"SketchRouteSeqOrder":9,"aligned":true,"feat_type":null,"group":null,"groupID":null,"id":"2","isRoute":"Yes","otype":"Line","selected":false,"sid":"S2","mapType":"Sketch","gen_id":"g.99"},"geometry":{"type":"LineString","coordinates":[[385.455269,494.062374],[383.91107,477.117123]]}},{"id":"3","type":"Feature","properties":{"SketchRouteSeqOrder":null,"aligned":true,"feat_type":null,"group":null,"groupID":null,"id":"3","isRoute":null,"otype":"Line","selected":false,"sid":"S3","mapType":"Sketch","gen_id":"g.87"},"geometry":{"type":"LineString","coordinates":[[385.455269,494.062374],[389.951541,564.57381]]}},{"id":"4","type":"Feature","properties":{"SketchRouteSeqOrder":10,"aligned":true,"feat_type":null,"group":null,"groupID":null,"id":"4","isRoute":"Yes","otype":"Line","selected":false,"sid":"S4","mapType":"Sketch","gen_id":"g.101"},"geometry":{"type":"LineString","coordinates":[[383.91107,477.117123],[381.453804,396.498463]]}},{"id":"5","type":"Feature","properties":{"SketchRouteSeqOrder":null,"aligned":true,"feat_type":null,"group":null,"groupID":null,"id":"5","isRoute":null,"otype":"Line","selected":false,"sid":"S5","mapType":"Sketch","gen_id":"g.103"},"geometry":{"type":"LineString","coordinates":[[381.453804,396.498463],[213.498536,397.498912]]}},{"id":"6","type":"Feature","properties":{"SketchRouteSeqOrder":null,"aligned":true,"feat_type":null,"group":null,"groupID":null,"id":"6","isRoute":null,"otype":"Line","selected":false,"sid":"S6","mapType":"Sketch","gen_id":"g.105.107"},"geometry":{"type":"LineString","coordinates":[[213.498536,397.498912],[205.958464,471.114432]]}},{"id":"7","type":"Feature","properties":{"SketchRouteSeqOrder":null,"aligned":true,"feat_type":null,"group":null,"groupID":null,"id":"7","isRoute":null,"otype":"Line","selected":false,"sid":"S7","mapType":"Sketch","gen_id":"g.111"},"geometry":{"type":"LineString","coordinates":[[213.498536,397.498912],[70.986421,397.017557]]}},{"id":"9","type":"Feature","properties":{"SketchRouteSeqOrder":16,"aligned":true,"feat_type":null,"group":null,"groupID":null,"id":"9","isRoute":"Yes","otype":"Line","selected":false,"sid":"S9","mapType":"Sketch","gen_id":"g.16.18.23.25.27.28"},"geometry":{"type":"LineString","coordinates":[[381.453804,396.498463],[385.90255,291.970465]]}},{"id":"16","type":"Feature","properties":{"SketchRouteSeqOrder":null,"aligned":true,"feat_type":null,"group":null,"groupID":null,"id":"16","isRoute":null,"otype":"Line","selected":false,"sid":"S16","mapType":"Sketch","gen_id":"g.1.82"},"geometry":{"type":"LineString","coordinates":[[644.833589,401.019351],[381.453804,396.498463]]}},{"id":"17","type":"Feature","properties":{"SketchRouteSeqOrder":null,"aligned":true,"feat_type":null,"group":null,"groupID":null,"id":"17","isRoute":null,"otype":"Line","selected":false,"sid":"S17","mapType":"Sketch","gen_id":"g.29"},"geometry":{"type":"LineString","coordinates":[[385.90255,291.970465],[272.932637,288.96912]]}},{"id":"18","type":"Feature","properties":{"SketchRouteSeqOrder":17,"aligned":true,"feat_type":null,"group":null,"groupID":null,"id":"21","isRoute":"Yes","otype":"Line","selected":false,"sid":"S21","mapType":"Sketch","gen_id":"g.30"},"geometry":{"type":"LineString","coordinates":[[385.90255,291.970465],[394.449278,266.031652]]}},{"id":"19","type":"Feature","properties":{"SketchRouteSeqOrder":21,"aligned":true,"feat_type":null,"group":null,"groupID":null,"id":"22","isRoute":"Yes","otype":"Line","selected":false,"sid":"S22","mapType":"Sketch","gen_id":"g.31.33.37.254.258"},"geometry":{"type":"LineString","coordinates":[[394.449278,266.031652],[402.947015,206.504966],[425.940891,181.493754],[464.930507,164.986354],[499.421321,158.483439],[521.415463,156.482542]]}},{"id":"20","type":"Feature","properties":{"SketchRouteSeqOrder":null,"aligned":true,"feat_type":null,"group":null,"groupID":null,"id":"23","isRoute":null,"otype":"Line","selected":false,"sid":"S23","mapType":"Sketch","gen_id":"g.9.12.13.15"},"geometry":{"type":"LineString","coordinates":[[394.449278,266.031652],[721.840246,269.049849]]}},{"id":"21","type":"Feature","properties":{"SketchRouteSeqOrder":24,"aligned":true,"feat_type":null,"group":null,"groupID":null,"id":"24","isRoute":"Yes","otype":"Line","selected":false,"sid":"S24","mapType":"Sketch","gen_id":"g.56.62"},"geometry":{"type":"LineString","coordinates":[[521.415463,156.482542],[542.887906,105.976744],[597.873262,87.968672],[679.851429,76.963738],[685.849831,80.965532]]}},{"id":"22","type":"Feature","properties":{"SketchRouteSeqOrder":null,"aligned":false,"feat_type":null,"group":null,"groupID":null,"id":"25","isRoute":null,"otype":"Line","selected":false,"sid":"S25","mapType":"Sketch"},"geometry":{"type":"LineString","coordinates":[[685.849831,80.965532],[679.851429,24.940416]]}},{"id":"23","type":"Feature","properties":{"SketchRouteSeqOrder":null,"aligned":false,"feat_type":null,"group":null,"groupID":null,"id":"26","isRoute":null,"otype":"Line","selected":false,"sid":"S26","mapType":"Sketch"},"geometry":{"type":"LineString","coordinates":[[685.849831,80.965532],[702.845305,148.99603]]}},{"id":"24","type":"Feature","properties":{"SketchRouteSeqOrder":null,"aligned":true,"feat_type":null,"group":null,"groupID":null,"id":"27","isRoute":null,"otype":"Line","selected":false,"sid":"S27","mapType":"Sketch","gen_id":"g.55"},"geometry":{"type":"LineString","coordinates":[[702.845305,148.99603],[521.415463,156.482542]]}},{"id":"25","type":"Feature","properties":{"SketchRouteSeqOrder":null,"aligned":true,"feat_type":null,"group":null,"groupID":null,"id":"28","isRoute":null,"otype":"Line","selected":false,"sid":"S28","mapType":"Sketch","gen_id":"g.39.41.43.47.52.54.113"},"geometry":{"type":"LineString","coordinates":[[702.845305,148.99603],[721.840246,269.049849]]}},{"id":"26","type":"Feature","properties":{"SketchRouteSeqOrder":null,"aligned":true,"feat_type":null,"group":null,"groupID":null,"id":"29","isRoute":null,"otype":"Line","selected":false,"sid":"S29","mapType":"Sketch","gen_id":"g.8"},"geometry":{"type":"LineString","coordinates":[[721.840246,269.049849],[766.828264,405.110844]]}},{"id":"27","type":"Feature","properties":{"SketchRouteSeqOrder":2,"aligned":true,"feat_type":null,"group":null,"groupID":null,"id":"30","isRoute":"Yes","otype":"Line","selected":false,"sid":"S30","mapType":"Sketch","gen_id":"g.6.83"},"geometry":{"type":"LineString","coordinates":[[766.828264,405.110844],[644.833589,401.019351]]}},{"id":"28","type":"Feature","properties":{"SketchRouteSeqOrder":null,"aligned":true,"feat_type":null,"group":null,"groupID":null,"id":"31","isRoute":null,"otype":"Line","selected":false,"sid":"S31","mapType":"Sketch","gen_id":"g.7"},"geometry":{"type":"LineString","coordinates":[[766.828264,405.110844],[850,481.14493],[850,482.145378]]}},{"id":"29","type":"Feature","properties":{"SketchRouteSeqOrder":null,"aligned":true,"feat_type":null,"group":null,"groupID":null,"id":"32","isRoute":null,"otype":"Line","selected":false,"sid":"S32","mapType":"Sketch","gen_id":"g.38"},"geometry":{"type":"LineString","coordinates":[[766.828264,405.110844],[850,396.534343],[850,396.034119]]}},{"type":"Feature","properties":{"id":"18","sid":"S18","isRoute":null,"feat_type":"Landmark","selected":false,"aligned":true,"otype":"Polygon","mapType":"Sketch","gen_id":"g.216"},"geometry":{"type":"Polygon","coordinates":[[[336.729964,284.006408],[364.972442,282.755847],[363.722775,275.252483],[336.480031,271.750914],[336.729964,284.006408]]]}},{"type":"Feature","properties":{"id":"19","sid":"S19","isRoute":null,"feat_type":"Landmark","selected":false,"aligned":true,"otype":"Polygon","mapType":"Sketch","gen_id":"g.218"},"geometry":{"type":"Polygon","coordinates":[[[313.960993,164.462135],[380.943154,180.469311],[418.933036,124.444196],[355.899887,102.953423],[313.960993,164.462135]]]}},{"type":"Feature","properties":{"id":"33","sid":"S33","isRoute":null,"feat_type":"Landmark","selected":false,"aligned":true,"otype":"Polygon","mapType":"Sketch","gen_id":"g.224"},"geometry":{"type":"Polygon","coordinates":[[[516.917727,60.907228],[589.89829,63.908573],[589.89829,40.898258],[525.91533,40.898258],[516.917727,60.907228]]]}},{"type":"Feature","properties":{"id":"36","sid":"S36","isRoute":null,"feat_type":"Landmark","selected":false,"aligned":true,"otype":"Polygon","mapType":"Sketch","gen_id":"g.219"},"geometry":{"type":"Polygon","coordinates":[[[728.934501,134.5099],[760.925981,132.008779],[760.426114,115.001154],[724.935566,117.002051],[728.934501,134.5099]]]}},{"type":"Feature","properties":{"id":"37","sid":"S37","isRoute":null,"feat_type":"Landmark","selected":false,"aligned":true,"otype":"Polygon","mapType":"Sketch","gen_id":"g.207.209.211.235.236"},"geometry":{"type":"Polygon","coordinates":[[[554.98083,136.010573],[598.469247,134.5099],[662.952074,133.009227],[660.452739,92.991287],[608.466585,97.493306],[576.475105,121.003845],[554.98083,136.010573]]]}},{"type":"Feature","properties":{"id":"38","sid":"S38","isRoute":null,"feat_type":"Landmark","selected":false,"aligned":true,"otype":"Polygon","mapType":"Sketch","gen_id":"g.213"},"geometry":{"type":"Polygon","coordinates":[[[722.436231,90.99039],[801.415197,85.487924],[796.916395,49.471778],[719.43703,51.472675],[722.436231,90.99039]]]}},{"type":"Feature","properties":{"id":"39","sid":"S39","isRoute":null,"feat_type":"Landmark","selected":false,"aligned":true,"otype":"Polygon","mapType":"Sketch","gen_id":"g.135"},"geometry":{"type":"Polygon","coordinates":[[[489.986421,451.512238],[545.971511,451.512238],[546.471377,432.003492],[488.986687,432.753829],[489.986421,451.512238]]]}},{"type":"Feature","properties":{"id":"40","sid":"S40","isRoute":null,"feat_type":"Landmark","selected":false,"aligned":true,"otype":"Polygon","mapType":"Sketch","gen_id":"g.133"},"geometry":{"type":"Polygon","coordinates":[[[535.474306,477.523899],[582.211859,478.274235],[574.463922,457.264817],[536.47404,459.015602],[535.474306,477.523899]]]}},{"type":"Feature","properties":{"id":"41","sid":"S41","isRoute":null,"feat_type":"Landmark","selected":false,"aligned":true,"otype":"Polygon","mapType":"Sketch","gen_id":"g.237"},"geometry":{"type":"Polygon","coordinates":[[[595.458331,463.017396],[617.702407,462.767284],[619.701874,452.512686],[594.958464,451.012014],[595.458331,463.017396]]]}},{"type":"Feature","properties":{"id":"42","sid":"S42","isRoute":null,"feat_type":"Landmark","selected":false,"aligned":true,"otype":"Polygon","mapType":"Sketch","gen_id":"g.238"},"geometry":{"type":"Polygon","coordinates":[[[625.925182,441.517076],[626.425049,423.008779],[606.930241,423.008779],[609.929442,441.016852],[625.925182,441.517076]]]}},{"type":"Feature","properties":{"id":"43","sid":"S43","isRoute":null,"feat_type":"Landmark","selected":false,"aligned":true,"otype":"Polygon","mapType":"Sketch","gen_id":"g.131"},"geometry":{"type":"Polygon","coordinates":[[[503.468315,481.515377],[411.492811,480.765041],[412.242611,461.506408],[499.719314,462.006632],[503.468315,481.515377]]]}},{"type":"Feature","properties":{"id":"44","sid":"S44","isRoute":null,"feat_type":"Landmark","selected":false,"aligned":true,"otype":"Polygon","mapType":"Sketch","gen_id":"g.228"},"geometry":{"type":"Polygon","coordinates":[[[260.483359,448.014161],[289.475637,437.509451],[272.480164,428.505415],[245.487353,439.010124],[260.483359,448.014161]]]}},{"type":"Feature","properties":{"id":"46","sid":"S46","isRoute":null,"feat_type":"Landmark","selected":false,"aligned":true,"otype":"Polygon","mapType":"Sketch","gen_id":"g.229"},"geometry":{"type":"Polygon","coordinates":[[[232.247337,421.251138],[228.498336,428.504389],[245.487353,439.010124],[272.480164,428.505415],[269.237486,423.252035],[232.247337,421.251138]]]}},{"type":"Feature","properties":{"id":"47","sid":"S47","isRoute":null,"feat_type":"Landmark","selected":false,"aligned":true,"otype":"Polygon","mapType":"Sketch","gen_id":"g.231"},"geometry":{"type":"Polygon","coordinates":[[[232.247337,421.251138],[238.495673,410.746429],[269.237486,413.997886],[269.237486,423.252035],[232.247337,421.251138]]]}},{"type":"Feature","properties":{"id":"48","sid":"S48","isRoute":null,"feat_type":"Landmark","selected":false,"aligned":false,"otype":"Polygon","mapType":"Sketch"},"geometry":{"type":"Polygon","coordinates":[[[304.728034,461.51919],[321.473574,462.519638],[319.72404,448.513359],[306.227634,445.011789],[304.728034,461.51919]]]}},{"type":"Feature","properties":{"id":"49","sid":"S49","isRoute":null,"feat_type":"Landmark","selected":false,"aligned":true,"otype":"Polygon","mapType":"Sketch","gen_id":"g.232"},"geometry":{"type":"Polygon","coordinates":[[[258.990215,510.541166],[289.732028,513.542511],[290.231895,496.034663],[337.719247,495.284326],[335.219913,485.029729],[258.240415,484.029281],[258.990215,510.541166]]]}},{"type":"Feature","properties":{"id":"50","sid":"S50","isRoute":null,"feat_type":"Landmark","selected":false,"aligned":false,"otype":"Polygon","mapType":"Sketch"},"geometry":{"type":"Polygon","coordinates":[[[258.465387,536.562149],[286.457931,540.563943],[286.957798,526.557664],[256.965786,522.555871],[258.465387,536.562149]]]}},{"type":"Feature","properties":{"id":"51","sid":"S51","isRoute":null,"feat_type":"Landmark","selected":false,"aligned":true,"otype":"Polygon","mapType":"Sketch","gen_id":"g.203.205"},"geometry":{"type":"Polygon","coordinates":[[[105.956068,447.040879],[177.936897,453.04357],[170.938761,425.031012],[114.953671,426.031461],[102.956866,424.030564],[105.956068,447.040879]]]}},{"type":"Feature","properties":{"id":"52","sid":"S52","isRoute":null,"feat_type":"Landmark","selected":false,"aligned":true,"otype":"Polygon","mapType":"Sketch","gen_id":"g.195.197.199.201"},"geometry":{"type":"Polygon","coordinates":[[[38.973907,511.069583],[96.958464,507.067789],[88.960594,463.048055],[30.976037,456.044915],[38.973907,511.069583]]]}}]}