{"type":"FeatureCollection","features":[{"id":"0","type":"Feature","properties":{"SketchRouteSeqOrder":28,"aligned":true,"feat_type":null,"id":"0","isRoute":"Yes","otype":"Line","selected":false,"sid":"S0","mapType":"Sketch","gen_id":"g.64.66.68.70"},"geometry":{"type":"LineString","coordinates":[[581.858351,100.747947],[561.863676,0]]}},{"id":"1","type":"Feature","properties":{"SketchRouteSeqOrder":null,"aligned":true,"feat_type":null,"id":"3","isRoute":null,"otype":"Line","selected":false,"sid":"S3","mapType":"Sketch","gen_id":"g.57.59.61"},"geometry":{"type":"LineString","coordinates":[[581.858351,100.747947],[602.85276,172.780238]]}},{"id":"2","type":"Feature","properties":{"SketchRouteSeqOrder":null,"aligned":true,"feat_type":null,"id":"4","isRoute":null,"otype":"Line","selected":false,"sid":"S4","mapType":"Sketch","gen_id":"g.8.39.41.43.47.52.54.113"},"geometry":{"type":"LineString","coordinates":[[602.85276,172.780238],[650.862345,469.949769]]}},{"id":"3","type":"Feature","properties":{"SketchRouteSeqOrder":null,"aligned":true,"feat_type":null,"id":"5","isRoute":null,"otype":"Line","selected":false,"sid":"S5","mapType":"Sketch","gen_id":"g.55"},"geometry":{"type":"LineString","coordinates":[[602.85276,172.780238],[302.955003,150.806699]]}},{"id":"4","type":"Feature","properties":{"SketchRouteSeqOrder":24,"aligned":true,"feat_type":null,"id":"6","isRoute":"Yes","otype":"Line","selected":false,"sid":"S6","mapType":"Sketch","gen_id":"g.62"},"geometry":{"type":"LineString","coordinates":[[342.926779,83.790553],[581.858351,100.747947]]}},{"id":"5","type":"Feature","properties":{"SketchRouteSeqOrder":null,"aligned":true,"feat_type":null,"id":"7","isRoute":null,"otype":"Line","selected":false,"sid":"S7","mapType":"Sketch","gen_id":"g.63"},"geometry":{"type":"LineString","coordinates":[[342.926779,83.790553],[176.970978,60.780238]]}},{"id":"6","type":"Feature","properties":{"SketchRouteSeqOrder":23,"aligned":true,"feat_type":null,"id":"8","isRoute":"Yes","otype":"Line","selected":false,"sid":"S8","mapType":"Sketch","gen_id":"g.56"},"geometry":{"type":"LineString","coordinates":[[302.955003,150.806699],[342.926779,83.790553]]}},{"id":"7","type":"Feature","properties":{"SketchRouteSeqOrder":21,"aligned":true,"feat_type":null,"id":"9","isRoute":"Yes","otype":"Line","selected":false,"sid":"S9","mapType":"Sketch","gen_id":"g.16.18.23.25.27.28.30.31.33.37.254.258"},"geometry":{"type":"LineString","coordinates":[[242.948612,468.970399],[245.947814,433.954702],[265.942489,264.878907],[302.955003,150.806699]]}},{"id":"8","type":"Feature","properties":{"SketchRouteSeqOrder":null,"aligned":true,"feat_type":null,"id":"12","isRoute":null,"otype":"Line","selected":false,"sid":"S12","mapType":"Sketch","gen_id":"g.103"},"geometry":{"type":"LineString","coordinates":[[242.948612,468.970399],[109.984025,459.966363],[56.998136,464.968605]]}},{"id":"9","type":"Feature","properties":{"SketchRouteSeqOrder":10,"aligned":true,"feat_type":null,"id":"13","isRoute":"Yes","otype":"Line","selected":false,"sid":"S13","mapType":"Sketch","gen_id":"g.99.101"},"geometry":{"type":"LineString","coordinates":[[238.934767,536.928241],[242.948612,468.970399]]}},{"id":"10","type":"Feature","properties":{"SketchRouteSeqOrder":3,"aligned":true,"feat_type":null,"id":"14","isRoute":"Yes","otype":"Line","selected":false,"sid":"S14","mapType":"Sketch","gen_id":"g.71.73.75.77.79.81"},"geometry":{"type":"LineString","coordinates":[[466.865389,469.508006],[463.874859,537.928689],[238.934767,536.928241]]}},{"id":"11","type":"Feature","properties":{"SketchRouteSeqOrder":null,"aligned":true,"feat_type":null,"id":"15","isRoute":null,"otype":"Line","selected":false,"sid":"S15","mapType":"Sketch","gen_id":"g.1.82"},"geometry":{"type":"LineString","coordinates":[[242.948612,468.970399],[466.865389,469.508006]]}},{"id":"12","type":"Feature","properties":{"SketchRouteSeqOrder":2,"aligned":true,"feat_type":null,"id":"16","isRoute":"Yes","otype":"Line","selected":false,"sid":"S16","mapType":"Sketch","gen_id":"g.6.83"},"geometry":{"type":"LineString","coordinates":[[650.862345,469.949769],[466.865389,469.508006]]}},{"id":"13","type":"Feature","properties":{"SketchRouteSeqOrder":null,"aligned":true,"feat_type":null,"id":"17","isRoute":null,"otype":"Line","selected":false,"sid":"S17","mapType":"Sketch","gen_id":"g.7"},"geometry":{"type":"LineString","coordinates":[[650.862345,469.949769],[638.828264,600],[639.827998,600]]}},{"id":"14","type":"Feature","properties":{"SketchRouteSeqOrder":null,"aligned":true,"feat_type":null,"id":"18","isRoute":null,"otype":"Line","selected":false,"sid":"S18","mapType":"Sketch","gen_id":"g.38"},"geometry":{"type":"LineString","coordinates":[[650.862345,469.949769],[732.803236,472.899537]]}},{"id":"15","type":"Feature","properties":{"SketchRouteSeqOrder":null,"aligned":true,"feat_type":null,"id":"19","isRoute":null,"otype":"Line","selected":false,"sid":"S19","mapType":"Sketch","gen_id":"g.87"},"geometry":{"type":"LineString","coordinates":[[238.934767,536.928241],[235.935566,600]]}},{"type":"Feature","properties":{"id":"20","sid":"S20","isRoute":null,"feat_type":"Landmark","selected":false,"aligned":true,"otype":"Polygon","mapType":"Sketch","gen_id":"g.221.222.223"},"geometry":{"type":"Polygon","coordinates":[[[636.848234,75.891979],[700.831193,86.896912],[711.828264,57.883906],[635.8485,48.87987],[636.848234,75.891979]]]}},{"type":"Feature","properties":{"id":"21","sid":"S21","isRoute":null,"feat_type":"Landmark","selected":false,"aligned":true,"otype":"CircleMarker","mapType":"Sketch"},"geometry":{"type":"Polygon","coordinates":[[[218,310.760684],[217.995185,310.662667],[217.980785,310.565594],[217.95694,310.470399],[217.92388,310.378001],[217.881921,310.289287],[217.83147,310.205114],[217.77301,310.126291],[217.707107,310.053577],[217.634393,309.987674],[217.55557,309.929214],[217.471397,309.878763],[217.382683,309.836804],[217.290285,309.803744],[217.19509,309.779899],[217.098017,309.765499],[217,309.760684],[216.901983,309.765499],[216.80491,309.779899],[216.709715,309.803744],[216.617317,309.836804],[216.528603,309.878763],[216.44443,309.929214],[216.365607,309.987674],[216.292893,310.053577],[216.22699,310.126291],[216.16853,310.205114],[216.118079,310.289287],[216.07612,310.378001],[216.04306,310.470399],[216.019215,310.565594],[216.004815,310.662667],[216,310.760684],[216.004815,310.858701],[216.019215,310.955774],[216.04306,311.050969],[216.07612,311.143367],[216.118079,311.232081],[216.16853,311.316254],[216.22699,311.395077],[216.292893,311.467791],[216.365607,311.533694],[216.44443,311.592154],[216.528603,311.642605],[216.617317,311.684564],[216.709715,311.717624],[216.80491,311.741469],[216.901983,311.755869],[217,311.760684],[217.098017,311.755869],[217.19509,311.741469],[217.290285,311.717624],[217.382683,311.684564],[217.471397,311.642605],[217.55557,311.592154],[217.634393,311.533694],[217.707107,311.467791],[217.77301,311.395077],[217.83147,311.316254],[217.881921,311.232081],[217.92388,311.143367],[217.95694,311.050969],[217.980785,310.955774],[217.995185,310.858701],[218,310.760684]]]}},{"type":"Feature","properties":{"id":"22","sid":"S22","isRoute":null,"feat_type":"Landmark","selected":false,"aligned":true,"otype":"CircleMarker","mapType":"Sketch"},"geometry":{"type":"Polygon","coordinates":[[[670,127.586895],[669.995185,127.488878],[669.980785,127.391805],[669.95694,127.29661],[669.92388,127.204212],[669.881921,127.115498],[669.83147,127.031325],[669.77301,126.952502],[669.707107,126.879788],[669.634393,126.813885],[669.55557,126.755425],[669.471397,126.704974],[669.382683,126.663015],[669.290285,126.629955],[669.19509,126.60611],[669.098017,126.59171],[669,126.586895],[668.901983,126.59171],[668.80491,126.60611],[668.709715,126.629955],[668.617317,126.663015],[668.528603,126.704974],[668.44443,126.755425],[668.365607,126.813885],[668.292893,126.879788],[668.22699,126.952502],[668.16853,127.031325],[668.118079,127.115498],[668.07612,127.204212],[668.04306,127.29661],[668.019215,127.391805],[668.004815,127.488878],[668,127.586895],[668.004815,127.684912],[668.019215,127.781985],[668.04306,127.87718],[668.07612,127.969578],[668.118079,128.058292],[668.16853,128.142465],[668.22699,128.221288],[668.292893,128.294002],[668.365607,128.359905],[668.44443,128.418365],[668.528603,128.468816],[668.617317,128.510775],[668.709715,128.543835],[668.80491,128.56768],[668.901983,128.58208],[669,128.586895],[669.098017,128.58208],[669.19509,128.56768],[669.290285,128.543835],[669.382683,128.510775],[669.471397,128.468816],[669.55557,128.418365],[669.634393,128.359905],[669.707107,128.294002],[669.77301,128.221288],[669.83147,128.142465],[669.881921,128.058292],[669.92388,127.969578],[669.95694,127.87718],[669.980785,127.781985],[669.995185,127.684912],[670,127.586895]]]}}]}