{"type":"FeatureCollection","features":[{"id":"0","type":"Feature","properties":{"SketchRouteSeqOrder":null,"aligned":true,"feat_type":null,"id":"0","isRoute":null,"otype":"Line","selected":false,"sid":"S0","mapType":"Sketch","gen_id":"g.103"},"geometry":{"type":"LineString","coordinates":[[27,461.904084],[240,465.907882]]}},{"id":"1","type":"Feature","properties":{"SketchRouteSeqOrder":null,"aligned":true,"feat_type":null,"id":"1","isRoute":null,"otype":"Line","selected":false,"sid":"S1","mapType":"Sketch","gen_id":"g.87"},"geometry":{"type":"LineString","coordinates":[[239.5,581.517569],[242.5,541.980057]]}},{"id":"2","type":"Feature","properties":{"SketchRouteSeqOrder":10,"aligned":true,"feat_type":null,"id":"2","isRoute":"Yes","otype":"Line","selected":false,"sid":"S2","mapType":"Sketch","gen_id":"g.99.101"},"geometry":{"type":"LineString","coordinates":[[242.5,541.980057],[240,465.907882]]}},{"id":"3","type":"Feature","properties":{"SketchRouteSeqOrder":3,"aligned":true,"feat_type":null,"id":"3","isRoute":"Yes","otype":"Line","selected":false,"sid":"S3","mapType":"Sketch","gen_id":"g.71.73.75.77.79.81"},"geometry":{"type":"LineString","coordinates":[[469.5,470.912631],[464.5,537.976258],[242.5,541.980057]]}},{"id":"4","type":"Feature","properties":{"SketchRouteSeqOrder":null,"aligned":true,"feat_type":null,"id":"4","isRoute":null,"otype":"Line","selected":false,"sid":"S4","mapType":"Sketch","gen_id":"g.1.82"},"geometry":{"type":"LineString","coordinates":[[240,465.907882],[469.5,470.912631]]}},{"id":"5","type":"Feature","properties":{"SketchRouteSeqOrder":2,"aligned":true,"feat_type":null,"id":"5","isRoute":"Yes","otype":"Line","selected":false,"sid":"S5","mapType":"Sketch","gen_id":"g.6.83"},"geometry":{"type":"LineString","coordinates":[[642,472.82716],[469.5,470.912631]]}},{"id":"6","type":"Feature","properties":{"SketchRouteSeqOrder":null,"aligned":true,"feat_type":null,"id":"6","isRoute":null,"otype":"Line","selected":false,"sid":"S6","mapType":"Sketch","gen_id":"g.7"},"geometry":{"type":"LineString","coordinates":[[642,472.82716],[639,577.926876]]}},{"id":"7","type":"Feature","properties":{"SketchRouteSeqOrder":null,"aligned":true,"feat_type":null,"id":"7","isRoute":null,"otype":"Line","selected":false,"sid":"S7","mapType":"Sketch","gen_id":"g.38"},"geometry":{"type":"LineString","coordinates":[[642,472.82716],[800,471.826211]]}},{"id":"8","type":"Feature","properties":{"SketchRouteSeqOrder":null,"aligned":true,"feat_type":null,"id":"8","isRoute":null,"otype":"Line","selected":false,"sid":"S8","mapType":"Sketch","gen_id":"g.8.39.41.43.45.47.50.52.54.113"},"geometry":{"type":"LineString","coordinates":[[642,472.82716],[617,230.597341],[604.5,171.771605]]}},{"id":"9","type":"Feature","properties":{"SketchRouteSeqOrder":null,"aligned":true,"feat_type":null,"id":"9","isRoute":null,"otype":"Line","selected":false,"sid":"S9","mapType":"Sketch","gen_id":"g.55"},"geometry":{"type":"LineString","coordinates":[[604.5,171.771605],[303,155.528015]]}},{"id":"10","type":"Feature","properties":{"SketchRouteSeqOrder":null,"aligned":true,"feat_type":null,"id":"10","isRoute":null,"otype":"Line","selected":false,"sid":"S10","mapType":"Sketch","gen_id":"g.57.59.61"},"geometry":{"type":"LineString","coordinates":[[604.5,171.771605],[584,102.241216]]}},{"id":"11","type":"Feature","properties":{"SketchRouteSeqOrder":24,"aligned":true,"feat_type":null,"id":"11","isRoute":"Yes","otype":"Line","selected":false,"sid":"S11","mapType":"Sketch","gen_id":"g.62"},"geometry":{"type":"LineString","coordinates":[[341,83.723647],[584,102.241216]]}},{"id":"12","type":"Feature","properties":{"SketchRouteSeqOrder":23,"aligned":true,"feat_type":null,"id":"12","isRoute":"Yes","otype":"Line","selected":false,"sid":"S12","mapType":"Sketch","gen_id":"g.56"},"geometry":{"type":"LineString","coordinates":[[303,155.528015],[341,83.723647]]}},{"id":"13","type":"Feature","properties":{"SketchRouteSeqOrder":21,"aligned":true,"feat_type":null,"id":"13","isRoute":"Yes","otype":"Line","selected":false,"sid":"S13","mapType":"Sketch","gen_id":"g.16.18.23.25.27.28.30.31.33.37.254.258"},"geometry":{"type":"LineString","coordinates":[[240,465.907882],[266,250.647673],[303,155.528015]]}},{"id":"14","type":"Feature","properties":{"SketchRouteSeqOrder":null,"aligned":true,"feat_type":null,"id":"14","isRoute":null,"otype":"Line","selected":false,"sid":"S14","mapType":"Sketch","gen_id":"g.63"},"geometry":{"type":"LineString","coordinates":[[200.5,67.239791],[341,83.723647]]}},{"id":"15","type":"Feature","properties":{"SketchRouteSeqOrder":27,"aligned":true,"feat_type":null,"id":"15","isRoute":"Yes","otype":"Line","selected":false,"sid":"S15","mapType":"Sketch","gen_id":"g.64.66.68"},"geometry":{"type":"LineString","coordinates":[[584,102.241216],[561,24.675214]]}},{"type":"Feature","properties":{"id":"18","sid":"S18","isRoute":null,"feat_type":"Landmark","selected":false,"aligned":true,"otype":"Polygon","mapType":"Sketch","gen_id":"g.131"},"geometry":{"type":"Polygon","coordinates":[[[328,522.301994],[329,501.532289],[395,504.535138],[397.5,523.553181],[328,522.301994]]]}},{"type":"Feature","properties":{"id":"20","sid":"S20","isRoute":null,"feat_type":"Landmark","selected":false,"aligned":true,"otype":"Polygon","mapType":"Sketch","gen_id":"g.221.222.223"},"geometry":{"type":"Polygon","coordinates":[[[702,83.277778],[665,83.388889],[644.5,77.633428],[638,77.633428],[642.75,66.873219],[644.75,54.111111],[647.75,48.355651],[663.25,49.106363],[687.75,49.3566],[704.25,51.608737],[712.25,56.613485],[712.25,64.120608],[706.5,77.883666],[702,83.277778]]]}},{"type":"Feature","properties":{"id":"21","sid":"S21","isRoute":null,"feat_type":"Landmark","selected":false,"aligned":true,"otype":"CircleMarker","mapType":"Sketch","gen_id":"g.133"},"geometry":{"type":"Polygon","coordinates":[[[426.25,520.493115],[426.245185,520.395098],[426.230785,520.298025],[426.20694,520.20283],[426.17388,520.110432],[426.131921,520.021718],[426.08147,519.937545],[426.02301,519.858722],[425.957107,519.786008],[425.884393,519.720105],[425.80557,519.661645],[425.721397,519.611194],[425.632683,519.569235],[425.540285,519.536175],[425.44509,519.51233],[425.348017,519.49793],[425.25,519.493115],[425.151983,519.49793],[425.05491,519.51233],[424.959715,519.536175],[424.867317,519.569235],[424.778603,519.611194],[424.69443,519.661645],[424.615607,519.720105],[424.542893,519.786008],[424.47699,519.858722],[424.41853,519.937545],[424.368079,520.021718],[424.32612,520.110432],[424.29306,520.20283],[424.269215,520.298025],[424.254815,520.395098],[424.25,520.493115],[424.254815,520.591132],[424.269215,520.688205],[424.29306,520.7834],[424.32612,520.875798],[424.368079,520.964512],[424.41853,521.048685],[424.47699,521.127508],[424.542893,521.200222],[424.615607,521.266125],[424.69443,521.324585],[424.778603,521.375036],[424.867317,521.416995],[424.959715,521.450055],[425.05491,521.4739],[425.151983,521.4883],[425.25,521.493115],[425.348017,521.4883],[425.44509,521.4739],[425.540285,521.450055],[425.632683,521.416995],[425.721397,521.375036],[425.80557,521.324585],[425.884393,521.266125],[425.957107,521.200222],[426.02301,521.127508],[426.08147,521.048685],[426.131921,520.964512],[426.17388,520.875798],[426.20694,520.7834],[426.230785,520.688205],[426.245185,520.591132],[426.25,520.493115]]]}},{"type":"Feature","properties":{"id":"22","sid":"S22","isRoute":null,"feat_type":"Landmark","selected":false,"aligned":true,"otype":"CircleMarker","mapType":"Sketch","gen_id":"g.216"},"geometry":{"type":"Polygon","coordinates":[[[215.5,312.263533],[215.495185,312.165516],[215.480785,312.068443],[215.45694,311.973248],[215.42388,311.88085],[215.381921,311.792136],[215.33147,311.707963],[215.27301,311.62914],[215.207107,311.556426],[215.134393,311.490523],[215.05557,311.432063],[214.971397,311.381612],[214.882683,311.339653],[214.790285,311.306593],[214.69509,311.282748],[214.598017,311.268348],[214.5,311.263533],[214.401983,311.268348],[214.30491,311.282748],[214.209715,311.306593],[214.117317,311.339653],[214.028603,311.381612],[213.94443,311.432063],[213.865607,311.490523],[213.792893,311.556426],[213.72699,311.62914],[213.66853,311.707963],[213.618079,311.792136],[213.57612,311.88085],[213.54306,311.973248],[213.519215,312.068443],[213.504815,312.165516],[213.5,312.263533],[213.504815,312.36155],[213.519215,312.458623],[213.54306,312.553818],[213.57612,312.646216],[213.618079,312.73493],[213.66853,312.819103],[213.72699,312.897926],[213.792893,312.97064],[213.865607,313.036543],[213.94443,313.095003],[214.028603,313.145454],[214.117317,313.187413],[214.209715,313.220473],[214.30491,313.244318],[214.401983,313.258718],[214.5,313.263533],[214.598017,313.258718],[214.69509,313.244318],[214.790285,313.220473],[214.882683,313.187413],[214.971397,313.145454],[215.05557,313.095003],[215.134393,313.036543],[215.207107,312.97064],[215.27301,312.897926],[215.33147,312.819103],[215.381921,312.73493],[215.42388,312.646216],[215.45694,312.553818],[215.480785,312.458623],[215.495185,312.36155],[215.5,312.263533]]]}},{"type":"Feature","properties":{"id":"23","sid":"S23","isRoute":null,"feat_type":"Landmark","selected":false,"aligned":true,"otype":"CircleMarker","mapType":"Sketch","gen_id":"g.213"},"geometry":{"type":"Polygon","coordinates":[[[668.5,128.088794],[668.495185,127.990777],[668.480785,127.893704],[668.45694,127.798509],[668.42388,127.706111],[668.381921,127.617397],[668.33147,127.533224],[668.27301,127.454401],[668.207107,127.381687],[668.134393,127.315784],[668.05557,127.257324],[667.971397,127.206873],[667.882683,127.164914],[667.790285,127.131854],[667.69509,127.108009],[667.598017,127.093609],[667.5,127.088794],[667.401983,127.093609],[667.30491,127.108009],[667.209715,127.131854],[667.117317,127.164914],[667.028603,127.206873],[666.94443,127.257324],[666.865607,127.315784],[666.792893,127.381687],[666.72699,127.454401],[666.66853,127.533224],[666.618079,127.617397],[666.57612,127.706111],[666.54306,127.798509],[666.519215,127.893704],[666.504815,127.990777],[666.5,128.088794],[666.504815,128.186811],[666.519215,128.283884],[666.54306,128.379079],[666.57612,128.471477],[666.618079,128.560191],[666.66853,128.644364],[666.72699,128.723187],[666.792893,128.795901],[666.865607,128.861804],[666.94443,128.920264],[667.028603,128.970715],[667.117317,129.012674],[667.209715,129.045734],[667.30491,129.069579],[667.401983,129.083979],[667.5,129.088794],[667.598017,129.083979],[667.69509,129.069579],[667.790285,129.045734],[667.882683,129.012674],[667.971397,128.970715],[668.05557,128.920264],[668.134393,128.861804],[668.207107,128.795901],[668.27301,128.723187],[668.33147,128.644364],[668.381921,128.560191],[668.42388,128.471477],[668.45694,128.379079],[668.480785,128.283884],[668.495185,128.186811],[668.5,128.088794]]]}}]}