{"type":"FeatureCollection","features":[{"type":"Feature","geometry":{"type":"LineString","coordinates":[[683.567813,477],[687.569418,424.5],[688.569819,407.5],[688.069619,339],[682.5,303.999525],[671.5,270.460589],[660.547951,249],[632.536715,198.5],[608.527085,179.5]]},"properties":{"mapType":"Sketch","genType3":"Multi-MultiOmissionMerge","SketchRouteSeqOrder":null,"aligned":true,"feat_type":null,"id":"G7","isRoute":null,"otype":"Line","selected":false,"sid":"S32","group":true,"groupID":"7","gen_id":"g.8.39.41.43.47.50.52.54.113"}},{"type":"Feature","geometry":{"type":"MultiLineString","coordinates":[[[671.5,270.460589],[790.5,270.792023]],[[688.569819,407.5],[813.119776,408]],[[688.069619,339],[714.580252,333],[800.61476,335.5]]]},"properties":{"mapType":"Sketch","genType3":"Others","SketchRouteSeqOrder":null,"aligned":true,"feat_type":null,"id":"G8","isRoute":null,"otype":"Line","selected":false,"sid":"S67","group":true,"groupID":"8","gen_id":"g.40.46.51.53"}},{"type":"Feature","geometry":{"type":"MultiLineString","coordinates":[[[314.432789,388.75],[289.909014,384.25],[188.368287,380]],[[407.948137,240.5],[383.188206,235.75],[333.668344,230.25],[270.392964,226.25]],[[207.367685,295.5],[248.634237,296.75],[349.93309,301.25]]]},"properties":{"mapType":"Sketch","genType3":"Others","SketchRouteSeqOrder":null,"aligned":true,"feat_type":null,"id":"G20","isRoute":null,"otype":"Line","selected":false,"sid":"S43","group":true,"groupID":"20","gen_id":"g.19.22.26.29.32.34.36"}},{"type":"Feature","geometry":{"type":"LineString","coordinates":[[528.626404,477.25],[530.753611,487.75],[527.252207,500],[525.251404,506.5],[518.248596,516.5],[505.49348,525],[484.234953,531.25],[464.477028,536.25]]},"properties":{"mapType":"Sketch","genType3":"Multi-MultiOmissionMerge","SketchRouteSeqOrder":3,"aligned":true,"feat_type":null,"id":"G23","isRoute":"Yes","otype":"Line","selected":false,"sid":"S21","group":true,"groupID":"23","gen_id":"g.75.77.79.81"}},{"type":"Feature","geometry":{"type":"MultiLineString","coordinates":[[[518.248596,516.5],[576.271869,527.75]],[[527.252207,500],[592.778489,503.75]],[[464.477028,536.25],[510.245386,560.75]]]},"properties":{"mapType":"Sketch","genType3":"Others","SketchRouteSeqOrder":null,"aligned":true,"feat_type":null,"id":"G36","isRoute":null,"otype":"Line","selected":false,"sid":"S20","group":true,"groupID":"36","gen_id":"g.72.74.76.78.80"}},{"type":"Feature","geometry":{"type":"LineString","coordinates":[[303.67667,471.5],[314.432789,388.75],[326.17356,356.25],[333.176369,333.5],[349.93309,301.25],[371.683592,278],[393.94252,253.25],[407.948137,240.5],[435.207567,227],[465.969906,213.75],[495.740671,204.25]]},"properties":{"mapType":"Sketch","genType3":"Multi-MultiOmissionMerge","SketchRouteSeqOrder":21,"aligned":true,"feat_type":null,"id":"G37","isRoute":"Yes","otype":"Line","selected":false,"sid":"S44","group":true,"groupID":"37","gen_id":"g.16.18.23.25.27.28.30.31.33.37.254.258"}},{"id":"0","type":"Feature","properties":{"SketchRouteSeqOrder":null,"aligned":true,"feat_type":null,"id":"0","isRoute":null,"otype":"Line","selected":false,"sid":"S0","mapType":"Sketch","gen_id":"g.89"},"geometry":{"type":"LineString","coordinates":[[296.896876,600],[294.896074,567.75]]}},{"id":"1","type":"Feature","properties":{"SketchRouteSeqOrder":null,"aligned":true,"feat_type":null,"id":"1","isRoute":null,"otype":"Line","selected":false,"sid":"S1","mapType":"Sketch","gen_id":"g.91"},"geometry":{"type":"LineString","coordinates":[[294.896074,567.75],[152.735169,562]]}},{"id":"2","type":"Feature","properties":{"SketchRouteSeqOrder":null,"aligned":true,"feat_type":null,"id":"2","isRoute":null,"otype":"Line","selected":false,"sid":"S2","mapType":"Sketch","gen_id":"g.95"},"geometry":{"type":"LineString","coordinates":[[152.735169,562],[159.368788,519]]}},{"id":"3","type":"Feature","properties":{"SketchRouteSeqOrder":null,"aligned":true,"feat_type":null,"id":"3","isRoute":null,"otype":"Line","selected":false,"sid":"S3","mapType":"Sketch","gen_id":"g.105.107"},"geometry":{"type":"LineString","coordinates":[[159.368788,519],[165.371196,467.25]]}},{"id":"4","type":"Feature","properties":{"SketchRouteSeqOrder":null,"aligned":true,"feat_type":null,"id":"4","isRoute":null,"otype":"Line","selected":false,"sid":"S4","mapType":"Sketch","gen_id":"g.97"},"geometry":{"type":"LineString","coordinates":[[159.368788,519],[298.674664,522.5]]}},{"id":"5","type":"Feature","properties":{"SketchRouteSeqOrder":null,"aligned":true,"feat_type":null,"id":"6","isRoute":null,"otype":"Line","selected":false,"sid":"S6","mapType":"Sketch","gen_id":"g.103"},"geometry":{"type":"LineString","coordinates":[[165.371196,467.25],[303.67667,471.5]]}},{"id":"6","type":"Feature","properties":{"SketchRouteSeqOrder":10,"aligned":true,"feat_type":null,"id":"7","isRoute":"Yes","otype":"Line","selected":false,"sid":"S7","mapType":"Sketch","gen_id":"g.101"},"geometry":{"type":"LineString","coordinates":[[298.674664,522.5],[303.67667,471.5]]}},{"id":"7","type":"Feature","properties":{"SketchRouteSeqOrder":null,"aligned":true,"feat_type":null,"id":"8","isRoute":null,"otype":"Line","selected":false,"sid":"S8","mapType":"Sketch","gen_id":"g.93"},"geometry":{"type":"LineString","coordinates":[[30.246203,557.5],[152.735169,562]]}},{"id":"8","type":"Feature","properties":{"SketchRouteSeqOrder":null,"aligned":true,"feat_type":null,"id":"9","isRoute":null,"otype":"Line","selected":false,"sid":"S9","mapType":"Sketch","gen_id":"g.111"},"geometry":{"type":"LineString","coordinates":[[22.242993,467.5],[165.371196,467.25]]}},{"id":"9","type":"Feature","properties":{"SketchRouteSeqOrder":null,"aligned":true,"feat_type":null,"id":"13","isRoute":null,"otype":"Line","selected":false,"sid":"S13","mapType":"Sketch","gen_id":"g.87"},"geometry":{"type":"LineString","coordinates":[[294.896074,567.75],[297.910218,542.5]]}},{"id":"10","type":"Feature","properties":{"SketchRouteSeqOrder":9,"aligned":true,"feat_type":null,"id":"14","isRoute":"Yes","otype":"Line","selected":false,"sid":"S14","mapType":"Sketch","gen_id":"g.99"},"geometry":{"type":"LineString","coordinates":[[297.910218,542.5],[298.674664,522.5]]}},{"id":"11","type":"Feature","properties":{"SketchRouteSeqOrder":8,"aligned":true,"feat_type":null,"id":"15","isRoute":"Yes","otype":"Line","selected":false,"sid":"S15","mapType":"Sketch","gen_id":"g.71"},"geometry":{"type":"LineString","coordinates":[[464.477028,536.25],[446.719906,538.75],[415.707466,541.5],[372.690212,542],[333.924664,540.5],[297.910218,542.5]]}},{"id":"18","type":"Feature","properties":{"SketchRouteSeqOrder":null,"aligned":true,"feat_type":null,"id":"22","isRoute":null,"otype":"Line","selected":false,"sid":"S22","mapType":"Sketch","gen_id":"g.1.82"},"geometry":{"type":"LineString","coordinates":[[303.67667,471.5],[528.626404,477.25]]}},{"id":"19","type":"Feature","properties":{"SketchRouteSeqOrder":2,"aligned":true,"feat_type":null,"id":"23","isRoute":"Yes","otype":"Line","selected":false,"sid":"S23","mapType":"Sketch","gen_id":"g.6.83"},"geometry":{"type":"LineString","coordinates":[[683.567813,477],[528.626404,477.25]]}},{"id":"20","type":"Feature","properties":{"SketchRouteSeqOrder":null,"aligned":true,"feat_type":null,"id":"24","isRoute":null,"otype":"Line","selected":false,"sid":"S24","mapType":"Sketch","gen_id":"g.7"},"geometry":{"type":"LineString","coordinates":[[683.567813,477],[686.569017,549.5]]}},{"id":"21","type":"Feature","properties":{"SketchRouteSeqOrder":null,"aligned":true,"feat_type":null,"id":"25","isRoute":null,"otype":"Line","selected":false,"sid":"S25","mapType":"Sketch","gen_id":"g.38"},"geometry":{"type":"LineString","coordinates":[[683.567813,477],[822.623588,479]]}},{"id":"28","type":"Feature","properties":{"SketchRouteSeqOrder":26,"aligned":true,"feat_type":null,"id":"33","isRoute":"Yes","otype":"Line","selected":false,"sid":"S33","mapType":"Sketch","gen_id":"g.57.59.61"},"geometry":{"type":"LineString","coordinates":[[605.025681,88],[608.527085,179.5]]}},{"id":"29","type":"Feature","properties":{"SketchRouteSeqOrder":24,"aligned":true,"feat_type":null,"id":"34","isRoute":"Yes","otype":"Line","selected":false,"sid":"S34","mapType":"Sketch","gen_id":"g.62"},"geometry":{"type":"LineString","coordinates":[[479.475323,91],[605.025681,88]]}},{"id":"30","type":"Feature","properties":{"SketchRouteSeqOrder":27,"aligned":true,"feat_type":null,"id":"35","isRoute":"Yes","otype":"Line","selected":false,"sid":"S35","mapType":"Sketch","gen_id":"g.64.66.68"},"geometry":{"type":"LineString","coordinates":[[605.025681,88],[603.024878,19.5]]}},{"id":"31","type":"Feature","properties":{"SketchRouteSeqOrder":23,"aligned":true,"feat_type":null,"id":"36","isRoute":"Yes","otype":"Line","selected":false,"sid":"S36","mapType":"Sketch","gen_id":"g.56"},"geometry":{"type":"LineString","coordinates":[[495.740671,204.25],[479.475323,91]]}},{"id":"32","type":"Feature","properties":{"SketchRouteSeqOrder":null,"aligned":true,"feat_type":null,"id":"37","isRoute":null,"otype":"Line","selected":false,"sid":"S37","mapType":"Sketch","gen_id":"g.63"},"geometry":{"type":"LineString","coordinates":[[479.475323,91],[344.896475,90]]}},{"id":"40","type":"Feature","properties":{"SketchRouteSeqOrder":null,"aligned":true,"feat_type":null,"id":"45","isRoute":null,"otype":"Line","selected":false,"sid":"S45","mapType":"Sketch","gen_id":"g.55"},"geometry":{"type":"LineString","coordinates":[[495.740671,204.25],[528.744081,196.25],[568.009831,187.5],[590.76896,183.25],[608.527085,179.5]]}},{"type":"Feature","properties":{"id":"10","sid":"S10","isRoute":null,"feat_type":"Landmark","selected":false,"aligned":true,"otype":"Polygon","mapType":"Sketch","gen_id":"g.195.197.199.201.203.205"},"geometry":{"type":"Polygon","coordinates":[[[19.113471,538.25],[116.652594,540],[127.156807,527.25],[127.907108,517.75],[124.405704,509.75],[118.653397,503.25],[110.149986,500],[82.388851,499.5],[46.624506,500.25],[26.866581,498.75],[23.615277,500.5],[20.113873,504.75],[18.863371,507.5],[17.61287,517.5],[17.61287,521],[17.61287,524],[16.612468,528],[16.112268,531.25],[19.113471,538.25]]]}},{"type":"Feature","properties":{"id":"11","sid":"S11","isRoute":null,"feat_type":"Landmark","selected":false,"aligned":true,"otype":"Polygon","mapType":"Sketch","gen_id":"g.232"},"geometry":{"type":"Polygon","coordinates":[[[200.568874,537.625],[203.945228,538.625],[220.576899,539],[243.961278,538.75],[246.337231,538.375],[246.337231,534.875],[246.462282,530],[244.586529,527.375],[230.580912,526.875],[213.69914,526.875],[203.319977,527.125],[200.318773,528.5],[200.568874,537.625]]]}},{"type":"Feature","properties":{"id":"12","sid":"S12","isRoute":null,"feat_type":"Landmark","selected":false,"aligned":true,"otype":"Polygon","mapType":"Sketch","gen_id":"g.228.229.230.231"},"geometry":{"type":"Polygon","coordinates":[[[228.830209,500],[231.331213,487.5],[230.831012,485.75],[193.941215,484.875],[189.189309,486.5],[186.938407,490.25],[185.437805,502.625],[184.062253,507.5],[186.938407,510.625],[203.820178,512.25],[232.206564,513.375],[246.837432,513.875],[250.088736,513.75],[252.83984,508.125],[251.589338,504],[249.713586,501.625],[238.334021,501.25],[228.830209,500]]]}},{"type":"Feature","properties":{"id":"46","sid":"S46","isRoute":null,"feat_type":"Landmark","selected":false,"aligned":true,"otype":"Polygon","mapType":"Sketch","gen_id":"g.213"},"geometry":{"type":"Polygon","coordinates":[[[646.235153,111.75],[642.733749,99.75],[642.233548,87.25],[647.235555,82.25],[662.741774,79.75],[696.005116,79.75],[709.010332,79.75],[716.763442,83],[722.265649,92.25],[725.516953,104.25],[724.266452,111.25],[702.507724,112.25],[674.246389,111.25],[655.738965,111.75],[650.117276,112.375],[646.235153,111.75]]]}},{"type":"Feature","properties":{"id":"47","sid":"S47","isRoute":null,"feat_type":"Landmark","selected":false,"aligned":true,"otype":"Polygon","mapType":"Sketch","gen_id":"g.221.222.223"},"geometry":{"type":"Polygon","coordinates":[[[723.251505,66.5],[733.505618,72],[752.263141,75.75],[780.274377,75.5],[794.530094,75.5],[807.535311,66.25],[814.288019,53.75],[818.789825,44],[817.289223,36],[786.026684,32.75],[758.765749,31.75],[723.001404,35.75],[715.189009,49.5],[718.190212,60],[723.251505,66.5]]]}},{"type":"Feature","properties":{"id":"48","sid":"S48","isRoute":null,"feat_type":"Landmark","selected":false,"aligned":true,"otype":"Polygon","mapType":"Sketch","gen_id":"g.224.225.226"},"geometry":{"type":"Polygon","coordinates":[[[445.164231,74],[441.662826,54.5],[444.163829,53],[521.444827,50],[528.697736,50.75],[535.200344,70],[531.724018,72.625],[503.436501,72.5],[478.713385,73.625],[464.332617,73.875],[453.953454,73.75],[445.164231,74]]]}},{"type":"Feature","properties":{"id":"49","sid":"S49","isRoute":null,"feat_type":"Landmark","selected":false,"aligned":true,"otype":"Polygon","mapType":"Sketch","gen_id":"g.131"},"geometry":{"type":"Polygon","coordinates":[[[356.071632,530.25],[355.071231,517.625],[356.321733,512.625],[360.073238,508.875],[373.328554,507.75],[391.335777,508.5],[408.717749,509.875],[424.349018,510.25],[433.47768,511.875],[434.853232,530.5],[426.599921,530.875],[395.712532,530.875],[385.83357,531.125],[369.9522,531.375],[359.823137,531],[356.071632,530.25]]]}},{"type":"Feature","properties":{"id":"51","sid":"S51","isRoute":null,"feat_type":"Landmark","selected":false,"aligned":true,"otype":"Polygon","mapType":"Sketch","gen_id":"g.207.209.211.235.236"},"geometry":{"type":"Polygon","coordinates":[[[544.474721,172.5],[545.475122,157.25],[517.713987,156],[516.463485,144.5],[516.463485,137.5],[564.482746,137.5],[577.487962,139],[579.488765,148.75],[582.239868,162.5],[581.489567,171.5],[578.369583,172.75],[562.113063,172.875],[544.474721,172.5]]]}},{"type":"Feature","properties":{"id":"52","sid":"S52","isRoute":null,"feat_type":"Landmark","selected":false,"aligned":true,"otype":"Polygon","mapType":"Sketch","gen_id":"g.227"},"geometry":{"type":"Polygon","coordinates":[[[536.35273,128.75],[535.352329,119.625],[534.226877,112.375],[537.728282,108.625],[545.106241,108.25],[560.862561,108.875],[573.742727,109.25],[576.994031,111.625],[577.369182,121.5],[577.619282,129.625],[564.614066,130.25],[548.357545,130],[536.35273,128.75]]]}},{"type":"Feature","properties":{"id":"68","sid":"S68","isRoute":null,"feat_type":"Landmark","selected":false,"aligned":true,"otype":"CircleMarker","mapType":"Sketch","gen_id":"g.133"},"geometry":{"type":"Polygon","coordinates":[[[474,519.216287],[473.995185,519.11827],[473.980785,519.021197],[473.95694,518.926002],[473.92388,518.833604],[473.881921,518.74489],[473.83147,518.660717],[473.77301,518.581894],[473.707107,518.50918],[473.634393,518.443277],[473.55557,518.384817],[473.471397,518.334366],[473.382683,518.292407],[473.290285,518.259347],[473.19509,518.235502],[473.098017,518.221102],[473,518.216287],[472.901983,518.221102],[472.80491,518.235502],[472.709715,518.259347],[472.617317,518.292407],[472.528603,518.334366],[472.44443,518.384817],[472.365607,518.443277],[472.292893,518.50918],[472.22699,518.581894],[472.16853,518.660717],[472.118079,518.74489],[472.07612,518.833604],[472.04306,518.926002],[472.019215,519.021197],[472.004815,519.11827],[472,519.216287],[472.004815,519.314304],[472.019215,519.411377],[472.04306,519.506572],[472.07612,519.59897],[472.118079,519.687684],[472.16853,519.771857],[472.22699,519.85068],[472.292893,519.923394],[472.365607,519.989297],[472.44443,520.047757],[472.528603,520.098208],[472.617317,520.140167],[472.709715,520.173227],[472.80491,520.197072],[472.901983,520.211472],[473,520.216287],[473.098017,520.211472],[473.19509,520.197072],[473.290285,520.173227],[473.382683,520.140167],[473.471397,520.098208],[473.55557,520.047757],[473.634393,519.989297],[473.707107,519.923394],[473.77301,519.85068],[473.83147,519.771857],[473.881921,519.687684],[473.92388,519.59897],[473.95694,519.506572],[473.980785,519.411377],[473.995185,519.314304],[474,519.216287]]]}}]}