{"type":"FeatureCollection","features":[{"type":"Feature","properties":{"id":"0","sid":"S0","isRoute":null,"feat_type":null,"selected":false,"aligned":true,"otype":"Line","mapType":"Sketch","gen_id":"g.103.111"},"geometry":{"type":"LineString","coordinates":[[44,461.217481],[242,466.21686]]}},{"type":"Feature","properties":{"id":"1","sid":"S1","isRoute":"Yes","feat_type":null,"selected":false,"aligned":true,"otype":"Line","SketchRouteSeqOrder":10,"mapType":"Sketch","gen_id":"g.99.101"},"geometry":{"type":"LineString","coordinates":[[242,466.21686],[242,537.208044]]}},{"type":"Feature","properties":{"id":"2","sid":"S2","isRoute":null,"feat_type":null,"selected":false,"aligned":true,"otype":"Line","mapType":"Sketch","gen_id":"g.87.89"},"geometry":{"type":"LineString","coordinates":[[242,537.208044],[238,577.203077]]}},{"type":"Feature","properties":{"id":"3","sid":"S3","isRoute":"Yes","feat_type":null,"selected":false,"aligned":true,"otype":"Line","SketchRouteSeqOrder":3,"mapType":"Sketch","gen_id":"g.71.73.75.77.79.81"},"geometry":{"type":"LineString","coordinates":[[242,537.208044],[468,539.207795],[471,469.216488]]}},{"type":"Feature","properties":{"id":"4","sid":"S4","isRoute":null,"feat_type":null,"selected":false,"aligned":true,"otype":"Line","mapType":"Sketch","gen_id":"g.1.82"},"geometry":{"type":"LineString","coordinates":[[471,469.216488],[242,466.21686]]}},{"type":"Feature","properties":{"id":"5","sid":"S5","isRoute":"Yes","feat_type":null,"selected":false,"aligned":true,"otype":"Line","SketchRouteSeqOrder":21,"mapType":"Sketch","gen_id":"g.16.18.23.25.27.28.30.31.33.37.254.258"},"geometry":{"type":"LineString","coordinates":[[242,466.21686],[255,298.237722],[301,151.255976]]}},{"type":"Feature","properties":{"id":"6","sid":"S6","isRoute":null,"feat_type":"Landmark","selected":false,"aligned":true,"otype":"CircleMarker","mapType":"Sketch","gen_id":"g.216"},"geometry":{"type":"Polygon","coordinates":[[[217,314.235735],[216.995185,314.137718],[216.980785,314.040645],[216.95694,313.94545],[216.92388,313.853052],[216.881921,313.764338],[216.83147,313.680165],[216.77301,313.601342],[216.707107,313.528628],[216.634393,313.462725],[216.55557,313.404265],[216.471397,313.353814],[216.382683,313.311855],[216.290285,313.278795],[216.19509,313.25495],[216.098017,313.24055],[216,313.235735],[215.901983,313.24055],[215.80491,313.25495],[215.709715,313.278795],[215.617317,313.311855],[215.528603,313.353814],[215.44443,313.404265],[215.365607,313.462725],[215.292893,313.528628],[215.22699,313.601342],[215.16853,313.680165],[215.118079,313.764338],[215.07612,313.853052],[215.04306,313.94545],[215.019215,314.040645],[215.004815,314.137718],[215,314.235735],[215.004815,314.333752],[215.019215,314.430825],[215.04306,314.52602],[215.07612,314.618418],[215.118079,314.707132],[215.16853,314.791305],[215.22699,314.870128],[215.292893,314.942842],[215.365607,315.008745],[215.44443,315.067205],[215.528603,315.117656],[215.617317,315.159615],[215.709715,315.192675],[215.80491,315.21652],[215.901983,315.23092],[216,315.235735],[216.098017,315.23092],[216.19509,315.21652],[216.290285,315.192675],[216.382683,315.159615],[216.471397,315.117656],[216.55557,315.067205],[216.634393,315.008745],[216.707107,314.942842],[216.77301,314.870128],[216.83147,314.791305],[216.881921,314.707132],[216.92388,314.618418],[216.95694,314.52602],[216.980785,314.430825],[216.995185,314.333752],[217,314.235735]]]}},{"type":"Feature","properties":{"id":"7","sid":"S7","isRoute":null,"feat_type":"Landmark","selected":false,"aligned":true,"otype":"Polygon","mapType":"Sketch","gen_id":"g.131"},"geometry":{"type":"Polygon","coordinates":[[[328.25,522.543039],[327.75,500.79574],[396,504.045336],[397.5,523.042977],[328.25,522.543039]]]}},{"type":"Feature","properties":{"id":"8","sid":"S8","isRoute":null,"feat_type":"Landmark","selected":false,"aligned":true,"otype":"CircleMarker","mapType":"Sketch","gen_id":"g.133"},"geometry":{"type":"Polygon","coordinates":[[[426,521.043225],[425.995185,520.945208],[425.980785,520.848135],[425.95694,520.75294],[425.92388,520.660542],[425.881921,520.571828],[425.83147,520.487655],[425.77301,520.408832],[425.707107,520.336118],[425.634393,520.270215],[425.55557,520.211755],[425.471397,520.161304],[425.382683,520.119345],[425.290285,520.086285],[425.19509,520.06244],[425.098017,520.04804],[425,520.043225],[424.901983,520.04804],[424.80491,520.06244],[424.709715,520.086285],[424.617317,520.119345],[424.528603,520.161304],[424.44443,520.211755],[424.365607,520.270215],[424.292893,520.336118],[424.22699,520.408832],[424.16853,520.487655],[424.118079,520.571828],[424.07612,520.660542],[424.04306,520.75294],[424.019215,520.848135],[424.004815,520.945208],[424,521.043225],[424.004815,521.141242],[424.019215,521.238315],[424.04306,521.33351],[424.07612,521.425908],[424.118079,521.514622],[424.16853,521.598795],[424.22699,521.677618],[424.292893,521.750332],[424.365607,521.816235],[424.44443,521.874695],[424.528603,521.925146],[424.617317,521.967105],[424.709715,522.000165],[424.80491,522.02401],[424.901983,522.03841],[425,522.043225],[425.098017,522.03841],[425.19509,522.02401],[425.290285,522.000165],[425.382683,521.967105],[425.471397,521.925146],[425.55557,521.874695],[425.634393,521.816235],[425.707107,521.750332],[425.77301,521.677618],[425.83147,521.598795],[425.881921,521.514622],[425.92388,521.425908],[425.95694,521.33351],[425.980785,521.238315],[425.995185,521.141242],[426,521.043225]]]}},{"type":"Feature","properties":{"id":"9","sid":"S9","isRoute":"Yes","feat_type":null,"selected":false,"aligned":true,"otype":"Line","SketchRouteSeqOrder":2,"mapType":"Sketch","gen_id":"g.6.83"},"geometry":{"type":"LineString","coordinates":[[471,469.216488],[645,472.193142]]}},{"type":"Feature","properties":{"id":"10","sid":"S10","isRoute":null,"feat_type":null,"selected":false,"aligned":true,"otype":"Line","mapType":"Sketch","gen_id":"g.7"},"geometry":{"type":"LineString","coordinates":[[645,472.193142],[641,579.179855]]}},{"type":"Feature","properties":{"id":"11","sid":"S11","isRoute":null,"feat_type":null,"selected":false,"aligned":true,"otype":"Line","mapType":"Sketch","gen_id":"g.38"},"geometry":{"type":"LineString","coordinates":[[645,472.193142],[792,473.193018]]}},{"type":"Feature","properties":{"id":"12","sid":"S12","isRoute":null,"feat_type":null,"selected":false,"aligned":true,"otype":"Line","mapType":"Sketch","gen_id":"g.8.39.41.43.47.52.54.113"},"geometry":{"type":"LineString","coordinates":[[645,472.193142],[601,168.230892]]}},{"type":"Feature","properties":{"id":"13","sid":"S13","isRoute":null,"feat_type":null,"selected":false,"aligned":true,"otype":"Line","mapType":"Sketch","gen_id":"g.55"},"geometry":{"type":"LineString","coordinates":[[601,168.230892],[455,164.231389],[301,151.255976]]}},{"type":"Feature","properties":{"id":"14","sid":"S14","isRoute":null,"feat_type":null,"selected":false,"aligned":true,"otype":"Line","mapType":"Sketch","gen_id":"g.57.59.61"},"geometry":{"type":"LineString","coordinates":[[601,168.230892],[583,100.239336]]}},{"type":"Feature","properties":{"id":"15","sid":"S15","isRoute":"Yes","feat_type":null,"selected":false,"aligned":true,"otype":"Line","SketchRouteSeqOrder":28,"mapType":"Sketch","gen_id":"g.64.66.68.70"},"geometry":{"type":"LineString","coordinates":[[583,100.239336],[564,33.247656]]}},{"type":"Feature","properties":{"id":"16","sid":"S16","isRoute":"Yes","feat_type":null,"selected":false,"aligned":true,"otype":"Line","SketchRouteSeqOrder":24,"mapType":"Sketch","gen_id":"g.62"},"geometry":{"type":"LineString","coordinates":[[583,100.239336],[340,83.241447]]}},{"type":"Feature","properties":{"id":"17","sid":"S17","isRoute":"Yes","feat_type":null,"selected":false,"aligned":true,"otype":"Line","SketchRouteSeqOrder":23,"mapType":"Sketch","gen_id":"g.56"},"geometry":{"type":"LineString","coordinates":[[301,151.255976],[340,83.241447]]}},{"type":"Feature","properties":{"id":"18","sid":"S18","isRoute":null,"feat_type":null,"selected":false,"aligned":true,"otype":"Line","mapType":"Sketch","gen_id":"g.63"},"geometry":{"type":"LineString","coordinates":[[340,83.241447],[192,67.243434]]}},{"type":"Feature","properties":{"id":"19","sid":"S19","isRoute":null,"feat_type":"Landmark","selected":false,"aligned":true,"otype":"CircleMarker","mapType":"Sketch","gen_id":"g.213"},"geometry":{"type":"Polygon","coordinates":[[[670,128.257839],[669.995185,128.159822],[669.980785,128.062749],[669.95694,127.967554],[669.92388,127.875156],[669.881921,127.786442],[669.83147,127.702269],[669.77301,127.623446],[669.707107,127.550732],[669.634393,127.484829],[669.55557,127.426369],[669.471397,127.375918],[669.382683,127.333959],[669.290285,127.300899],[669.19509,127.277054],[669.098017,127.262654],[669,127.257839],[668.901983,127.262654],[668.80491,127.277054],[668.709715,127.300899],[668.617317,127.333959],[668.528603,127.375918],[668.44443,127.426369],[668.365607,127.484829],[668.292893,127.550732],[668.22699,127.623446],[668.16853,127.702269],[668.118079,127.786442],[668.07612,127.875156],[668.04306,127.967554],[668.019215,128.062749],[668.004815,128.159822],[668,128.257839],[668.004815,128.355856],[668.019215,128.452929],[668.04306,128.548124],[668.07612,128.640522],[668.118079,128.729236],[668.16853,128.813409],[668.22699,128.892232],[668.292893,128.964946],[668.365607,129.030849],[668.44443,129.089309],[668.528603,129.13976],[668.617317,129.181719],[668.709715,129.214779],[668.80491,129.238624],[668.901983,129.253024],[669,129.257839],[669.098017,129.253024],[669.19509,129.238624],[669.290285,129.214779],[669.382683,129.181719],[669.471397,129.13976],[669.55557,129.089309],[669.634393,129.030849],[669.707107,128.964946],[669.77301,128.892232],[669.83147,128.813409],[669.881921,128.729236],[669.92388,128.640522],[669.95694,128.548124],[669.980785,128.452929],[669.995185,128.355856],[670,128.257839]]]}},{"type":"Feature","properties":{"id":"20","sid":"S20","isRoute":null,"feat_type":"Landmark","selected":false,"aligned":true,"otype":"Polygon","mapType":"Sketch","gen_id":"g.221.222.223"},"geometry":{"type":"Polygon","coordinates":[[[642,77.264172],[647,45.268145],[715,53.267152],[703,84.263302],[642,77.264172]]]}}]}