{"type":"FeatureCollection","features":[{"type":"Feature","geometry":{"type":"LineString","coordinates":[[326,498.591045],[458,493.190783],[518,482.192149],[561,464.194384],[570,442.197116],[564,416.200345],[541,386.20407]]},"properties":{"mapType":"Sketch","genType3":"Multi-MultiOmissionMerge","id":"G11","sid":"S12","isRoute":"Yes","feat_type":null,"selected":false,"aligned":true,"otype":"Line","SketchRouteSeqOrder":3,"group":true,"groupID":"11","gen_id":"g.71.73.75.77.79.81"}},{"type":"Feature","geometry":{"type":"MultiLineString","coordinates":[[[518,482.192149],[562,525.186809]],[[570,442.197116],[651,452.195874]]]},"properties":{"mapType":"Sketch","genType3":"Others","id":"G12","sid":"S14","isRoute":null,"feat_type":null,"selected":false,"aligned":true,"otype":"Line","group":true,"groupID":"12","gen_id":"g.72.74.76.78.80"}},{"type":"Feature","geometry":{"type":"LineString","coordinates":[[316.5,423.100421],[323,308.225056],[351,241.233376],[372,147.245048]]},"properties":{"mapType":"Sketch","genType3":"Multi-MultiOmissionMerge","id":"G15","sid":"S19","isRoute":"Yes","feat_type":null,"selected":false,"aligned":true,"otype":"Line","SketchRouteSeqOrder":21,"group":true,"groupID":"15","gen_id":"g.16.18.23.25.27.28.30.31.33.37.254.258"}},{"type":"Feature","geometry":{"type":"MultiLineString","coordinates":[[[351,241.233376],[260,234.234245]],[[323,308.225056],[227,298.226298]]]},"properties":{"mapType":"Sketch","genType3":"Others","id":"G16","sid":"S21","isRoute":null,"feat_type":null,"selected":false,"aligned":true,"otype":"Line","group":true,"groupID":"16","gen_id":"g.19.22.26.29.32.34.36"}},{"type":"Feature","properties":{"id":"0","sid":"S0","isRoute":null,"feat_type":null,"selected":false,"aligned":true,"otype":"Line","mapType":"Sketch","gen_id":"g.93"},"geometry":{"type":"LineString","coordinates":[[49,548.084899],[149.5,553.584216],[191.5,551.084526]]}},{"type":"Feature","properties":{"id":"1","sid":"S1","isRoute":null,"feat_type":null,"selected":false,"aligned":true,"otype":"Line","mapType":"Sketch","gen_id":"g.91"},"geometry":{"type":"LineString","coordinates":[[191.5,551.084526],[317.5,550.08465]]}},{"type":"Feature","properties":{"id":"2","sid":"S2","isRoute":null,"feat_type":null,"selected":false,"aligned":true,"otype":"Line","mapType":"Sketch","gen_id":"g.95.105.107"},"geometry":{"type":"LineString","coordinates":[[191.5,551.084526],[197,423.600359]]}},{"type":"Feature","properties":{"id":"3","sid":"S3","isRoute":null,"feat_type":null,"selected":false,"aligned":true,"otype":"Line","mapType":"Sketch","gen_id":"g.111"},"geometry":{"type":"LineString","coordinates":[[56.5,421.600607],[197,423.600359]]}},{"type":"Feature","properties":{"id":"4","sid":"S4","isRoute":null,"feat_type":null,"selected":false,"aligned":true,"otype":"Line","mapType":"Sketch","gen_id":"g.103"},"geometry":{"type":"LineString","coordinates":[[197,423.600359],[316.5,423.100421]]}},{"type":"Feature","properties":{"id":"5","sid":"S5","isRoute":null,"feat_type":"Landmark","selected":false,"aligned":true,"otype":"Polygon","mapType":"Sketch","gen_id":"g.195.197.199.201"},"geometry":{"type":"Polygon","coordinates":[[[62.5,536.086389],[61,501.090735],[101,503.090487],[99.5,519.0885],[143.5,523.587941],[140.5,541.585706],[62.5,536.086389]]]}},{"type":"Feature","properties":{"id":"6","sid":"S6","isRoute":null,"feat_type":"Landmark","selected":false,"aligned":true,"otype":"Polygon","mapType":"Sketch","gen_id":"g.203.205"},"geometry":{"type":"Polygon","coordinates":[[[78.5,453.096695],[78.5,436.598744],[164.5,441.598123],[165.5,469.094709],[107.5,468.594771],[107.5,453.096695],[78.5,453.096695]]]}},{"type":"Feature","properties":{"id":"7","sid":"S7","isRoute":null,"feat_type":null,"selected":false,"aligned":true,"otype":"Line","mapType":"Sketch","gen_id":"g.89"},"geometry":{"type":"LineString","coordinates":[[317.5,550.08465],[319.5,588.579869]]}},{"type":"Feature","properties":{"id":"8","sid":"S8","isRoute":null,"feat_type":null,"selected":false,"aligned":true,"otype":"Line","mapType":"Sketch","gen_id":"g.87"},"geometry":{"type":"LineString","coordinates":[[317.5,550.08465],[326,498.591045]]}},{"type":"Feature","properties":{"id":"9","sid":"S9","isRoute":"Yes","feat_type":null,"selected":false,"aligned":true,"otype":"Line","SketchRouteSeqOrder":10,"mapType":"Sketch","gen_id":"g.99.101"},"geometry":{"type":"LineString","coordinates":[[326,498.591045],[316.5,423.100421]]}},{"type":"Feature","properties":{"id":"15","sid":"S15","isRoute":null,"feat_type":"Landmark","selected":false,"aligned":true,"otype":"Polygon","mapType":"Sketch","gen_id":"g.131"},"geometry":{"type":"Polygon","coordinates":[[[399,477.591232],[395.5,455.593963],[482.5,451.59446],[489,472.091915],[399,477.591232]]]}},{"type":"Feature","properties":{"id":"16","sid":"S16","isRoute":null,"feat_type":null,"selected":false,"aligned":true,"otype":"Line","mapType":"Sketch","gen_id":"g.1.82"},"geometry":{"type":"LineString","coordinates":[[541,386.20407],[443,411.599427],[316.5,423.100421]]}},{"type":"Feature","properties":{"id":"22","sid":"S22","isRoute":null,"feat_type":null,"selected":false,"aligned":true,"otype":"Line","mapType":"Sketch","gen_id":"g.63"},"geometry":{"type":"LineString","coordinates":[[265.5,60.635749],[378,64.635252]]}},{"type":"Feature","properties":{"id":"23","sid":"S23","isRoute":"Yes","feat_type":null,"selected":false,"aligned":true,"otype":"Line","SketchRouteSeqOrder":23,"mapType":"Sketch","gen_id":"g.56"},"geometry":{"type":"LineString","coordinates":[[378,64.635252],[372,147.245048]]}},{"type":"Feature","properties":{"id":"24","sid":"S24","isRoute":null,"feat_type":null,"selected":false,"aligned":true,"otype":"Line","mapType":"Sketch","gen_id":"g.55"},"geometry":{"type":"LineString","coordinates":[[372,147.245048],[436.5,150.624573],[554.5,150.124635]]}},{"type":"Feature","properties":{"id":"25","sid":"S25","isRoute":"Yes","feat_type":null,"selected":false,"aligned":true,"otype":"Line","SketchRouteSeqOrder":24,"mapType":"Sketch","gen_id":"g.62"},"geometry":{"type":"LineString","coordinates":[[378,64.635252],[512.5,64.635252]]}},{"type":"Feature","properties":{"id":"26","sid":"S26","isRoute":null,"feat_type":null,"selected":false,"aligned":true,"otype":"Line","mapType":"Sketch","gen_id":"g.57.59.61"},"geometry":{"type":"LineString","coordinates":[[554.5,150.124635],[512.5,64.635252]]}},{"type":"Feature","properties":{"id":"27","sid":"S27","isRoute":"Yes","feat_type":null,"selected":false,"aligned":true,"otype":"Line","SketchRouteSeqOrder":28,"mapType":"Sketch","gen_id":"g.64.66.68.70"},"geometry":{"type":"LineString","coordinates":[[512.5,64.635252],[507.5,15.641337]]}},{"type":"Feature","properties":{"id":"28","sid":"S28","isRoute":null,"feat_type":"Landmark","selected":false,"aligned":true,"otype":"Polygon","mapType":"Sketch","gen_id":"g.224"},"geometry":{"type":"Polygon","coordinates":[[[334,46.13755],[334.5,21.640592],[407,23.640344],[407,46.13755],[334,46.13755]]]}},{"type":"Feature","properties":{"id":"29","sid":"S29","isRoute":null,"feat_type":"Landmark","selected":false,"aligned":true,"otype":"Polygon","mapType":"Sketch","gen_id":"g.207.209.211.235.236"},"geometry":{"type":"Polygon","coordinates":[[[408,111.129478],[410,88.632272],[494.5,88.132334],[508.5,136.626312],[451.5,138.126125],[446,112.629292],[408,111.129478]]]}},{"type":"Feature","properties":{"id":"30","sid":"S30","isRoute":null,"feat_type":"Landmark","selected":false,"aligned":true,"otype":"Polygon","mapType":"Sketch","gen_id":"g.213"},"geometry":{"type":"Polygon","coordinates":[[[551.5,100.630782],[541.5,63.635376],[622,65.635128],[620.5,100.630782],[551.5,100.630782]]]}},{"type":"Feature","properties":{"id":"31","sid":"S31","isRoute":null,"feat_type":null,"selected":false,"aligned":true,"otype":"Line","mapType":"Sketch","gen_id":"g.8.39.41.43.47.52.54.113"},"geometry":{"type":"LineString","coordinates":[[554.5,150.124635],[646,336.2335]]}},{"type":"Feature","properties":{"id":"32","sid":"S32","isRoute":"Yes","feat_type":null,"selected":false,"aligned":true,"otype":"Line","SketchRouteSeqOrder":2,"mapType":"Sketch","gen_id":"g.6.83"},"geometry":{"type":"LineString","coordinates":[[646,336.2335],[541,386.20407]]}},{"type":"Feature","properties":{"id":"33","sid":"S33","isRoute":null,"feat_type":null,"selected":false,"aligned":true,"otype":"Line","mapType":"Sketch","gen_id":"g.7"},"geometry":{"type":"LineString","coordinates":[[646,336.2335],[788,378.228284]]}},{"type":"Feature","properties":{"id":"34","sid":"S34","isRoute":null,"feat_type":null,"selected":false,"aligned":true,"otype":"Line","mapType":"Sketch","gen_id":"g.38"},"geometry":{"type":"LineString","coordinates":[[646,336.2335],[820,281.24033]]}}]}