{"type":"FeatureCollection","features":[{"type":"Feature","geometry":{"type":"MultiPolygon","coordinates":[[[[606.75,125.300521],[606.75,114.301887],[633.25,115.551732],[633,125.300521],[606.75,125.300521]]],[[[614,108.302632],[632.75,110.052414],[632.75,99.05378],[613.75,98.553843],[614,108.302632]]],[[[644,108.052663],[641.25,100.303625],[663.75,100.553594],[661,109.552477],[644,108.052663]]],[[[638.5,122.550862],[642,115.051794],[662.75,117.551483],[662.75,122.550862],[654.75,126.050428],[638.5,122.550862]]]]},"properties":{"mapType":"Sketch","id":"G29","sid":"S31","isRoute":null,"feat_type":"Landmark","selected":false,"aligned":true,"otype":"Polygon","group":true,"groupID":"29","gen_id":"g.207.209.211.227.235.236"}},{"id":"0","type":"Feature","properties":{"SketchRouteSeqOrder":null,"aligned":true,"feat_type":null,"id":"0","isRoute":null,"otype":"Line","selected":false,"sid":"S0","mapType":"Sketch","gen_id":"g.111"},"geometry":{"type":"LineString","coordinates":[[30.5,399.113459],[216.5,406.612528]]}},{"id":"1","type":"Feature","properties":{"SketchRouteSeqOrder":null,"aligned":true,"feat_type":null,"id":"1","isRoute":null,"otype":"Line","selected":false,"sid":"S1","mapType":"Sketch","gen_id":"g.103"},"geometry":{"type":"LineString","coordinates":[[216.5,406.612528],[402.5,407.112466]]}},{"id":"2","type":"Feature","properties":{"SketchRouteSeqOrder":null,"aligned":true,"feat_type":null,"id":"2","isRoute":null,"otype":"Line","selected":false,"sid":"S2","mapType":"Sketch","gen_id":"g.105"},"geometry":{"type":"LineString","coordinates":[[216.5,406.612528],[213.5,453.606692]]}},{"id":"3","type":"Feature","properties":{"SketchRouteSeqOrder":null,"aligned":true,"feat_type":null,"id":"3","isRoute":null,"otype":"Line","selected":false,"sid":"S3","mapType":"Sketch","gen_id":"g.109"},"geometry":{"type":"LineString","coordinates":[[31,449.10725],[213.5,453.606692]]}},{"id":"4","type":"Feature","properties":{"SketchRouteSeqOrder":null,"aligned":true,"feat_type":null,"id":"4","isRoute":null,"otype":"Line","selected":false,"sid":"S4","mapType":"Sketch","gen_id":"g.97"},"geometry":{"type":"LineString","coordinates":[[213.5,453.606692],[407.5,457.606195]]}},{"id":"5","type":"Feature","properties":{"SketchRouteSeqOrder":null,"aligned":true,"feat_type":null,"id":"5","isRoute":null,"otype":"Line","selected":false,"sid":"S5","mapType":"Sketch","gen_id":"g.95"},"geometry":{"type":"LineString","coordinates":[[213.5,453.606692],[221.5,578.591169]]}},{"id":"6","type":"Feature","properties":{"SketchRouteSeqOrder":null,"aligned":true,"feat_type":null,"id":"10","isRoute":null,"otype":"Line","selected":false,"sid":"S10","mapType":"Sketch","gen_id":"g.87"},"geometry":{"type":"LineString","coordinates":[[412.5,509.611597],[415,555.605884]]}},{"id":"7","type":"Feature","properties":{"SketchRouteSeqOrder":9,"aligned":true,"feat_type":null,"id":"11","isRoute":"Yes","otype":"Line","selected":false,"sid":"S11","mapType":"Sketch","gen_id":"g.99"},"geometry":{"type":"LineString","coordinates":[[412.5,509.611597],[407.5,457.606195]]}},{"id":"8","type":"Feature","properties":{"SketchRouteSeqOrder":10,"aligned":true,"feat_type":null,"id":"12","isRoute":"Yes","otype":"Line","selected":false,"sid":"S12","mapType":"Sketch","gen_id":"g.101"},"geometry":{"type":"LineString","coordinates":[[407.5,457.606195],[402.5,407.112466]]}},{"id":"9","type":"Feature","properties":{"SketchRouteSeqOrder":3,"aligned":true,"feat_type":null,"id":"13","isRoute":"Yes","otype":"Line","selected":false,"sid":"S13","mapType":"Sketch","gen_id":"g.71.73.75.77.79.81"},"geometry":{"type":"LineString","coordinates":[[583,377.627988],[603.5,398.125442],[619,427.121841],[612,462.617433],[588,486.114515],[527,499.612838],[412.5,509.611597]]}},{"id":"10","type":"Feature","properties":{"SketchRouteSeqOrder":null,"aligned":true,"feat_type":null,"id":"14","isRoute":null,"otype":"Line","selected":false,"sid":"S14","mapType":"Sketch","gen_id":"g.1.82"},"geometry":{"type":"LineString","coordinates":[[402.5,407.112466],[504.5,397.125567],[583,377.627988]]}},{"id":"11","type":"Feature","properties":{"SketchRouteSeqOrder":2,"aligned":true,"feat_type":null,"id":"16","isRoute":"Yes","otype":"Line","selected":false,"sid":"S16","mapType":"Sketch","gen_id":"g.6.83"},"geometry":{"type":"LineString","coordinates":[[672.5,347.61706],[583,377.627988]]}},{"id":"12","type":"Feature","properties":{"SketchRouteSeqOrder":null,"aligned":true,"feat_type":null,"id":"17","isRoute":null,"otype":"Line","selected":false,"sid":"S17","mapType":"Sketch","gen_id":"g.7"},"geometry":{"type":"LineString","coordinates":[[672.5,347.61706],[682.5,384.112528],[732.5,453.603898]]}},{"id":"13","type":"Feature","properties":{"SketchRouteSeqOrder":null,"aligned":true,"feat_type":null,"id":"18","isRoute":null,"otype":"Line","selected":false,"sid":"S18","mapType":"Sketch","gen_id":"g.38"},"geometry":{"type":"LineString","coordinates":[[672.5,347.61706],[826,327.119606]]}},{"id":"14","type":"Feature","properties":{"SketchRouteSeqOrder":null,"aligned":true,"feat_type":null,"id":"19","isRoute":null,"otype":"Line","selected":false,"sid":"S19","mapType":"Sketch","gen_id":"g.8.39.41.43.47.52.54.57.59.61.113"},"geometry":{"type":"LineString","coordinates":[[672.5,347.61706],[685,80.273112]]}},{"id":"15","type":"Feature","properties":{"SketchRouteSeqOrder":28,"aligned":true,"feat_type":null,"id":"20","isRoute":"Yes","otype":"Line","selected":false,"sid":"S20","mapType":"Sketch","gen_id":"g.64.66.68.70"},"geometry":{"type":"LineString","coordinates":[[685,80.273112],[688,27.651457]]}},{"id":"16","type":"Feature","properties":{"SketchRouteSeqOrder":24,"aligned":true,"feat_type":null,"id":"21","isRoute":"Yes","otype":"Line","selected":false,"sid":"S21","mapType":"Sketch","gen_id":"g.62"},"geometry":{"type":"LineString","coordinates":[[602,81.644752],[685,80.273112]]}},{"id":"17","type":"Feature","properties":{"SketchRouteSeqOrder":null,"aligned":true,"feat_type":null,"id":"22","isRoute":null,"otype":"Line","selected":false,"sid":"S22","mapType":"Sketch","gen_id":"g.63"},"geometry":{"type":"LineString","coordinates":[[602,81.644752],[453.5,78.645124]]}},{"id":"18","type":"Feature","properties":{"SketchRouteSeqOrder":21,"aligned":true,"feat_type":null,"id":"23","isRoute":"Yes","otype":"Line","selected":false,"sid":"S23","mapType":"Sketch","gen_id":"g.30.31.33.37.56.254.258"},"geometry":{"type":"LineString","coordinates":[[411,257.266904],[429,209.272864],[467,173.277334],[571,132.282426],[602,81.644752]]}},{"id":"19","type":"Feature","properties":{"SketchRouteSeqOrder":null,"aligned":true,"feat_type":null,"id":"24","isRoute":null,"otype":"Line","selected":false,"sid":"S24","mapType":"Sketch","gen_id":"g.29"},"geometry":{"type":"LineString","coordinates":[[411,257.266904],[299,251.267649]]}},{"id":"20","type":"Feature","properties":{"SketchRouteSeqOrder":16,"aligned":true,"feat_type":null,"id":"25","isRoute":"Yes","otype":"Line","selected":false,"sid":"S25","mapType":"Sketch","gen_id":"g.16.18.23.25.27.28"},"geometry":{"type":"LineString","coordinates":[[402.5,407.112466],[411,257.266904]]}},{"type":"Feature","properties":{"id":"6","sid":"S6","isRoute":null,"feat_type":"Landmark","selected":false,"aligned":true,"otype":"Polygon","mapType":"Sketch","gen_id":"g.195.197.199.201"},"geometry":{"type":"Polygon","coordinates":[[[56,538.109237],[55,502.613646],[133.5,503.613521],[134,540.108989],[56,538.109237]]]}},{"type":"Feature","properties":{"id":"7","sid":"S7","isRoute":null,"feat_type":"Landmark","selected":false,"aligned":true,"otype":"Polygon","mapType":"Sketch","gen_id":"g.203.205"},"geometry":{"type":"Polygon","coordinates":[[[121,489.61526],[122.5,465.118302],[188,468.11793],[192.5,494.114701],[121,489.61526]]]}},{"type":"Feature","properties":{"id":"8","sid":"S8","isRoute":null,"feat_type":"Landmark","selected":false,"aligned":true,"otype":"Polygon","mapType":"Sketch","gen_id":"g.232"},"geometry":{"type":"Polygon","coordinates":[[[295.5,495.114577],[297.5,480.11644],[343.5,480.616377],[346,496.114453],[295.5,495.114577]]]}},{"type":"Feature","properties":{"id":"9","sid":"S9","isRoute":null,"feat_type":"Landmark","selected":false,"aligned":true,"otype":"Polygon","mapType":"Sketch","gen_id":"g.228"},"geometry":{"type":"Polygon","coordinates":[[[269,441.121282],[268.5,423.623456],[297.5,425.123269],[297.5,442.621096],[269,441.121282]]]}},{"type":"Feature","properties":{"id":"15","sid":"S15","isRoute":null,"feat_type":"Landmark","selected":false,"aligned":true,"otype":"Polygon","mapType":"Sketch","gen_id":"g.131"},"geometry":{"type":"Polygon","coordinates":[[[452,485.301669],[456,461.30465],[527,455.055426],[525.25,482.80198],[452,485.301669]]]}},{"type":"Feature","properties":{"id":"26","sid":"S26","isRoute":null,"feat_type":"Landmark","selected":false,"aligned":true,"otype":"Polygon","mapType":"Sketch","gen_id":"g.216"},"geometry":{"type":"Polygon","coordinates":[[[356,241.130658],[356.5,222.133017],[394.5,226.632458],[395.5,242.630472],[356,241.130658]]]}},{"type":"Feature","properties":{"id":"27","sid":"S27","isRoute":null,"feat_type":"Landmark","selected":false,"aligned":true,"otype":"Polygon","mapType":"Sketch","gen_id":"g.224"},"geometry":{"type":"Polygon","coordinates":[[[555.5,62.117743],[553,43.620041],[607.5,40.620413],[605,66.117247],[555.5,62.117743]]]}},{"type":"Feature","properties":{"id":"32","sid":"S32","isRoute":null,"feat_type":"Landmark","selected":false,"aligned":true,"otype":"Polygon","mapType":"Sketch","gen_id":"g.213"},"geometry":{"type":"Polygon","coordinates":[[[713.5,114.108182],[717.5,80.112404],[776,86.111659],[770,113.608244],[713.5,114.108182]]]}}]}