{"type":"FeatureCollection","features":[{"type":"Feature","geometry":{"type":"LineString","coordinates":[[305.5,470.624014],[314,385.634569],[350.5,298.145435],[407.5,239.152761],[494.5,203.157232]]},"properties":{"mapType":"Sketch","genType3":"Multi-MultiOmissionMerge","SketchRouteSeqOrder":21,"aligned":true,"feat_type":null,"id":"G23","isRoute":"Yes","otype":"Line","selected":false,"sid":"S36","group":true,"groupID":"23","gen_id":"g.16.18.23.25.27.28.30.31.33.37.254.258"}},{"type":"Feature","geometry":{"type":"MultiLineString","coordinates":[[[272,226.154376],[407.5,239.152761]],[[208.5,295.145807],[350.5,298.145435]],[[187.5,379.135376],[314,385.634569]]]},"properties":{"mapType":"Sketch","genType3":"Others","SketchRouteSeqOrder":null,"aligned":true,"feat_type":null,"id":"G24","isRoute":null,"otype":"Line","selected":false,"sid":"S14","group":true,"groupID":"24","gen_id":"g.19.22.26.29.32.34.36"}},{"type":"Feature","geometry":{"type":"LineString","coordinates":[[605.5,181.659901],[651,231.139226],[689.5,332.102283],[689.5,404.093343],[679,473.584712]]},"properties":{"mapType":"Sketch","genType3":"Multi-MultiOmissionMerge","SketchRouteSeqOrder":null,"aligned":true,"feat_type":null,"id":"G31","isRoute":null,"otype":"Line","selected":false,"sid":"S40","group":true,"groupID":"31","gen_id":"g.8.39.41.43.47.52.54.113"}},{"type":"Feature","geometry":{"type":"MultiLineString","coordinates":[[[689.5,332.102283],[800.5,336.101787]],[[689.5,404.093343],[802.5,410.092598]]]},"properties":{"mapType":"Sketch","genType3":"Others","SketchRouteSeqOrder":null,"aligned":true,"feat_type":null,"id":"G32","isRoute":null,"otype":"Line","selected":false,"sid":"S21","group":true,"groupID":"32","gen_id":"g.40.46.51.53"}},{"type":"Feature","geometry":{"type":"LineString","coordinates":[[528.5,476.084402],[529.5,500.081422],[518,518.079186],[499,528.077945],[461.5,536.076951],[389.5,542.576144],[299,541.615198]]},"properties":{"mapType":"Sketch","genType3":"Multi-MultiOmissionMerge","SketchRouteSeqOrder":3,"aligned":true,"feat_type":null,"id":"G35","isRoute":"Yes","otype":"Line","selected":false,"sid":"S31","group":true,"groupID":"35","gen_id":"g.71.73.75.77.79.81"}},{"type":"Feature","geometry":{"type":"MultiLineString","coordinates":[[[529.5,500.081422],[590.5,504.080925]],[[518,518.079186],[574.5,528.077945]],[[461.5,536.076951],[506.5,559.074095]]]},"properties":{"mapType":"Sketch","genType3":"Others","SketchRouteSeqOrder":null,"aligned":true,"feat_type":null,"id":"G36","isRoute":null,"otype":"Line","selected":false,"sid":"S27","group":true,"groupID":"36","gen_id":"g.72.74.76.78.80"}},{"id":"0","type":"Feature","properties":{"SketchRouteSeqOrder":null,"aligned":true,"feat_type":null,"id":"0","isRoute":null,"otype":"Line","selected":false,"sid":"S0","mapType":"Sketch","gen_id":"g.93"},"geometry":{"type":"LineString","coordinates":[[28,559.242441],[151,560.242316]]}},{"id":"1","type":"Feature","properties":{"SketchRouteSeqOrder":null,"aligned":true,"feat_type":null,"id":"2","isRoute":null,"otype":"Line","selected":false,"sid":"S2","mapType":"Sketch","gen_id":"g.111"},"geometry":{"type":"LineString","coordinates":[[162,467.624387],[29,466.624511]]}},{"id":"2","type":"Feature","properties":{"SketchRouteSeqOrder":null,"aligned":true,"feat_type":null,"id":"3","isRoute":null,"otype":"Line","selected":false,"sid":"S3","mapType":"Sketch","gen_id":"g.95"},"geometry":{"type":"LineString","coordinates":[[151,560.242316],[158,520.117868]]}},{"id":"3","type":"Feature","properties":{"SketchRouteSeqOrder":null,"aligned":true,"feat_type":null,"id":"4","isRoute":null,"otype":"Line","selected":false,"sid":"S4","mapType":"Sketch","gen_id":"g.105.107"},"geometry":{"type":"LineString","coordinates":[[158,520.117868],[162,467.624387]]}},{"id":"4","type":"Feature","properties":{"SketchRouteSeqOrder":null,"aligned":true,"feat_type":null,"id":"5","isRoute":null,"otype":"Line","selected":false,"sid":"S5","mapType":"Sketch","gen_id":"g.91"},"geometry":{"type":"LineString","coordinates":[[151,560.242316],[297.5,565.612217]]}},{"id":"5","type":"Feature","properties":{"SketchRouteSeqOrder":null,"aligned":true,"feat_type":null,"id":"6","isRoute":null,"otype":"Line","selected":false,"sid":"S6","mapType":"Sketch","gen_id":"g.97"},"geometry":{"type":"LineString","coordinates":[[158,520.117868],[298,523.117495]]}},{"id":"6","type":"Feature","properties":{"SketchRouteSeqOrder":null,"aligned":true,"feat_type":null,"id":"7","isRoute":null,"otype":"Line","selected":false,"sid":"S7","mapType":"Sketch","gen_id":"g.103"},"geometry":{"type":"LineString","coordinates":[[162,467.624387],[305.5,470.624014]]}},{"id":"7","type":"Feature","properties":{"SketchRouteSeqOrder":null,"aligned":true,"feat_type":null,"id":"8","isRoute":null,"otype":"Line","selected":false,"sid":"S8","mapType":"Sketch","gen_id":"g.89"},"geometry":{"type":"LineString","coordinates":[[297.5,565.612217],[297,590.109175]]}},{"id":"8","type":"Feature","properties":{"SketchRouteSeqOrder":null,"aligned":true,"feat_type":null,"id":"9","isRoute":null,"otype":"Line","selected":false,"sid":"S9","mapType":"Sketch","gen_id":"g.87"},"geometry":{"type":"LineString","coordinates":[[297.5,565.612217],[299,541.615198]]}},{"id":"9","type":"Feature","properties":{"SketchRouteSeqOrder":9,"aligned":true,"feat_type":null,"id":"10","isRoute":"Yes","otype":"Line","selected":false,"sid":"S10","mapType":"Sketch","gen_id":"g.99"},"geometry":{"type":"LineString","coordinates":[[299,541.615198],[298,523.117495]]}},{"id":"10","type":"Feature","properties":{"SketchRouteSeqOrder":10,"aligned":true,"feat_type":null,"id":"11","isRoute":"Yes","otype":"Line","selected":false,"sid":"S11","mapType":"Sketch","gen_id":"g.101"},"geometry":{"type":"LineString","coordinates":[[298,523.117495],[305.5,470.624014]]}},{"id":"14","type":"Feature","properties":{"SketchRouteSeqOrder":null,"aligned":true,"feat_type":null,"id":"15","isRoute":null,"otype":"Line","selected":false,"sid":"S15","mapType":"Sketch","gen_id":"g.63"},"geometry":{"type":"LineString","coordinates":[[345,90.671202],[484,87.671574]]}},{"id":"15","type":"Feature","properties":{"SketchRouteSeqOrder":24,"aligned":true,"feat_type":null,"id":"16","isRoute":"Yes","otype":"Line","selected":false,"sid":"S16","mapType":"Sketch","gen_id":"g.62"},"geometry":{"type":"LineString","coordinates":[[484,87.671574],[601.5,84.671947]]}},{"id":"16","type":"Feature","properties":{"SketchRouteSeqOrder":23,"aligned":true,"feat_type":null,"id":"17","isRoute":"Yes","otype":"Line","selected":false,"sid":"S17","mapType":"Sketch","gen_id":"g.56"},"geometry":{"type":"LineString","coordinates":[[494.5,203.157232],[484,87.671574]]}},{"id":"17","type":"Feature","properties":{"SketchRouteSeqOrder":28,"aligned":true,"feat_type":null,"id":"18","isRoute":"Yes","otype":"Line","selected":false,"sid":"S18","mapType":"Sketch","gen_id":"g.64.66.68.70"},"geometry":{"type":"LineString","coordinates":[[601.5,84.671947],[601.5,19.680018]]}},{"id":"18","type":"Feature","properties":{"SketchRouteSeqOrder":null,"aligned":true,"feat_type":null,"id":"19","isRoute":null,"otype":"Line","selected":false,"sid":"S19","mapType":"Sketch","gen_id":"g.57.59.61"},"geometry":{"type":"LineString","coordinates":[[601.5,84.671947],[605.5,181.659901]]}},{"id":"21","type":"Feature","properties":{"SketchRouteSeqOrder":null,"aligned":true,"feat_type":null,"id":"22","isRoute":null,"otype":"Line","selected":false,"sid":"S22","mapType":"Sketch","gen_id":"g.38"},"geometry":{"type":"LineString","coordinates":[[679,473.584712],[825,476.58434]]}},{"id":"22","type":"Feature","properties":{"SketchRouteSeqOrder":null,"aligned":false,"feat_type":null,"id":"23","isRoute":null,"otype":"Line","selected":false,"sid":"S23","mapType":"Sketch"},"geometry":{"type":"LineString","coordinates":[[679,473.584712],[685,542.576144]]}},{"id":"23","type":"Feature","properties":{"SketchRouteSeqOrder":2,"aligned":true,"feat_type":null,"id":"24","isRoute":"Yes","otype":"Line","selected":false,"sid":"S24","mapType":"Sketch","gen_id":"g.6.83"},"geometry":{"type":"LineString","coordinates":[[679,473.584712],[528.5,476.084402]]}},{"id":"31","type":"Feature","properties":{"SketchRouteSeqOrder":null,"aligned":true,"feat_type":null,"id":"32","isRoute":null,"otype":"Line","selected":false,"sid":"S32","mapType":"Sketch","gen_id":"g.1.82"},"geometry":{"type":"LineString","coordinates":[[305.5,470.624014],[415.5,476.084402],[528.5,476.084402]]}},{"id":"36","type":"Feature","properties":{"SketchRouteSeqOrder":null,"aligned":true,"feat_type":null,"id":"37","isRoute":null,"otype":"Line","selected":false,"sid":"S37","mapType":"Sketch","gen_id":"g.55"},"geometry":{"type":"LineString","coordinates":[[494.5,203.157232],[605.5,181.659901]]}},{"type":"Feature","properties":{"id":"41","sid":"S41","isRoute":null,"feat_type":"Landmark","selected":false,"aligned":true,"otype":"Polygon","mapType":"Sketch","gen_id":"g.195.197.199.201.203.205"},"geometry":{"type":"Polygon","coordinates":[[[18,536.607126],[19,499.111783],[117,499.611721],[129,530.607871],[115,539.106816],[18,536.607126]]]}},{"type":"Feature","properties":{"id":"42","sid":"S42","isRoute":null,"feat_type":"Landmark","selected":false,"aligned":true,"otype":"Polygon","mapType":"Sketch","gen_id":"g.232"},"geometry":{"type":"Polygon","coordinates":[[[199.5,537.798099],[200.25,527.549372],[246,528.04931],[245.75,539.047944],[199.5,537.798099]]]}},{"type":"Feature","properties":{"id":"43","sid":"S43","isRoute":null,"feat_type":"Landmark","selected":false,"aligned":true,"otype":"Polygon","mapType":"Sketch","gen_id":"g.228.229.230.231"},"geometry":{"type":"Polygon","coordinates":[[[184,509.801576],[187.5,484.304743],[231.75,485.804557],[229.25,499.552849],[252.25,502.802446],[250,514.550986],[184,509.801576]]]}},{"type":"Feature","properties":{"id":"44","sid":"S44","isRoute":null,"feat_type":"Landmark","selected":false,"aligned":true,"otype":"Polygon","mapType":"Sketch","gen_id":"g.131"},"geometry":{"type":"Polygon","coordinates":[[[356.5,530.550366],[357,508.05316],[435.25,511.052787],[434.5,530.300397],[356.5,530.550366]]]}},{"type":"Feature","properties":{"id":"46","sid":"S46","isRoute":null,"feat_type":"Landmark","selected":false,"aligned":true,"otype":"Polygon","mapType":"Sketch","gen_id":"g.213"},"geometry":{"type":"Polygon","coordinates":[[[646,111.151333],[643,79.655245],[717.5,81.155059],[726,111.151333],[646,111.151333]]]}},{"type":"Feature","properties":{"id":"47","sid":"S47","isRoute":null,"feat_type":"Landmark","selected":false,"aligned":true,"otype":"Polygon","mapType":"Sketch","gen_id":"g.221.222.223"},"geometry":{"type":"Polygon","coordinates":[[[724,70.656362],[716.5,47.659218],[728,32.661081],[820,34.160895],[805,68.156673],[784.5,76.155679],[724,70.656362]]]}},{"type":"Feature","properties":{"id":"48","sid":"S48","isRoute":null,"feat_type":"Landmark","selected":false,"aligned":true,"otype":"Polygon","mapType":"Sketch","gen_id":"g.207.209.211.235.236"},"geometry":{"type":"Polygon","coordinates":[[[546,156.145745],[516.5,155.645807],[516.5,138.14798],[579.5,138.14798],[581.5,171.643821],[542.5,172.643696],[546,156.145745]]]}},{"type":"Feature","properties":{"id":"49","sid":"S49","isRoute":null,"feat_type":"Landmark","selected":false,"aligned":true,"otype":"Polygon","mapType":"Sketch","gen_id":"g.227"},"geometry":{"type":"Polygon","coordinates":[[[536.5,127.649284],[535,109.151582],[577,108.151706],[577.5,126.649408],[536.5,127.649284]]]}},{"type":"Feature","properties":{"id":"50","sid":"S50","isRoute":null,"feat_type":"Landmark","selected":false,"aligned":true,"otype":"Polygon","mapType":"Sketch","gen_id":"g.224.225.226"},"geometry":{"type":"Polygon","coordinates":[[[447,72.656114],[442.5,52.658598],[527,49.159032],[534.5,71.656238],[447,72.656114]]]}},{"type":"Feature","properties":{"id":"51","sid":"S51","isRoute":null,"feat_type":"Landmark","selected":false,"aligned":true,"otype":"CircleMarker","mapType":"Sketch","gen_id":"g.133"},"geometry":{"type":"Polygon","coordinates":[[[475,518.511871],[474.995185,518.413854],[474.980785,518.316781],[474.95694,518.221586],[474.92388,518.129188],[474.881921,518.040474],[474.83147,517.956301],[474.77301,517.877478],[474.707107,517.804764],[474.634393,517.738861],[474.55557,517.680401],[474.471397,517.62995],[474.382683,517.587991],[474.290285,517.554931],[474.19509,517.531086],[474.098017,517.516686],[474,517.511871],[473.901983,517.516686],[473.80491,517.531086],[473.709715,517.554931],[473.617317,517.587991],[473.528603,517.62995],[473.44443,517.680401],[473.365607,517.738861],[473.292893,517.804764],[473.22699,517.877478],[473.16853,517.956301],[473.118079,518.040474],[473.07612,518.129188],[473.04306,518.221586],[473.019215,518.316781],[473.004815,518.413854],[473,518.511871],[473.004815,518.609888],[473.019215,518.706961],[473.04306,518.802156],[473.07612,518.894554],[473.118079,518.983268],[473.16853,519.067441],[473.22699,519.146264],[473.292893,519.218978],[473.365607,519.284881],[473.44443,519.343341],[473.528603,519.393792],[473.617317,519.435751],[473.709715,519.468811],[473.80491,519.492656],[473.901983,519.507056],[474,519.511871],[474.098017,519.507056],[474.19509,519.492656],[474.290285,519.468811],[474.382683,519.435751],[474.471397,519.393792],[474.55557,519.343341],[474.634393,519.284881],[474.707107,519.218978],[474.77301,519.146264],[474.83147,519.067441],[474.881921,518.983268],[474.92388,518.894554],[474.95694,518.802156],[474.980785,518.706961],[474.995185,518.609888],[475,518.511871]]]}}]}