{"type":"FeatureCollection","features":[{"type":"Feature","geometry":{"type":"LineString","coordinates":[[511,413.618551],[510,464.11228],[494.5,490.109051],[468.5,503.107437],[367,513.106195],[284.5,506.094895]]},"properties":{"mapType":"Sketch","genType3":"Multi-MultiOmissionMerge","SketchRouteSeqOrder":3,"aligned":true,"feat_type":null,"id":"G15","isRoute":"Yes","otype":"Line","selected":false,"sid":"S18","group":true,"groupID":"15","gen_id":"g.71.73.75.77.79.81"}},{"type":"Feature","geometry":{"type":"MultiLineString","coordinates":[[[519,553.101228],[501.5,566.099614]],[[519,553.101228],[543.5,542.602532]],[[581,479.610355],[589,464.612217]],[[581,479.610355],[575.5,494.108554]],[[367,513.106195],[386,567.099489]],[[510,464.11228],[581,479.610355]],[[386,567.099489],[414.5,565.099738]],[[468.5,503.107437],[519,553.101228]],[[386,567.099489],[359.5,571.098993]]]},"properties":{"mapType":"Sketch","genType3":"Others","SketchRouteSeqOrder":null,"aligned":true,"feat_type":null,"id":"G16","isRoute":null,"otype":"Line","selected":false,"sid":"S27","group":true,"groupID":"16","gen_id":"g.72.74.76.78.80"}},{"id":"0","type":"Feature","properties":{"SketchRouteSeqOrder":null,"aligned":true,"feat_type":null,"group":null,"groupID":null,"id":"0","isRoute":null,"otype":"Line","selected":false,"sid":"S0","mapType":"Sketch","gen_id":"g.111"},"geometry":{"type":"LineString","coordinates":[[37,413.106878],[118.5,415.606567]]}},{"id":"1","type":"Feature","properties":{"SketchRouteSeqOrder":null,"aligned":true,"feat_type":null,"group":null,"groupID":null,"id":"1","isRoute":null,"otype":"Line","selected":false,"sid":"S1","mapType":"Sketch","gen_id":"g.105.107"},"geometry":{"type":"LineString","coordinates":[[118.5,415.606567],[120.5,474.099303]]}},{"id":"2","type":"Feature","properties":{"SketchRouteSeqOrder":null,"aligned":true,"feat_type":null,"group":null,"groupID":null,"id":"2","isRoute":null,"otype":"Line","selected":false,"sid":"S2","mapType":"Sketch","gen_id":"g.95"},"geometry":{"type":"LineString","coordinates":[[120.5,474.099303],[115,536.591542]]}},{"id":"3","type":"Feature","properties":{"SketchRouteSeqOrder":null,"aligned":true,"feat_type":null,"group":null,"groupID":null,"id":"3","isRoute":null,"otype":"Line","selected":false,"sid":"S3","mapType":"Sketch","gen_id":"g.97"},"geometry":{"type":"LineString","coordinates":[[120.5,474.099303],[283.5,473.099427]]}},{"id":"4","type":"Feature","properties":{"SketchRouteSeqOrder":null,"aligned":true,"feat_type":null,"group":null,"groupID":null,"id":"4","isRoute":null,"otype":"Line","selected":false,"sid":"S4","mapType":"Sketch","gen_id":"g.103"},"geometry":{"type":"LineString","coordinates":[[118.5,415.606567],[290.5,415.10663]]}},{"id":"5","type":"Feature","properties":{"SketchRouteSeqOrder":9,"aligned":true,"feat_type":null,"group":null,"groupID":null,"id":"12","isRoute":"Yes","otype":"Line","selected":false,"sid":"S12","mapType":"Sketch","gen_id":"g.99"},"geometry":{"type":"LineString","coordinates":[[284.5,506.094895],[283.5,473.099427]]}},{"id":"6","type":"Feature","properties":{"SketchRouteSeqOrder":null,"aligned":true,"feat_type":null,"group":null,"groupID":null,"id":"13","isRoute":null,"otype":"Line","selected":false,"sid":"S13","mapType":"Sketch","gen_id":"g.87"},"geometry":{"type":"LineString","coordinates":[[284.5,506.094895],[284.5,541.090549]]}},{"id":"7","type":"Feature","properties":{"SketchRouteSeqOrder":10,"aligned":true,"feat_type":null,"group":null,"groupID":null,"id":"14","isRoute":"Yes","otype":"Line","selected":false,"sid":"S14","mapType":"Sketch","gen_id":"g.101"},"geometry":{"type":"LineString","coordinates":[[283.5,473.099427],[290.5,415.10663]]}},{"id":"21","type":"Feature","properties":{"SketchRouteSeqOrder":null,"aligned":true,"feat_type":null,"group":null,"groupID":null,"id":"28","isRoute":null,"otype":"Line","selected":false,"sid":"S28","mapType":"Sketch","gen_id":"g.1.82"},"geometry":{"type":"LineString","coordinates":[[290.5,415.10663],[511,413.618551]]}},{"id":"22","type":"Feature","properties":{"SketchRouteSeqOrder":2,"aligned":true,"feat_type":null,"group":null,"groupID":null,"id":"31","isRoute":"Yes","otype":"Line","selected":false,"sid":"S31","mapType":"Sketch","gen_id":"g.6.83"},"geometry":{"type":"LineString","coordinates":[[593,386.233252],[556,405.230892],[511,413.618551]]}},{"id":"23","type":"Feature","properties":{"SketchRouteSeqOrder":null,"aligned":true,"feat_type":null,"group":null,"groupID":null,"id":"32","isRoute":null,"otype":"Line","selected":false,"sid":"S32","mapType":"Sketch","gen_id":"g.7"},"geometry":{"type":"LineString","coordinates":[[593,386.233252],[642,481.221455]]}},{"id":"24","type":"Feature","properties":{"SketchRouteSeqOrder":null,"aligned":true,"feat_type":null,"group":null,"groupID":null,"id":"33","isRoute":null,"otype":"Line","selected":false,"sid":"S33","mapType":"Sketch","gen_id":"g.38"},"geometry":{"type":"LineString","coordinates":[[593,386.233252],[656,379.234121],[754,359.236604]]}},{"id":"25","type":"Feature","properties":{"SketchRouteSeqOrder":null,"aligned":true,"feat_type":null,"group":null,"groupID":null,"id":"34","isRoute":null,"otype":"Line","selected":false,"sid":"S34","mapType":"Sketch","gen_id":"g.8"},"geometry":{"type":"LineString","coordinates":[[593,386.233252],[590,219.253989]]}},{"id":"26","type":"Feature","properties":{"SketchRouteSeqOrder":null,"aligned":true,"feat_type":null,"group":null,"groupID":null,"id":"35","isRoute":null,"otype":"Line","selected":false,"sid":"S35","mapType":"Sketch","gen_id":"g.39.41.43.47.52.54.113"},"geometry":{"type":"LineString","coordinates":[[590,219.253989],[594,123.26591]]}},{"id":"27","type":"Feature","properties":{"SketchRouteSeqOrder":null,"aligned":true,"feat_type":null,"group":null,"groupID":null,"id":"36","isRoute":null,"otype":"Line","selected":false,"sid":"S36","mapType":"Sketch","gen_id":"g.55"},"geometry":{"type":"LineString","coordinates":[[594,123.26591],[414,119.266407]]}},{"id":"28","type":"Feature","properties":{"SketchRouteSeqOrder":23,"aligned":true,"feat_type":null,"group":null,"groupID":null,"id":"37","isRoute":"Yes","otype":"Line","selected":false,"sid":"S37","mapType":"Sketch","gen_id":"g.56"},"geometry":{"type":"LineString","coordinates":[[414,119.266407],[421,70.272491],[442,53.274602],[484,41.276093],[494.5,13.647794]]}},{"id":"29","type":"Feature","properties":{"SketchRouteSeqOrder":null,"aligned":true,"feat_type":null,"group":null,"groupID":null,"id":"38","isRoute":null,"otype":"Line","selected":false,"sid":"S38","mapType":"Sketch","gen_id":"g.63"},"geometry":{"type":"LineString","coordinates":[[494.5,13.647794],[404.5,11.648043]]}},{"id":"30","type":"Feature","properties":{"SketchRouteSeqOrder":24,"aligned":true,"feat_type":null,"group":null,"groupID":null,"id":"39","isRoute":"Yes","otype":"Line","selected":false,"sid":"S39","mapType":"Sketch","gen_id":"g.62"},"geometry":{"type":"LineString","coordinates":[[494.5,13.647794],[606,12.647918]]}},{"id":"31","type":"Feature","properties":{"SketchRouteSeqOrder":null,"aligned":true,"feat_type":null,"group":null,"groupID":null,"id":"41","isRoute":null,"otype":"Line","selected":false,"sid":"S41","mapType":"Sketch","gen_id":"g.61"},"geometry":{"type":"LineString","coordinates":[[606,12.647918],[598,87.138667]]}},{"id":"32","type":"Feature","properties":{"SketchRouteSeqOrder":null,"aligned":true,"feat_type":null,"group":null,"groupID":null,"id":"42","isRoute":null,"otype":"Line","selected":false,"sid":"S42","mapType":"Sketch","gen_id":"g.57.59"},"geometry":{"type":"LineString","coordinates":[[598,87.138667],[594,123.26591]]}},{"id":"33","type":"Feature","properties":{"SketchRouteSeqOrder":null,"aligned":true,"feat_type":null,"group":null,"groupID":null,"id":"43","isRoute":null,"otype":"Line","selected":false,"sid":"S43","mapType":"Sketch","gen_id":"g.60"},"geometry":{"type":"LineString","coordinates":[[598,87.138667],[736,94.637736]]}},{"id":"34","type":"Feature","properties":{"SketchRouteSeqOrder":28,"aligned":true,"feat_type":null,"group":null,"groupID":null,"id":"50","isRoute":"Yes","otype":"Line","selected":false,"sid":"S50","mapType":"Sketch","gen_id":"g.64.66.68.70"},"geometry":{"type":"LineString","coordinates":[[606,12.647918],[606.5,5.058096]]}},{"id":"35","type":"Feature","properties":{"SketchRouteSeqOrder":21,"aligned":true,"feat_type":null,"group":null,"groupID":null,"id":"51","isRoute":"Yes","otype":"Line","selected":false,"sid":"S51","mapType":"Sketch","gen_id":"g.31.33.37.254.258"},"geometry":{"type":"LineString","coordinates":[[300,217.21537],[308,169.221331],[317,146.224187],[352,125.226794],[414,119.266407]]}},{"id":"36","type":"Feature","properties":{"SketchRouteSeqOrder":null,"aligned":true,"feat_type":null,"group":null,"groupID":null,"id":"52","isRoute":null,"otype":"Line","selected":false,"sid":"S52","mapType":"Sketch","gen_id":"g.9.12.13.15"},"geometry":{"type":"LineString","coordinates":[[300,217.21537],[590,219.253989]]}},{"id":"37","type":"Feature","properties":{"SketchRouteSeqOrder":17,"aligned":true,"feat_type":null,"group":null,"groupID":null,"id":"53","isRoute":"Yes","otype":"Line","selected":false,"sid":"S53","mapType":"Sketch","gen_id":"g.30"},"geometry":{"type":"LineString","coordinates":[[290,276.208044],[300,217.21537]]}},{"id":"38","type":"Feature","properties":{"SketchRouteSeqOrder":null,"aligned":true,"feat_type":null,"group":null,"groupID":null,"id":"54","isRoute":null,"otype":"Line","selected":false,"sid":"S54","mapType":"Sketch","gen_id":"g.29"},"geometry":{"type":"LineString","coordinates":[[290,276.208044],[209,271.208665]]}},{"id":"39","type":"Feature","properties":{"SketchRouteSeqOrder":16,"aligned":true,"feat_type":null,"group":null,"groupID":null,"id":"57","isRoute":"Yes","otype":"Line","selected":false,"sid":"S57","mapType":"Sketch","gen_id":"g.16.18.23.25.27.28"},"geometry":{"type":"LineString","coordinates":[[290.5,415.10663],[290,276.208044]]}},{"type":"Feature","properties":{"id":"5","sid":"S5","isRoute":null,"feat_type":"Landmark","selected":false,"aligned":true,"otype":"Polygon","mapType":"Sketch","gen_id":"g.203.205"},"geometry":{"type":"Polygon","coordinates":[[[37.5,464.048534],[38.5,430.052756],[102,432.052508],[102.25,467.048161],[37.5,464.048534]]]}},{"type":"Feature","properties":{"id":"6","sid":"S6","isRoute":null,"feat_type":"Landmark","selected":false,"aligned":true,"otype":"Polygon","mapType":"Sketch","gen_id":"g.195.197.199.201"},"geometry":{"type":"Polygon","coordinates":[[[33.75,534.789748],[36.5,487.295647],[92.75,493.79484],[88.75,541.288941],[33.75,534.789748]]]}},{"type":"Feature","properties":{"id":"7","sid":"S7","isRoute":null,"feat_type":"Landmark","selected":false,"aligned":true,"otype":"Polygon","mapType":"Sketch","gen_id":"g.232"},"geometry":{"type":"Polygon","coordinates":[[[187,502.293784],[187.25,483.796081],[258.5,486.295771],[258.75,503.543629],[187,502.293784]]]}},{"type":"Feature","properties":{"id":"8","sid":"S8","isRoute":null,"feat_type":"Landmark","selected":false,"aligned":false,"otype":"Polygon","mapType":"Sketch"},"geometry":{"type":"Polygon","coordinates":[[[216.5,464.048534],[217.25,451.050148],[231.25,450.55021],[233.25,464.798441],[216.5,464.048534]]]}},{"type":"Feature","properties":{"id":"9","sid":"S9","isRoute":null,"feat_type":"Landmark","selected":false,"aligned":true,"otype":"Polygon","mapType":"Sketch","gen_id":"g.228"},"geometry":{"type":"Polygon","coordinates":[[[179.5,456.299496],[184,444.300986],[171.5,440.551452],[159,447.800552],[179.5,456.299496]]]}},{"type":"Feature","properties":{"id":"10","sid":"S10","isRoute":null,"feat_type":"Landmark","selected":false,"aligned":true,"otype":"Polygon","mapType":"Sketch","gen_id":"g.229"},"geometry":{"type":"Polygon","coordinates":[[[159,447.800552],[147,442.801173],[146.5,434.802166],[168.75,432.802414],[171.5,440.551452],[159,447.800552]]]}},{"type":"Feature","properties":{"id":"11","sid":"S11","isRoute":null,"feat_type":"Landmark","selected":false,"aligned":true,"otype":"Polygon","mapType":"Sketch","gen_id":"g.231"},"geometry":{"type":"Polygon","coordinates":[[[146.5,434.802166],[147,425.053377],[165.5,424.803408],[168.75,432.802414],[146.5,434.802166]]]}},{"type":"Feature","properties":{"id":"29","sid":"S29","isRoute":null,"feat_type":"Landmark","selected":false,"aligned":true,"otype":"Polygon","mapType":"Sketch","gen_id":"g.131"},"geometry":{"type":"Polygon","coordinates":[[[343,495.302011],[347.5,466.305612],[434.5,471.55496],[430.5,498.301638],[343,495.302011]]]}},{"type":"Feature","properties":{"id":"30","sid":"S30","isRoute":null,"feat_type":"Landmark","selected":false,"aligned":true,"otype":"Polygon","mapType":"Sketch","gen_id":"g.133"},"geometry":{"type":"Polygon","coordinates":[[[445.5,474.554588],[445.75,457.30673],[474.25,456.806792],[474,477.054277],[445.5,474.554588]]]}},{"type":"Feature","properties":{"id":"44","sid":"S44","isRoute":null,"feat_type":"Landmark","selected":false,"aligned":true,"otype":"Polygon","mapType":"Sketch","gen_id":"g.219"},"geometry":{"type":"Polygon","coordinates":[[[621.75,77.067843],[623.5,64.819365],[644,65.069334],[643.5,77.317812],[621.75,77.067843]]]}},{"type":"Feature","properties":{"id":"45","sid":"S45","isRoute":null,"feat_type":"Landmark","selected":false,"aligned":true,"otype":"Polygon","mapType":"Sketch","gen_id":"g.213"},"geometry":{"type":"Polygon","coordinates":[[[645.5,57.570265],[647.5,28.573866],[701.25,32.823338],[697.5,61.319799],[645.5,57.570265]]]}},{"type":"Feature","properties":{"id":"46","sid":"S46","isRoute":null,"feat_type":"Landmark","selected":false,"aligned":true,"otype":"Polygon","mapType":"Sketch","gen_id":"g.227"},"geometry":{"type":"Polygon","coordinates":[[[539,64.307226],[545.5,44.809648],[571,48.809151],[570.5,66.306978],[539,64.307226]]]}},{"type":"Feature","properties":{"id":"47","sid":"S47","isRoute":null,"feat_type":"Landmark","selected":false,"aligned":true,"otype":"Polygon","mapType":"Sketch","gen_id":"g.236"},"geometry":{"type":"Polygon","coordinates":[[[528.75,103.802321],[529,86.304494],[559.75,86.054525],[561.75,104.302259],[528.75,103.802321]]]}},{"type":"Feature","properties":{"id":"48","sid":"S48","isRoute":null,"feat_type":"Landmark","selected":false,"aligned":true,"otype":"Polygon","mapType":"Sketch","gen_id":"g.235"},"geometry":{"type":"Polygon","coordinates":[[[503.25,72.056264],[505,60.057754],[522,61.05763],[521,73.306109],[503.25,72.056264]]]}},{"type":"Feature","properties":{"id":"49","sid":"S49","isRoute":null,"feat_type":"Landmark","selected":false,"aligned":true,"otype":"Polygon","mapType":"Sketch","gen_id":"g.207"},"geometry":{"type":"Polygon","coordinates":[[[505,60.057754],[466.25,59.057878],[461.25,87.804308],[517.5,91.053905],[521,73.306109],[503.25,72.056264],[505,60.057754]]]}},{"type":"Feature","properties":{"id":"55","sid":"S55","isRoute":null,"feat_type":"Landmark","selected":false,"aligned":true,"otype":"Polygon","mapType":"Sketch","gen_id":"g.216"},"geometry":{"type":"Polygon","coordinates":[[[277.5,258.093653],[272,241.595702],[238,242.09564],[239,258.093653],[277.5,258.093653]]]}},{"type":"Feature","properties":{"id":"56","sid":"S56","isRoute":null,"feat_type":"Landmark","selected":false,"aligned":true,"otype":"Polygon","mapType":"Sketch","gen_id":"g.218"},"geometry":{"type":"Polygon","coordinates":[[[271.5,172.104332],[270.5,117.111162],[202.5,109.612093],[199.5,164.605264],[271.5,172.104332]]]}}]}