{"type":"FeatureCollection","features":[{"id":"0","type":"Feature","properties":{"SketchRouteSeqOrder":null,"aligned":true,"feat_type":null,"id":"0","isRoute":null,"otype":"Line","selected":false,"sid":"S0","mapType":"Sketch","gen_id":"g.103.111"},"geometry":{"type":"LineString","coordinates":[[45.5,460.10309],[286,468.102097]]}},{"id":"1","type":"Feature","properties":{"SketchRouteSeqOrder":10,"aligned":true,"feat_type":null,"id":"1","isRoute":"Yes","otype":"Line","selected":false,"sid":"S1","mapType":"Sketch","gen_id":"g.87.89.99.101"},"geometry":{"type":"LineString","coordinates":[[286,468.102097],[274.5,587.604394]]}},{"id":"2","type":"Feature","properties":{"SketchRouteSeqOrder":2,"aligned":true,"feat_type":null,"id":"4","isRoute":"Yes","otype":"Line","selected":false,"sid":"S4","mapType":"Sketch","gen_id":"g.1.6.82.83"},"geometry":{"type":"LineString","coordinates":[[711,393.252872],[560,445.246414],[454,469.243434],[286,468.102097]]}},{"id":"3","type":"Feature","properties":{"SketchRouteSeqOrder":null,"aligned":true,"feat_type":null,"id":"5","isRoute":null,"otype":"Line","selected":false,"sid":"S5","mapType":"Sketch","gen_id":"g.7"},"geometry":{"type":"LineString","coordinates":[[711,393.252872],[777,486.241323]]}},{"id":"4","type":"Feature","properties":{"SketchRouteSeqOrder":null,"aligned":true,"feat_type":null,"id":"6","isRoute":null,"otype":"Line","selected":false,"sid":"S6","mapType":"Sketch","gen_id":"g.38"},"geometry":{"type":"LineString","coordinates":[[711,393.252872],[830,365.256348]]}},{"id":"5","type":"Feature","properties":{"SketchRouteSeqOrder":null,"aligned":true,"feat_type":null,"id":"7","isRoute":null,"otype":"Line","selected":false,"sid":"S7","mapType":"Sketch","gen_id":"g.8"},"geometry":{"type":"LineString","coordinates":[[711,393.252872],[675,310.130347]]}},{"id":"6","type":"Feature","properties":{"SketchRouteSeqOrder":null,"aligned":true,"feat_type":null,"id":"8","isRoute":null,"otype":"Line","selected":false,"sid":"S8","mapType":"Sketch","gen_id":"g.39.41.43.47"},"geometry":{"type":"LineString","coordinates":[[675,310.130347],[657.5,249.137922]]}},{"id":"7","type":"Feature","properties":{"SketchRouteSeqOrder":null,"aligned":true,"feat_type":null,"id":"9","isRoute":null,"otype":"Line","selected":false,"sid":"S9","mapType":"Sketch","gen_id":"g.113"},"geometry":{"type":"LineString","coordinates":[[657.5,249.137922],[619,214.142268]]}},{"id":"8","type":"Feature","properties":{"SketchRouteSeqOrder":null,"aligned":true,"feat_type":null,"id":"10","isRoute":null,"otype":"Line","selected":false,"sid":"S10","mapType":"Sketch","gen_id":"g.52.54"},"geometry":{"type":"LineString","coordinates":[[619,214.142268],[596.5,190.145249],[586,154.149719]]}},{"id":"9","type":"Feature","properties":{"SketchRouteSeqOrder":null,"aligned":true,"feat_type":null,"id":"11","isRoute":null,"otype":"Line","selected":false,"sid":"S11","mapType":"Sketch","gen_id":"g.57.59.61"},"geometry":{"type":"LineString","coordinates":[[586,154.149719],[583,60.661329]]}},{"id":"10","type":"Feature","properties":{"SketchRouteSeqOrder":28,"aligned":true,"feat_type":null,"id":"12","isRoute":"Yes","otype":"Line","selected":false,"sid":"S12","mapType":"Sketch","gen_id":"g.64.66.68.70"},"geometry":{"type":"LineString","coordinates":[[583,60.661329],[588,15.666917]]}},{"id":"11","type":"Feature","properties":{"SketchRouteSeqOrder":24,"aligned":true,"feat_type":null,"id":"13","isRoute":"Yes","otype":"Line","selected":false,"sid":"S13","mapType":"Sketch","gen_id":"g.62"},"geometry":{"type":"LineString","coordinates":[[515,54.662075],[583,60.661329]]}},{"id":"12","type":"Feature","properties":{"SketchRouteSeqOrder":null,"aligned":true,"feat_type":null,"id":"14","isRoute":null,"otype":"Line","selected":false,"sid":"S14","mapType":"Sketch","gen_id":"g.63"},"geometry":{"type":"LineString","coordinates":[[515,54.662075],[377.5,46.16313]]}},{"id":"13","type":"Feature","properties":{"SketchRouteSeqOrder":23,"aligned":true,"feat_type":null,"id":"15","isRoute":"Yes","otype":"Line","selected":false,"sid":"S15","mapType":"Sketch","gen_id":"g.56"},"geometry":{"type":"LineString","coordinates":[[478,145.650774],[492.5,87.657977],[515,54.662075]]}},{"id":"14","type":"Feature","properties":{"SketchRouteSeqOrder":null,"aligned":true,"feat_type":null,"id":"16","isRoute":null,"otype":"Line","selected":false,"sid":"S16","mapType":"Sketch","gen_id":"g.55"},"geometry":{"type":"LineString","coordinates":[[478,145.650774],[586,154.149719]]}},{"id":"15","type":"Feature","properties":{"SketchRouteSeqOrder":22,"aligned":true,"feat_type":null,"id":"20","isRoute":"Yes","otype":"Line","selected":false,"sid":"S20","mapType":"Sketch","gen_id":"g.37"},"geometry":{"type":"LineString","coordinates":[[409.5,200.617122],[478,145.650774]]}},{"id":"16","type":"Feature","properties":{"SketchRouteSeqOrder":null,"aligned":true,"feat_type":null,"id":"21","isRoute":null,"otype":"Line","selected":false,"sid":"S21","mapType":"Sketch","gen_id":"g.115.123"},"geometry":{"type":"LineString","coordinates":[[409.5,200.617122],[440.5,210.115943],[605.5,216.615136],[619,214.142268]]}},{"id":"17","type":"Feature","properties":{"SketchRouteSeqOrder":21,"aligned":true,"feat_type":null,"id":"22","isRoute":"Yes","otype":"Line","selected":false,"sid":"S22","mapType":"Sketch","gen_id":"g.258"},"geometry":{"type":"LineString","coordinates":[[383,235.612776],[409.5,200.617122]]}},{"id":"18","type":"Feature","properties":{"SketchRouteSeqOrder":null,"aligned":true,"feat_type":null,"id":"23","isRoute":null,"otype":"Line","selected":false,"sid":"S23","mapType":"Sketch","gen_id":"g.119.242.246"},"geometry":{"type":"LineString","coordinates":[[383,235.612776],[518,241.229278],[657.5,249.137922]]}},{"id":"19","type":"Feature","properties":{"SketchRouteSeqOrder":20,"aligned":true,"feat_type":null,"id":"24","isRoute":"Yes","otype":"Line","selected":false,"sid":"S24","mapType":"Sketch","gen_id":"g.31.33.254"},"geometry":{"type":"LineString","coordinates":[[359,313.103277],[383,235.612776]]}},{"id":"20","type":"Feature","properties":{"SketchRouteSeqOrder":null,"aligned":true,"feat_type":null,"id":"25","isRoute":null,"otype":"Line","selected":false,"sid":"S25","mapType":"Sketch","gen_id":"g.9.12.13.15"},"geometry":{"type":"LineString","coordinates":[[359,313.103277],[675,310.130347]]}},{"id":"21","type":"Feature","properties":{"SketchRouteSeqOrder":17,"aligned":true,"feat_type":null,"id":"26","isRoute":"Yes","otype":"Line","selected":false,"sid":"S26","mapType":"Sketch","gen_id":"g.16.18.23.25.27.28.30"},"geometry":{"type":"LineString","coordinates":[[286,468.102097],[311,371.208913],[359,313.103277]]}},{"type":"Feature","properties":{"id":"2","sid":"S2","isRoute":null,"feat_type":"Landmark","selected":false,"aligned":true,"otype":"Polygon","mapType":"Sketch","gen_id":"g.203.205"},"geometry":{"type":"Polygon","coordinates":[[[47.5,512.11377],[59,482.117495],[131.5,487.116874],[130,517.613087],[47.5,512.11377]]]}},{"type":"Feature","properties":{"id":"3","sid":"S3","isRoute":null,"feat_type":"Landmark","selected":false,"aligned":true,"otype":"Polygon","mapType":"Sketch","gen_id":"g.195.197.199.201"},"geometry":{"type":"Polygon","coordinates":[[[39,580.105326],[44,544.609734],[125.5,552.608741],[120,585.104705],[39,580.105326]]]}},{"type":"Feature","properties":{"id":"17","sid":"S17","isRoute":null,"feat_type":"Landmark","selected":false,"aligned":true,"otype":"Polygon","mapType":"Sketch","gen_id":"g.213"},"geometry":{"type":"Polygon","coordinates":[[[617.5,81.658722],[613,55.66195],[692,61.661205],[691.5,85.658225],[617.5,81.658722]]]}},{"type":"Feature","properties":{"id":"18","sid":"S18","isRoute":null,"feat_type":"Landmark","selected":false,"aligned":true,"otype":"Polygon","mapType":"Sketch","gen_id":"g.221.222.223"},"geometry":{"type":"Polygon","coordinates":[[[628,46.16313],[628,22.666048],[691,23.165986],[693.5,48.66282],[628,46.16313]]]}},{"type":"Feature","properties":{"id":"19","sid":"S19","isRoute":null,"feat_type":"Landmark","selected":false,"aligned":true,"otype":"Polygon","mapType":"Sketch","gen_id":"g.224"},"geometry":{"type":"Polygon","coordinates":[[[420.5,33.834794],[422.75,7.338084],[483.5,14.587184],[480,38.334235],[420.5,33.834794]]]}},{"type":"Feature","properties":{"id":"27","sid":"S27","isRoute":null,"feat_type":"Landmark","selected":false,"aligned":true,"otype":"Polygon","mapType":"Sketch","gen_id":"g.131"},"geometry":{"type":"Polygon","coordinates":[[[413,540.226298],[417,517.229154],[496,519.228905],[486,544.225801],[413,540.226298]]]}}]}