{"type":"FeatureCollection","features":[{"type":"Feature","geometry":{"type":"MultiPolygon","coordinates":[[[[721.5,277.841058],[733,223.363901],[728.5,217.866206],[675.5,219.365578],[668.5,240.856566],[668.5,262.847345],[671.5,276.341687],[721.5,277.841058]]],[[[492.5,258.349231],[566.5,256.350069],[573.5,199.873751],[495,200.373541],[492.5,258.349231]]],[[[395.5,249.333094],[446,255.83037],[456,205.351536],[450.5,189.358243],[400,186.859291],[400.5,216.846716],[395.5,249.333094]]],[[[480.5,167.867254],[520.5,167.867254],[517,120.886954],[484,120.886954],[480.5,167.867254]]]]},"properties":{"mapType":"Sketch","id":"G17","sid":"S24","isRoute":null,"feat_type":"Landmark","selected":false,"aligned":true,"otype":"Polygon","group":true,"groupID":"17","gen_id":"g.59.60.61.62.64.66"}},{"id":"0","type":"Feature","properties":{"SketchRouteSeqOrder":null,"aligned":true,"feat_type":null,"id":"3","isRoute":null,"otype":"Line","selected":false,"sid":"S3","mapType":"Sketch","gen_id":"g.17"},"geometry":{"type":"LineString","coordinates":[[118.5,286.821778],[369,296.817586]]}},{"id":"1","type":"Feature","properties":{"SketchRouteSeqOrder":2,"aligned":true,"feat_type":null,"id":"5","isRoute":"Yes","otype":"Line","selected":false,"sid":"S5","mapType":"Sketch","gen_id":"g.16"},"geometry":{"type":"LineString","coordinates":[[363,401.597869],[369,296.817586]]}},{"id":"2","type":"Feature","properties":{"SketchRouteSeqOrder":1,"aligned":true,"feat_type":null,"id":"6","isRoute":"Yes","otype":"Line","selected":false,"sid":"S6","mapType":"Sketch","gen_id":"g.0"},"geometry":{"type":"LineString","coordinates":[[49,397.599546],[363,401.597869]]}},{"id":"3","type":"Feature","properties":{"SketchRouteSeqOrder":null,"aligned":true,"feat_type":null,"id":"7","isRoute":null,"otype":"Line","selected":false,"sid":"S7","mapType":"Sketch","gen_id":"g.2"},"geometry":{"type":"LineString","coordinates":[[363,401.597869],[346,470.568948],[342,527.545057]]}},{"id":"4","type":"Feature","properties":{"SketchRouteSeqOrder":null,"aligned":true,"feat_type":null,"id":"9","isRoute":null,"otype":"Line","selected":false,"sid":"S9","mapType":"Sketch","gen_id":"g.25"},"geometry":{"type":"LineString","coordinates":[[342,527.545057],[63,519.548411],[69,518.54883]]}},{"id":"5","type":"Feature","properties":{"SketchRouteSeqOrder":null,"aligned":true,"feat_type":null,"id":"11","isRoute":null,"otype":"Line","selected":false,"sid":"S11","mapType":"Sketch","gen_id":"g.4"},"geometry":{"type":"LineString","coordinates":[[342,527.545057],[344.5,557.7916]]}},{"id":"6","type":"Feature","properties":{"SketchRouteSeqOrder":null,"aligned":true,"feat_type":null,"id":"12","isRoute":null,"otype":"Line","selected":false,"sid":"S12","mapType":"Sketch","gen_id":"g.3.5.7"},"geometry":{"type":"LineString","coordinates":[[342,527.545057],[741,538.607928]]}},{"id":"7","type":"Feature","properties":{"SketchRouteSeqOrder":null,"aligned":true,"feat_type":null,"id":"13","isRoute":null,"otype":"Line","selected":false,"sid":"S13","mapType":"Sketch","gen_id":"g.10"},"geometry":{"type":"LineString","coordinates":[[741,538.607928],[744,577.591582]]}},{"id":"8","type":"Feature","properties":{"SketchRouteSeqOrder":null,"aligned":true,"feat_type":null,"id":"15","isRoute":null,"otype":"Line","selected":false,"sid":"S15","mapType":"Sketch","gen_id":"g.9"},"geometry":{"type":"LineString","coordinates":[[741,538.607928],[749,409.688403]]}},{"id":"9","type":"Feature","properties":{"SketchRouteSeqOrder":null,"aligned":true,"feat_type":null,"id":"16","isRoute":null,"otype":"Line","selected":false,"sid":"S16","mapType":"Sketch","gen_id":"g.11"},"geometry":{"type":"LineString","coordinates":[[749,409.688403],[812,412.687146]]}},{"id":"10","type":"Feature","properties":{"SketchRouteSeqOrder":null,"aligned":true,"feat_type":null,"id":"17","isRoute":null,"otype":"Line","selected":false,"sid":"S17","mapType":"Sketch","gen_id":"g.8"},"geometry":{"type":"LineString","coordinates":[[749,409.688403],[363,401.597869]]}},{"id":"11","type":"Feature","properties":{"SketchRouteSeqOrder":null,"aligned":true,"feat_type":null,"id":"18","isRoute":null,"otype":"Line","selected":false,"sid":"S18","mapType":"Sketch","gen_id":"g.47"},"geometry":{"type":"LineString","coordinates":[[749,409.688403],[752,297.735347]]}},{"id":"12","type":"Feature","properties":{"SketchRouteSeqOrder":null,"aligned":true,"feat_type":null,"id":"19","isRoute":null,"otype":"Line","selected":false,"sid":"S19","mapType":"Sketch","gen_id":"g.38"},"geometry":{"type":"LineString","coordinates":[[752,297.735347],[369,296.817586]]}},{"id":"13","type":"Feature","properties":{"SketchRouteSeqOrder":4,"aligned":true,"feat_type":null,"id":"26","isRoute":"Yes","otype":"Line","selected":false,"sid":"S26","mapType":"Sketch","gen_id":"g.26.43"},"geometry":{"type":"LineString","coordinates":[[369,296.817586],[372,137.703911],[377,90.723611],[404,72.731155],[497,69.732413],[526,65.734089]]}},{"id":"14","type":"Feature","properties":{"SketchRouteSeqOrder":5,"aligned":true,"feat_type":null,"id":"31","isRoute":"Yes","otype":"Line","selected":false,"sid":"S31","mapType":"Sketch","gen_id":"g.44"},"geometry":{"type":"LineString","coordinates":[[526,65.734089],[563.75,63.914975],[608,55.418538],[631,37.176187],[637,14.935513]]}},{"id":"15","type":"Feature","properties":{"SketchRouteSeqOrder":null,"aligned":true,"feat_type":null,"id":"32","isRoute":null,"otype":"Line","selected":false,"sid":"S32","mapType":"Sketch","gen_id":"g.40.41.42"},"geometry":{"type":"LineString","coordinates":[[526,65.734089],[528,132.298306],[545,175.780073],[601,194.272319],[693,192.772948],[750,192.273157]]}},{"id":"16","type":"Feature","properties":{"SketchRouteSeqOrder":null,"aligned":true,"feat_type":null,"id":"33","isRoute":null,"otype":"Line","selected":false,"sid":"S33","mapType":"Sketch","gen_id":"g.45"},"geometry":{"type":"LineString","coordinates":[[768,0],[750,192.273157]]}},{"id":"17","type":"Feature","properties":{"SketchRouteSeqOrder":null,"aligned":true,"feat_type":null,"id":"34","isRoute":null,"otype":"Line","selected":false,"sid":"S34","mapType":"Sketch","gen_id":"g.46"},"geometry":{"type":"LineString","coordinates":[[750,192.273157],[752,297.735347]]}},{"type":"Feature","properties":{"id":"0","sid":"S0","isRoute":null,"feat_type":"Landmark","selected":false,"aligned":true,"otype":"Polygon","mapType":"Sketch","gen_id":"g.50.51.52"},"geometry":{"type":"Polygon","coordinates":[[[66,383.587391],[211,382.58781],[210,314.616311],[191,307.619245],[99,306.619664],[65,304.620503],[64,323.612539],[66,383.587391]]]}},{"type":"Feature","properties":{"id":"1","sid":"S1","isRoute":null,"feat_type":"Landmark","selected":false,"aligned":true,"otype":"Polygon","mapType":"Sketch","gen_id":"g.48"},"geometry":{"type":"Polygon","coordinates":[[[266,387.779445],[335,387.279654],[336,374.285103],[342.5,353.293905],[334.5,344.797468],[271.5,349.295581],[262.5,366.288456],[266,387.779445]]]}},{"type":"Feature","properties":{"id":"2","sid":"S2","isRoute":null,"feat_type":"Landmark","selected":false,"aligned":true,"otype":"Polygon","mapType":"Sketch","gen_id":"g.67"},"geometry":{"type":"Polygon","coordinates":[[[261.5,266.83016],[338.5,272.327855],[346,163.373541],[253.5,171.370188],[254.5,232.844411],[261.5,266.83016]]]}},{"type":"Feature","properties":{"id":"10","sid":"S10","isRoute":null,"feat_type":"Landmark","selected":false,"aligned":true,"otype":"Polygon","mapType":"Sketch","gen_id":"g.72"},"geometry":{"type":"Polygon","coordinates":[[[319.5,552.293905],[242.5,549.794953],[241,578.782798],[321.5,581.78154],[319.5,552.293905]]]}},{"type":"Feature","properties":{"id":"14","sid":"S14","isRoute":null,"feat_type":"Landmark","selected":false,"aligned":true,"otype":"Polygon","mapType":"Sketch","gen_id":"g.73"},"geometry":{"type":"Polygon","coordinates":[[[442,587.289923],[654,600],[669,550.805222],[441,548.306269],[442,587.289923]]]}},{"type":"Feature","properties":{"id":"25","sid":"S25","isRoute":null,"feat_type":"Landmark","selected":false,"aligned":true,"otype":"Polygon","mapType":"Sketch","gen_id":"g.65"},"geometry":{"type":"Polygon","coordinates":[[[650,98.720258],[692,96.721096],[697,148.699301],[724,150.698462],[726,25.750855],[642,26.750436],[650,98.720258]]]}},{"type":"Feature","properties":{"id":"8","sid":"S8","isRoute":null,"feat_type":"Landmark","selected":false,"aligned":true,"otype":"CircleMarker","mapType":"Sketch","gen_id":"g.53"},"geometry":{"type":"Polygon","coordinates":[[[319,489.560985],[318.995185,489.462968],[318.980785,489.365895],[318.95694,489.2707],[318.92388,489.178302],[318.881921,489.089588],[318.83147,489.005415],[318.77301,488.926592],[318.707107,488.853878],[318.634393,488.787975],[318.55557,488.729515],[318.471397,488.679064],[318.382683,488.637105],[318.290285,488.604045],[318.19509,488.5802],[318.098017,488.5658],[318,488.560985],[317.901983,488.5658],[317.80491,488.5802],[317.709715,488.604045],[317.617317,488.637105],[317.528603,488.679064],[317.44443,488.729515],[317.365607,488.787975],[317.292893,488.853878],[317.22699,488.926592],[317.16853,489.005415],[317.118079,489.089588],[317.07612,489.178302],[317.04306,489.2707],[317.019215,489.365895],[317.004815,489.462968],[317,489.560985],[317.004815,489.659002],[317.019215,489.756075],[317.04306,489.85127],[317.07612,489.943668],[317.118079,490.032382],[317.16853,490.116555],[317.22699,490.195378],[317.292893,490.268092],[317.365607,490.333995],[317.44443,490.392455],[317.528603,490.442906],[317.617317,490.484865],[317.709715,490.517925],[317.80491,490.54177],[317.901983,490.55617],[318,490.560985],[318.098017,490.55617],[318.19509,490.54177],[318.290285,490.517925],[318.382683,490.484865],[318.471397,490.442906],[318.55557,490.392455],[318.634393,490.333995],[318.707107,490.268092],[318.77301,490.195378],[318.83147,490.116555],[318.881921,490.032382],[318.92388,489.943668],[318.95694,489.85127],[318.980785,489.756075],[318.995185,489.659002],[319,489.560985]]]}},{"type":"Feature","properties":{"id":"20","sid":"S20","isRoute":null,"feat_type":"Landmark","selected":false,"aligned":true,"otype":"CircleMarker","mapType":"Sketch","gen_id":"g.55"},"geometry":{"type":"Polygon","coordinates":[[[398,370.667446],[397.995185,370.569429],[397.980785,370.472356],[397.95694,370.377161],[397.92388,370.284763],[397.881921,370.196049],[397.83147,370.111876],[397.77301,370.033053],[397.707107,369.960339],[397.634393,369.894436],[397.55557,369.835976],[397.471397,369.785525],[397.382683,369.743566],[397.290285,369.710506],[397.19509,369.686661],[397.098017,369.672261],[397,369.667446],[396.901983,369.672261],[396.80491,369.686661],[396.709715,369.710506],[396.617317,369.743566],[396.528603,369.785525],[396.44443,369.835976],[396.365607,369.894436],[396.292893,369.960339],[396.22699,370.033053],[396.16853,370.111876],[396.118079,370.196049],[396.07612,370.284763],[396.04306,370.377161],[396.019215,370.472356],[396.004815,370.569429],[396,370.667446],[396.004815,370.765463],[396.019215,370.862536],[396.04306,370.957731],[396.07612,371.050129],[396.118079,371.138843],[396.16853,371.223016],[396.22699,371.301839],[396.292893,371.374553],[396.365607,371.440456],[396.44443,371.498916],[396.528603,371.549367],[396.617317,371.591326],[396.709715,371.624386],[396.80491,371.648231],[396.901983,371.662631],[397,371.667446],[397.098017,371.662631],[397.19509,371.648231],[397.290285,371.624386],[397.382683,371.591326],[397.471397,371.549367],[397.55557,371.498916],[397.634393,371.440456],[397.707107,371.374553],[397.77301,371.301839],[397.83147,371.223016],[397.881921,371.138843],[397.92388,371.050129],[397.95694,370.957731],[397.980785,370.862536],[397.995185,370.765463],[398,370.667446]]]}}]}