{"type":"FeatureCollection","features":[{"type":"Feature","geometry":{"type":"MultiPolygon","coordinates":[[[[167,427.570206],[209,427.570206],[219,362.59745],[203,350.60248],[168,346.604156],[167,427.570206]]],[[[86,432.572302],[144,434.571463],[132,349.60709],[86,348.607509],[86,432.572302]]],[[[0,431.572721],[57,430.57314],[61,365.600384],[0,355.604575],[0,431.572721]]]]},"properties":{"mapType":"Sketch","id":"G13","sid":"S24","isRoute":null,"feat_type":"Landmark","selected":false,"aligned":true,"otype":"Polygon","group":true,"groupID":"13","gen_id":"g.50.51.52"}},{"id":"0","type":"Feature","properties":{"SketchRouteSeqOrder":null,"aligned":true,"feat_type":null,"id":"9","isRoute":null,"otype":"Line","selected":false,"sid":"S9","mapType":"Sketch","gen_id":"g.8"},"geometry":{"type":"LineString","coordinates":[[381,445.642717],[816,447.641879]]}},{"id":"1","type":"Feature","properties":{"SketchRouteSeqOrder":3,"aligned":true,"feat_type":null,"id":"10","isRoute":null,"otype":"Line","selected":false,"sid":"S10","mapType":"Sketch","gen_id":"g.2"},"geometry":{"type":"LineString","coordinates":[[366,600],[365,600],[381,445.642717]]}},{"id":"2","type":"Feature","properties":{"SketchRouteSeqOrder":2,"aligned":true,"feat_type":null,"id":"13","isRoute":"Yes","otype":"Line","selected":false,"sid":"S13","mapType":"Sketch","gen_id":"g.16"},"geometry":{"type":"LineString","coordinates":[[381,445.642717],[397,312.731155]]}},{"id":"3","type":"Feature","properties":{"SketchRouteSeqOrder":null,"aligned":true,"feat_type":null,"id":"15","isRoute":null,"otype":"Line","selected":false,"sid":"S15","mapType":"Sketch","gen_id":"g.38"},"geometry":{"type":"LineString","coordinates":[[397,312.731155],[818,319.688822]]}},{"id":"4","type":"Feature","properties":{"SketchRouteSeqOrder":null,"aligned":true,"feat_type":null,"id":"16","isRoute":null,"otype":"Line","selected":false,"sid":"S16","mapType":"Sketch","gen_id":"g.47"},"geometry":{"type":"LineString","coordinates":[[818,319.688822],[816,447.641879]]}},{"id":"5","type":"Feature","properties":{"SketchRouteSeqOrder":null,"aligned":true,"feat_type":null,"id":"17","isRoute":null,"otype":"Line","selected":false,"sid":"S17","mapType":"Sketch","gen_id":"g.9.10"},"geometry":{"type":"LineString","coordinates":[[816,447.641879],[826,600],[827,600]]}},{"id":"6","type":"Feature","properties":{"SketchRouteSeqOrder":null,"aligned":true,"feat_type":null,"id":"18","isRoute":null,"otype":"Line","selected":false,"sid":"S18","mapType":"Sketch","gen_id":"g.46"},"geometry":{"type":"LineString","coordinates":[[818,319.688822],[828,196.780195]]}},{"id":"7","type":"Feature","properties":{"SketchRouteSeqOrder":null,"aligned":true,"feat_type":null,"id":"19","isRoute":null,"otype":"Line","selected":false,"sid":"S19","mapType":"Sketch","gen_id":"g.39.40.41"},"geometry":{"type":"LineString","coordinates":[[828,196.780195],[403,201.705588]]}},{"id":"8","type":"Feature","properties":{"SketchRouteSeqOrder":3,"aligned":true,"feat_type":null,"id":"21","isRoute":"Yes","otype":"Line","selected":false,"sid":"S21","mapType":"Sketch","gen_id":"g.26"},"geometry":{"type":"LineString","coordinates":[[397,312.731155],[403,201.705588]]}},{"id":"9","type":"Feature","properties":{"SketchRouteSeqOrder":null,"aligned":true,"feat_type":null,"id":"25","isRoute":null,"otype":"Line","selected":false,"sid":"S25","mapType":"Sketch","gen_id":"g.27"},"geometry":{"type":"LineString","coordinates":[[403,201.705588],[0,193.659482]]}},{"id":"10","type":"Feature","properties":{"SketchRouteSeqOrder":null,"aligned":true,"feat_type":null,"id":"26","isRoute":null,"otype":"Line","selected":false,"sid":"S26","mapType":"Sketch","gen_id":"g.17"},"geometry":{"type":"LineString","coordinates":[[397,312.731155],[0,320.606252]]}},{"id":"11","type":"Feature","properties":{"SketchRouteSeqOrder":5,"aligned":true,"feat_type":null,"id":"27","isRoute":"Yes","otype":"Line","selected":false,"sid":"S27","mapType":"Sketch","gen_id":"g.43.44"},"geometry":{"type":"LineString","coordinates":[[403,201.705588],[445,133.684631],[469,76.708522],[468,31.727383]]}},{"id":"12","type":"Feature","properties":{"SketchRouteSeqOrder":null,"aligned":true,"feat_type":null,"id":"28","isRoute":null,"otype":"Line","selected":false,"sid":"S28","mapType":"Sketch","gen_id":"g.32"},"geometry":{"type":"LineString","coordinates":[[468,31.727383],[0,28.72864]]}},{"id":"13","type":"Feature","properties":{"SketchRouteSeqOrder":null,"aligned":true,"feat_type":null,"id":"29","isRoute":null,"otype":"Line","selected":false,"sid":"S29","mapType":"Sketch","gen_id":"g.33"},"geometry":{"type":"LineString","coordinates":[[468,31.727383],[467,0]]}},{"id":"14","type":"Feature","properties":{"SketchRouteSeqOrder":7,"aligned":true,"feat_type":null,"id":"30","isRoute":"Yes","otype":"Line","selected":false,"sid":"S30","mapType":"Sketch","gen_id":"g.34.35"},"geometry":{"type":"LineString","coordinates":[[468,31.727383],[825,24.673314]]}},{"id":"15","type":"Feature","properties":{"SketchRouteSeqOrder":null,"aligned":true,"feat_type":null,"id":"31","isRoute":null,"otype":"Line","selected":false,"sid":"S31","mapType":"Sketch","gen_id":"g.45"},"geometry":{"type":"LineString","coordinates":[[828,196.780195],[825,24.673314]]}},{"id":"16","type":"Feature","properties":{"SketchRouteSeqOrder":null,"aligned":true,"feat_type":null,"id":"32","isRoute":null,"otype":"Line","selected":false,"sid":"S32","mapType":"Sketch","gen_id":"g.78"},"geometry":{"type":"LineString","coordinates":[[825,24.673314],[850,0]]}},{"id":"17","type":"Feature","properties":{"SketchRouteSeqOrder":1,"aligned":true,"feat_type":null,"id":"33","isRoute":"Yes","otype":"Line","selected":false,"sid":"S33","mapType":"Sketch","gen_id":"g.0"},"geometry":{"type":"LineString","coordinates":[[0,454.650681],[0,453.6511],[381,445.642717]]}},{"type":"Feature","properties":{"id":"1","sid":"S1","isRoute":null,"feat_type":"Landmark","selected":false,"aligned":true,"otype":"Polygon","mapType":"Sketch","gen_id":"g.48"},"geometry":{"type":"Polygon","coordinates":[[[249,429.610443],[335,433.608767],[348,378.631819],[343,338.648585],[253,336.649423],[249,429.610443]]]}},{"type":"Feature","properties":{"id":"2","sid":"S2","isRoute":null,"feat_type":"Landmark","selected":false,"aligned":true,"otype":"Polygon","mapType":"Sketch","gen_id":"g.55"},"geometry":{"type":"Polygon","coordinates":[[[482,416.615892],[530,421.613796],[542,366.636849],[476,365.637268],[482,416.615892]]]}},{"type":"Feature","properties":{"id":"3","sid":"S3","isRoute":null,"feat_type":"Landmark","selected":false,"aligned":true,"otype":"Polygon","mapType":"Sketch","gen_id":"g.58"},"geometry":{"type":"Polygon","coordinates":[[[644,411.617988],[640,381.630562],[650,340.647747],[766,334.650261],[784,346.645232],[778,418.615054],[644,411.617988]]]}},{"type":"Feature","properties":{"id":"4","sid":"S4","isRoute":null,"feat_type":"Landmark","selected":false,"aligned":false,"otype":"Polygon","mapType":"Sketch"},"geometry":{"type":"Polygon","coordinates":[[[593,501.580265],[699,504.579008],[707,480.589067],[589,476.590744],[593,501.580265]]]}},{"type":"Feature","properties":{"id":"5","sid":"S5","isRoute":null,"feat_type":"Landmark","selected":false,"aligned":true,"otype":"Polygon","mapType":"Sketch"},"geometry":{"type":"Polygon","coordinates":[[[469,502.579846],[553,501.580265],[556,467.594516],[469,470.593258],[469,502.579846]]]}},{"type":"Feature","properties":{"id":"6","sid":"S6","isRoute":null,"feat_type":"Landmark","selected":false,"aligned":true,"otype":"Polygon","mapType":"Sketch","gen_id":"g.65"},"geometry":{"type":"Polygon","coordinates":[[[714,98.749178],[798,101.747921],[793,53.76804],[714,51.768878],[714,98.749178]]]}},{"type":"Feature","properties":{"id":"7","sid":"S7","isRoute":null,"feat_type":"Landmark","selected":false,"aligned":true,"otype":"Polygon","mapType":"Sketch","gen_id":"g.73"},"geometry":{"type":"Polygon","coordinates":[[[460,574.549668],[521,573.550087],[715,575.549249],[712,533.566853],[704,524.570625],[706,528.283845],[686.5,524.285522],[500.5,517.788246],[497,522.28636],[465,527.608347],[460,574.549668]]]}},{"type":"Feature","properties":{"id":"11","sid":"S11","isRoute":null,"feat_type":"Landmark","selected":false,"aligned":true,"otype":"Polygon","mapType":"Sketch","gen_id":"g.53"},"geometry":{"type":"Polygon","coordinates":[[[317,600],[315,522.643136],[252,522.643136],[244,600],[317,600]]]}}]}