{"type":"FeatureCollection","features":[{"type":"Feature","geometry":{"type":"MultiPolygon","coordinates":[[[[250,387.104623],[254,344.063787],[292,349.56901],[286,389.106522],[250,387.104623]]],[[[197,381.5994],[202,344.564262],[237.5,348.568061],[236,389.106522],[197,381.5994]]],[[[145.5,385.102724],[150.5,340.059989],[178.5,343.062838],[180,384.602249],[145.5,385.102724]]]]},"properties":{"mapType":"Sketch","id":"G8","sid":"S9","isRoute":null,"feat_type":"Landmark","selected":false,"aligned":true,"otype":"Polygon","group":true,"groupID":"8","gen_id":"g.49.50.51.52"}},{"type":"Feature","geometry":{"type":"MultiPolygon","coordinates":[[[[479,291.946186],[485,243.400127],[509.25,245.402027],[504.25,294.698798],[479,291.946186]]],[[[566.75,298.702596],[571.75,248.90535],[601.75,248.655113],[596.5,303.457107],[566.75,298.702596]]],[[[638.949749,299.902184],[643.454271,253.358025],[670.481407,252.85755],[670.481407,268.872745],[665.976884,300.903134],[638.949749,299.902184]]]]},"properties":{"mapType":"Sketch","id":"G29","sid":"S32","isRoute":null,"feat_type":"Landmark","selected":false,"aligned":true,"otype":"Polygon","group":true,"groupID":"29","gen_id":"g.61.62.63.64"}},{"id":"0","type":"Feature","properties":{"SketchRouteSeqOrder":null,"aligned":true,"feat_type":null,"id":"1","isRoute":null,"otype":"Line","selected":false,"sid":"S1","mapType":"Sketch","gen_id":"g.25"},"geometry":{"type":"LineString","coordinates":[[213,482.238686],[428,489.245333]]}},{"id":"1","type":"Feature","properties":{"SketchRouteSeqOrder":null,"aligned":true,"feat_type":null,"id":"2","isRoute":null,"otype":"Line","selected":false,"sid":"S2","mapType":"Sketch","gen_id":"g.3.5.7"},"geometry":{"type":"LineString","coordinates":[[428,489.245333],[749,494.250082]]}},{"id":"2","type":"Feature","properties":{"SketchRouteSeqOrder":null,"aligned":true,"feat_type":null,"id":"3","isRoute":null,"otype":"Line","selected":false,"sid":"S3","mapType":"Sketch","gen_id":"g.2"},"geometry":{"type":"LineString","coordinates":[[428,489.245333],[434,410.17031]]}},{"id":"3","type":"Feature","properties":{"SketchRouteSeqOrder":1,"aligned":true,"feat_type":null,"id":"5","isRoute":"Yes","otype":"Line","selected":false,"sid":"S5","mapType":"Sketch","gen_id":"g.0"},"geometry":{"type":"LineString","coordinates":[[80,406.13992],[231,406.13992],[434,410.17031]]}},{"id":"4","type":"Feature","properties":{"SketchRouteSeqOrder":null,"aligned":true,"feat_type":null,"id":"10","isRoute":null,"otype":"Line","selected":false,"sid":"S10","mapType":"Sketch","gen_id":"g.8"},"geometry":{"type":"LineString","coordinates":[[434,410.17031],[686,415.149417]]}},{"id":"5","type":"Feature","properties":{"SketchRouteSeqOrder":2,"aligned":true,"feat_type":null,"id":"11","isRoute":"Yes","otype":"Line","selected":false,"sid":"S11","mapType":"Sketch","gen_id":"g.16"},"geometry":{"type":"LineString","coordinates":[[434,410.17031],[430,315.466446]]}},{"id":"6","type":"Feature","properties":{"SketchRouteSeqOrder":null,"aligned":true,"feat_type":null,"id":"12","isRoute":null,"otype":"Line","selected":false,"sid":"S12","mapType":"Sketch","gen_id":"g.38"},"geometry":{"type":"LineString","coordinates":[[430,315.466446],[681,318.995571]]}},{"id":"7","type":"Feature","properties":{"SketchRouteSeqOrder":null,"aligned":true,"feat_type":null,"id":"14","isRoute":null,"otype":"Line","selected":false,"sid":"S14","mapType":"Sketch","gen_id":"g.17"},"geometry":{"type":"LineString","coordinates":[[430,315.466446],[213,301.858819]]}},{"id":"8","type":"Feature","properties":{"SketchRouteSeqOrder":3,"aligned":true,"feat_type":null,"id":"16","isRoute":"Yes","otype":"Line","selected":false,"sid":"S16","mapType":"Sketch","gen_id":"g.26"},"geometry":{"type":"LineString","coordinates":[[430,315.466446],[436,225.335867]]}},{"id":"9","type":"Feature","properties":{"SketchRouteSeqOrder":null,"aligned":true,"feat_type":null,"id":"17","isRoute":null,"otype":"Line","selected":false,"sid":"S17","mapType":"Sketch","gen_id":"g.39"},"geometry":{"type":"LineString","coordinates":[[436,225.335867],[731,243.705922]]}},{"id":"10","type":"Feature","properties":{"SketchRouteSeqOrder":4,"aligned":true,"feat_type":null,"id":"18","isRoute":"Yes","otype":"Line","selected":false,"sid":"S18","mapType":"Sketch","gen_id":"g.43"},"geometry":{"type":"LineString","coordinates":[[436,225.335867],[488.5,206.837292],[510.5,194.825896],[522,181.81355],[525.5,163.295981]]}},{"id":"11","type":"Feature","properties":{"SketchRouteSeqOrder":null,"aligned":true,"feat_type":null,"id":"19","isRoute":null,"otype":"Line","selected":false,"sid":"S19","mapType":"Sketch","gen_id":"g.40.42"},"geometry":{"type":"LineString","coordinates":[[525.5,163.295981],[624,162.787909],[741,168.793607]]}},{"id":"12","type":"Feature","properties":{"SketchRouteSeqOrder":null,"aligned":true,"feat_type":null,"id":"20","isRoute":null,"otype":"Line","selected":false,"sid":"S20","mapType":"Sketch","gen_id":"g.37"},"geometry":{"type":"LineString","coordinates":[[741,168.793607],[739.5,142.768915],[739,97.72618]]}},{"id":"13","type":"Feature","properties":{"SketchRouteSeqOrder":null,"aligned":true,"feat_type":null,"id":"21","isRoute":null,"otype":"Line","selected":false,"sid":"S21","mapType":"Sketch","gen_id":"g.41"},"geometry":{"type":"LineString","coordinates":[[741,168.793607],[773,178.803104],[839,182.306427]]}},{"id":"14","type":"Feature","properties":{"SketchRouteSeqOrder":6,"aligned":true,"feat_type":null,"id":"22","isRoute":"Yes","otype":"Line","selected":false,"sid":"S22","mapType":"Sketch","gen_id":"g.34"},"geometry":{"type":"LineString","coordinates":[[521.5,89.718583],[739,97.72618]]}},{"id":"15","type":"Feature","properties":{"SketchRouteSeqOrder":7,"aligned":true,"feat_type":null,"id":"23","isRoute":"Yes","otype":"Line","selected":false,"sid":"S23","mapType":"Sketch","gen_id":"g.35"},"geometry":{"type":"LineString","coordinates":[[739,97.72618],[803,96.224756]]}},{"id":"16","type":"Feature","properties":{"SketchRouteSeqOrder":5,"aligned":true,"feat_type":null,"id":"24","isRoute":"Yes","otype":"Line","selected":false,"sid":"S24","mapType":"Sketch","gen_id":"g.44"},"geometry":{"type":"LineString","coordinates":[[525.5,163.295981],[521.5,89.718583]]}},{"id":"17","type":"Feature","properties":{"SketchRouteSeqOrder":null,"aligned":true,"feat_type":null,"id":"25","isRoute":null,"otype":"Line","selected":false,"sid":"S25","mapType":"Sketch","gen_id":"g.27"},"geometry":{"type":"LineString","coordinates":[[436,225.335867],[360,221.593861],[278,216.589113]]}},{"id":"18","type":"Feature","properties":{"SketchRouteSeqOrder":null,"aligned":true,"feat_type":null,"id":"26","isRoute":null,"otype":"Line","selected":false,"sid":"S26","mapType":"Sketch","gen_id":"g.32"},"geometry":{"type":"LineString","coordinates":[[521.5,89.718583],[275,83.462807]]}},{"id":"19","type":"Feature","properties":{"SketchRouteSeqOrder":null,"aligned":true,"feat_type":null,"id":"27","isRoute":null,"otype":"Line","selected":false,"sid":"S27","mapType":"Sketch","gen_id":"g.33"},"geometry":{"type":"LineString","coordinates":[[521.5,89.718583],[524,20.402978]]}},{"type":"Feature","properties":{"id":"0","sid":"S0","isRoute":null,"feat_type":"Landmark","selected":false,"aligned":true,"otype":"Polygon","mapType":"Sketch","gen_id":"g.73"},"geometry":{"type":"Polygon","coordinates":[[[756.5,568.682971],[756,522.138811],[714,521.137861],[700.5,519.636437],[701.5,566.180596],[726,578.692467],[741,577.691518],[756.5,568.682971]]]}},{"type":"Feature","properties":{"id":"4","sid":"S4","isRoute":null,"feat_type":"Landmark","selected":false,"aligned":true,"otype":"Polygon","mapType":"Sketch","gen_id":"g.53"},"geometry":{"type":"Polygon","coordinates":[[[368.5,465.622192],[371.5,436.594651],[407,437.595601],[402.5,468.625041],[368.5,465.622192]]]}},{"type":"Feature","properties":{"id":"6","sid":"S6","isRoute":null,"feat_type":"Landmark","selected":false,"aligned":true,"otype":"Polygon","mapType":"Sketch","gen_id":"g.48"},"geometry":{"type":"Polygon","coordinates":[[[380,388.807535],[380.25,362.782843],[378.25,353.524059],[360.5,351.271922],[336.5,350.771447],[326.5,349.770498],[318.75,356.27667],[315,386.805635],[321.5,388.557297],[354.75,389.057772],[380,388.807535]]]}},{"type":"Feature","properties":{"id":"13","sid":"S13","isRoute":null,"feat_type":"Landmark","selected":false,"aligned":true,"otype":"Polygon","mapType":"Sketch","gen_id":"g.55.56"},"geometry":{"type":"Polygon","coordinates":[[[574,398.525801],[572,387.510764],[481.5,384.758152],[481.5,376.750555],[474,372.996993],[464.5,372.996993],[464,391.014087],[475.75,394.267174],[526.25,396.519311],[561.75,397.270023],[574,398.525801]]]}},{"type":"Feature","properties":{"id":"15","sid":"S15","isRoute":null,"feat_type":"Landmark","selected":false,"aligned":true,"otype":"Polygon","mapType":"Sketch","gen_id":"g.67"},"geometry":{"type":"Polygon","coordinates":[[[350.5,281.696661],[302.75,279.694762],[298.75,291.706158],[366.75,295.960194],[377.5,295.960194],[384.75,292.206632],[384.75,276.691913],[384,257.673869],[369,254.67102],[358.75,255.171495],[356,276.94215],[350.5,281.696661]]]}},{"type":"Feature","properties":{"id":"28","sid":"S28","isRoute":null,"feat_type":"Landmark","selected":false,"aligned":true,"otype":"Polygon","mapType":"Sketch","gen_id":"g.65"},"geometry":{"type":"Polygon","coordinates":[[[645.5,137.89348],[644.5,110.367364],[647.25,103.360716],[674,105.612853],[674.5,138.644192],[645.5,137.89348]]]}},{"type":"Feature","properties":{"id":"31","sid":"S31","isRoute":null,"feat_type":"Landmark","selected":false,"aligned":true,"otype":"Polygon","mapType":"Sketch","gen_id":"g.66"},"geometry":{"type":"Polygon","coordinates":[[[633.5,228.424344],[638.5,188.386357],[635.75,181.129472],[621.5,177.876386],[603.25,180.128522],[598.5,225.671732],[633.5,228.424344]]]}}]}