{"type":"FeatureCollection","features":[{"type":"Feature","geometry":{"type":"MultiPolygon","coordinates":[[[[394,248.358025],[399.5,187.80057],[452.5,191.303894],[452.5,220.831909],[447,257.867047],[394,248.358025]]],[[[499.5,257.355176],[488,242.841406],[489.5,199.300095],[558.5,203.804368],[573.5,200.64981],[570.75,244.691595],[564.25,258.204416],[518.5,259.205366],[499.5,257.355176]]],[[[666,276.711538],[674.5,219.156933],[714,215.403371],[726.75,217.155033],[734.5,222.910494],[729.5,249.43566],[721.5,279.213913],[684.75,278.4632],[666,276.711538]]],[[[480.5,167.8566],[480.5,117.809117],[519.5,121.655271],[521.75,169.951092],[480.5,167.8566]]]]},"properties":{"mapType":"Sketch","id":"G25","sid":"S31","isRoute":null,"feat_type":"Landmark","selected":false,"aligned":true,"otype":"Polygon","group":true,"groupID":"25","gen_id":"g.59.60.61.62.63.64.66"}},{"id":"0","type":"Feature","properties":{"SketchRouteSeqOrder":null,"aligned":true,"feat_type":null,"id":"0","isRoute":null,"otype":"Line","selected":false,"sid":"S0","mapType":"Sketch","gen_id":"g.4"},"geometry":{"type":"LineString","coordinates":[[348,573.343149],[342,523.295666]]}},{"id":"1","type":"Feature","properties":{"SketchRouteSeqOrder":null,"aligned":true,"feat_type":null,"id":"1","isRoute":null,"otype":"Line","selected":false,"sid":"S1","mapType":"Sketch","gen_id":"g.5.7"},"geometry":{"type":"LineString","coordinates":[[342,523.295666],[744,536.308011]]}},{"id":"2","type":"Feature","properties":{"SketchRouteSeqOrder":null,"aligned":true,"feat_type":null,"id":"2","isRoute":null,"otype":"Line","selected":false,"sid":"S2","mapType":"Sketch","gen_id":"g.10"},"geometry":{"type":"LineString","coordinates":[[739,565.335552],[744,536.308011]]}},{"id":"3","type":"Feature","properties":{"SketchRouteSeqOrder":null,"aligned":true,"feat_type":null,"id":"3","isRoute":null,"otype":"Line","selected":false,"sid":"S3","mapType":"Sketch","gen_id":"g.9"},"geometry":{"type":"LineString","coordinates":[[744,536.308011],[747,408.186454]]}},{"id":"4","type":"Feature","properties":{"SketchRouteSeqOrder":null,"aligned":true,"feat_type":null,"id":"4","isRoute":null,"otype":"Line","selected":false,"sid":"S4","mapType":"Sketch","gen_id":"g.11.13"},"geometry":{"type":"LineString","coordinates":[[747,408.186454],[819,410.188353]]}},{"id":"5","type":"Feature","properties":{"SketchRouteSeqOrder":null,"aligned":true,"feat_type":null,"id":"5","isRoute":null,"otype":"Line","selected":false,"sid":"S5","mapType":"Sketch","gen_id":"g.8"},"geometry":{"type":"LineString","coordinates":[[747,408.186454],[358,400.178857]]}},{"id":"6","type":"Feature","properties":{"SketchRouteSeqOrder":null,"aligned":true,"feat_type":null,"id":"6","isRoute":null,"otype":"Line","selected":false,"sid":"S6","mapType":"Sketch","gen_id":"g.2"},"geometry":{"type":"LineString","coordinates":[[342,523.295666],[351,439.215894],[358,400.178857]]}},{"id":"7","type":"Feature","properties":{"SketchRouteSeqOrder":1,"aligned":true,"feat_type":null,"id":"7","isRoute":"Yes","otype":"Line","selected":false,"sid":"S7","mapType":"Sketch","gen_id":"g.0"},"geometry":{"type":"LineString","coordinates":[[108,401.179806],[358,400.178857]]}},{"id":"8","type":"Feature","properties":{"SketchRouteSeqOrder":2,"aligned":true,"feat_type":null,"id":"8","isRoute":"Yes","otype":"Line","selected":false,"sid":"S8","mapType":"Sketch","gen_id":"g.16"},"geometry":{"type":"LineString","coordinates":[[358,400.178857],[373,298.081991]]}},{"id":"9","type":"Feature","properties":{"SketchRouteSeqOrder":null,"aligned":true,"feat_type":null,"id":"9","isRoute":null,"otype":"Line","selected":false,"sid":"S9","mapType":"Sketch","gen_id":"g.17"},"geometry":{"type":"LineString","coordinates":[[115,291.075343],[373,298.081991]]}},{"id":"10","type":"Feature","properties":{"SketchRouteSeqOrder":null,"aligned":true,"feat_type":null,"id":"10","isRoute":null,"otype":"Line","selected":false,"sid":"S10","mapType":"Sketch","gen_id":"g.38"},"geometry":{"type":"LineString","coordinates":[[373,298.081991],[755,300.08389]]}},{"id":"11","type":"Feature","properties":{"SketchRouteSeqOrder":null,"aligned":true,"feat_type":null,"id":"11","isRoute":null,"otype":"Line","selected":false,"sid":"S11","mapType":"Sketch","gen_id":"g.47"},"geometry":{"type":"LineString","coordinates":[[747,408.186454],[755,300.08389]]}},{"id":"12","type":"Feature","properties":{"SketchRouteSeqOrder":null,"aligned":true,"feat_type":null,"id":"12","isRoute":null,"otype":"Line","selected":false,"sid":"S12","mapType":"Sketch","gen_id":"g.46"},"geometry":{"type":"LineString","coordinates":[[755,300.08389],[766.5,191.509022]]}},{"id":"13","type":"Feature","properties":{"SketchRouteSeqOrder":null,"aligned":true,"feat_type":null,"id":"15","isRoute":null,"otype":"Line","selected":false,"sid":"S15","mapType":"Sketch","gen_id":"g.19.21.25"},"geometry":{"type":"LineString","coordinates":[[342,523.295666],[198,524.899335],[87,518.893637]]}},{"id":"14","type":"Feature","properties":{"SketchRouteSeqOrder":null,"aligned":false,"feat_type":null,"id":"16","isRoute":null,"otype":"Line","selected":false,"sid":"S16","mapType":"Sketch"},"geometry":{"type":"LineString","coordinates":[[744,536.308011],[804,537.911681]]}},{"id":"15","type":"Feature","properties":{"SketchRouteSeqOrder":4,"aligned":true,"feat_type":null,"id":"23","isRoute":"Yes","otype":"Line","selected":false,"sid":"S23","mapType":"Sketch","gen_id":"g.26.43"},"geometry":{"type":"LineString","coordinates":[[373,298.081991],[371,231.581197],[367,158.511871],[373,117.472934],[384,88.445394],[431,64.422602],[489,69.42735],[534,68.426401]]}},{"id":"16","type":"Feature","properties":{"SketchRouteSeqOrder":5,"aligned":true,"feat_type":null,"id":"25","isRoute":"Yes","otype":"Line","selected":false,"sid":"S25","mapType":"Sketch","gen_id":"g.44"},"geometry":{"type":"LineString","coordinates":[[534,68.426401],[563.5,67.233618],[599.5,59.726496],[627.5,42.710351],[639,20.689459]]}},{"id":"17","type":"Feature","properties":{"SketchRouteSeqOrder":null,"aligned":true,"feat_type":null,"id":"26","isRoute":null,"otype":"Line","selected":false,"sid":"S26","mapType":"Sketch","gen_id":"g.40.41.42"},"geometry":{"type":"LineString","coordinates":[[534,68.426401],[525.5,93.25831],[527,118.282051],[528.5,148.811016],[541,170.331434],[561,190.350427],[597,194.854701],[652,193.353276],[735,191.351377],[766.5,191.509022]]}},{"id":"18","type":"Feature","properties":{"SketchRouteSeqOrder":null,"aligned":true,"feat_type":null,"id":"27","isRoute":null,"otype":"Line","selected":false,"sid":"S27","mapType":"Sketch","gen_id":"g.45"},"geometry":{"type":"LineString","coordinates":[[766.5,191.509022],[773,16.734093]]}},{"type":"Feature","properties":{"id":"13","sid":"S13","isRoute":null,"feat_type":"Landmark","selected":false,"aligned":true,"otype":"Polygon","mapType":"Sketch","gen_id":"g.72"},"geometry":{"type":"Polygon","coordinates":[[[242,581.500475],[237.5,547.968661],[278.5,547.968661],[322.5,548.969611],[319,585.504274],[276.5,584.503324],[242,581.500475]]]}},{"type":"Feature","properties":{"id":"19","sid":"S19","isRoute":null,"feat_type":"Landmark","selected":false,"aligned":true,"otype":"Polygon","mapType":"Sketch","gen_id":"g.50.51.52"},"geometry":{"type":"Polygon","coordinates":[[[68.5,382.405033],[65.5,351.375594],[65.5,324.349953],[74.5,304.330959],[156.5,304.831434],[204,310.837132],[209,316.342355],[208,385.407882],[122,383.906458],[68.5,382.405033]]]}},{"type":"Feature","properties":{"id":"20","sid":"S20","isRoute":null,"feat_type":"Landmark","selected":false,"aligned":true,"otype":"Polygon","mapType":"Sketch","gen_id":"g.48"},"geometry":{"type":"Polygon","coordinates":[[[262.75,386.711776],[267.5,347.424501],[300.5,347.674739],[331,348.675689],[342,352.42925],[332.75,387.962963],[292.5,388.463438],[262.75,386.711776]]]}},{"type":"Feature","properties":{"id":"22","sid":"S22","isRoute":null,"feat_type":"Landmark","selected":false,"aligned":true,"otype":"Polygon","mapType":"Sketch","gen_id":"g.67"},"geometry":{"type":"Polygon","coordinates":[[[257,170.250237],[259,269.844729],[337.5,276.851377],[343.5,161.24169],[257,170.250237]]]}},{"type":"Feature","properties":{"id":"32","sid":"S32","isRoute":null,"feat_type":"Landmark","selected":false,"aligned":true,"otype":"Polygon","mapType":"Sketch","gen_id":"g.65"},"geometry":{"type":"Polygon","coordinates":[[[693.5,147.887939],[692,97.339981],[652.5,103.345679],[646.5,68.312441],[646,29.389601],[666,27.637939],[727.75,23.884378],[725.25,46.90622],[726,70.428538],[732.75,102.709164],[731.5,134.739554],[727.25,155.259022],[707,153.50736],[693.5,147.887939]]]}},{"type":"Feature","properties":{"id":"33","sid":"S33","isRoute":null,"feat_type":"Landmark","selected":false,"aligned":true,"otype":"Polygon","mapType":"Sketch","gen_id":"g.73"},"geometry":{"type":"Polygon","coordinates":[[[441,589.024691],[444,544.982906],[668,549.987654],[654,593.516144],[632.75,593.766382],[559,593.01567],[441,589.024691]]]}},{"type":"Feature","properties":{"id":"34","sid":"S34","isRoute":null,"feat_type":"Landmark","selected":false,"aligned":true,"otype":"CircleMarker","mapType":"Sketch","gen_id":"g.53"},"geometry":{"type":"Polygon","coordinates":[[[300,492.933523],[299.995185,492.835506],[299.980785,492.738433],[299.95694,492.643238],[299.92388,492.55084],[299.881921,492.462126],[299.83147,492.377953],[299.77301,492.29913],[299.707107,492.226416],[299.634393,492.160513],[299.55557,492.102053],[299.471397,492.051602],[299.382683,492.009643],[299.290285,491.976583],[299.19509,491.952738],[299.098017,491.938338],[299,491.933523],[298.901983,491.938338],[298.80491,491.952738],[298.709715,491.976583],[298.617317,492.009643],[298.528603,492.051602],[298.44443,492.102053],[298.365607,492.160513],[298.292893,492.226416],[298.22699,492.29913],[298.16853,492.377953],[298.118079,492.462126],[298.07612,492.55084],[298.04306,492.643238],[298.019215,492.738433],[298.004815,492.835506],[298,492.933523],[298.004815,493.03154],[298.019215,493.128613],[298.04306,493.223808],[298.07612,493.316206],[298.118079,493.40492],[298.16853,493.489093],[298.22699,493.567916],[298.292893,493.64063],[298.365607,493.706533],[298.44443,493.764993],[298.528603,493.815444],[298.617317,493.857403],[298.709715,493.890463],[298.80491,493.914308],[298.901983,493.928708],[299,493.933523],[299.098017,493.928708],[299.19509,493.914308],[299.290285,493.890463],[299.382683,493.857403],[299.471397,493.815444],[299.55557,493.764993],[299.634393,493.706533],[299.707107,493.64063],[299.77301,493.567916],[299.83147,493.489093],[299.881921,493.40492],[299.92388,493.316206],[299.95694,493.223808],[299.980785,493.128613],[299.995185,493.03154],[300,492.933523]]]}},{"type":"Feature","properties":{"id":"35","sid":"S35","isRoute":null,"feat_type":"Landmark","selected":false,"aligned":true,"otype":"CircleMarker","mapType":"Sketch","gen_id":"g.55"},"geometry":{"type":"Polygon","coordinates":[[[392,369.816714],[391.995185,369.718697],[391.980785,369.621624],[391.95694,369.526429],[391.92388,369.434031],[391.881921,369.345317],[391.83147,369.261144],[391.77301,369.182321],[391.707107,369.109607],[391.634393,369.043704],[391.55557,368.985244],[391.471397,368.934793],[391.382683,368.892834],[391.290285,368.859774],[391.19509,368.835929],[391.098017,368.821529],[391,368.816714],[390.901983,368.821529],[390.80491,368.835929],[390.709715,368.859774],[390.617317,368.892834],[390.528603,368.934793],[390.44443,368.985244],[390.365607,369.043704],[390.292893,369.109607],[390.22699,369.182321],[390.16853,369.261144],[390.118079,369.345317],[390.07612,369.434031],[390.04306,369.526429],[390.019215,369.621624],[390.004815,369.718697],[390,369.816714],[390.004815,369.914731],[390.019215,370.011804],[390.04306,370.106999],[390.07612,370.199397],[390.118079,370.288111],[390.16853,370.372284],[390.22699,370.451107],[390.292893,370.523821],[390.365607,370.589724],[390.44443,370.648184],[390.528603,370.698635],[390.617317,370.740594],[390.709715,370.773654],[390.80491,370.797499],[390.901983,370.811899],[391,370.816714],[391.098017,370.811899],[391.19509,370.797499],[391.290285,370.773654],[391.382683,370.740594],[391.471397,370.698635],[391.55557,370.648184],[391.634393,370.589724],[391.707107,370.523821],[391.77301,370.451107],[391.83147,370.372284],[391.881921,370.288111],[391.92388,370.199397],[391.95694,370.106999],[391.980785,370.011804],[391.995185,369.914731],[392,369.816714]]]}}]}