{"type":"FeatureCollection","features":[{"type":"Feature","geometry":{"type":"MultiPolygon","coordinates":[[[[249.880242,386.5],[252.879509,346],[289.370598,349],[288.370842,391],[249.880242,386.5]]],[[[196.393304,385],[200.892205,343],[240.882439,349.5],[236.883416,388.5],[196.393304,385]]],[[[146.405512,383.5],[148.405024,338.5],[182.396722,344],[179.397455,387.5],[146.405512,383.5]]]]},"properties":{"mapType":"Sketch","id":"G15","sid":"S16","isRoute":null,"feat_type":"Landmark","selected":false,"aligned":true,"otype":"Polygon","group":true,"groupID":"15","gen_id":"g.49.50.51.52"}},{"type":"Feature","geometry":{"type":"MultiPolygon","coordinates":[[[[477.824574,291.5],[485.322743,242],[510.816517,246],[505.817738,292.5],[477.824574,291.5]]],[[[567.8026,297.5],[568.802356,249.5],[599.794787,249],[594.796008,300],[567.8026,297.5]]],[[[640.284899,300],[642.284411,254],[671.777208,255],[665.278795,301.5],[640.284899,300]]]]},"properties":{"mapType":"Sketch","id":"G17","sid":"S20","isRoute":null,"feat_type":"Landmark","selected":false,"aligned":true,"otype":"Polygon","group":true,"groupID":"17","gen_id":"g.59.60.61.62.63.64"}},{"id":"0","type":"Feature","properties":{"SketchRouteSeqOrder":null,"aligned":true,"feat_type":null,"id":"0","isRoute":null,"otype":"Line","selected":false,"sid":"S0","mapType":"Sketch","gen_id":"g.19.21.25"},"geometry":{"type":"LineString","coordinates":[[427.699445,486],[216.750961,483]]}},{"id":"1","type":"Feature","properties":{"SketchRouteSeqOrder":null,"aligned":true,"feat_type":null,"id":"1","isRoute":null,"otype":"Line","selected":false,"sid":"S1","mapType":"Sketch","gen_id":"g.3.5.7"},"geometry":{"type":"LineString","coordinates":[[427.699445,486],[752.620094,492]]}},{"id":"2","type":"Feature","properties":{"SketchRouteSeqOrder":null,"aligned":true,"feat_type":null,"id":"3","isRoute":null,"otype":"Line","selected":false,"sid":"S3","mapType":"Sketch","gen_id":"g.2"},"geometry":{"type":"LineString","coordinates":[[427.699445,486],[432.698224,407]]}},{"id":"3","type":"Feature","properties":{"SketchRouteSeqOrder":1,"aligned":true,"feat_type":null,"id":"5","isRoute":"Yes","otype":"Line","selected":false,"sid":"S5","mapType":"Sketch","gen_id":"g.0"},"geometry":{"type":"LineString","coordinates":[[79.797595,405],[432.698224,407]]}},{"id":"4","type":"Feature","properties":{"SketchRouteSeqOrder":null,"aligned":true,"feat_type":null,"id":"6","isRoute":null,"otype":"Line","selected":false,"sid":"S6","mapType":"Sketch","gen_id":"g.8"},"geometry":{"type":"LineString","coordinates":[[432.698224,407],[686.794421,412.5]]}},{"id":"5","type":"Feature","properties":{"SketchRouteSeqOrder":2,"aligned":true,"feat_type":null,"id":"7","isRoute":"Yes","otype":"Line","selected":false,"sid":"S7","mapType":"Sketch","gen_id":"g.16"},"geometry":{"type":"LineString","coordinates":[[432.698224,407],[431.856681,310]]}},{"id":"6","type":"Feature","properties":{"SketchRouteSeqOrder":null,"aligned":true,"feat_type":null,"id":"8","isRoute":null,"otype":"Line","selected":false,"sid":"S8","mapType":"Sketch","gen_id":"g.17"},"geometry":{"type":"LineString","coordinates":[[431.856681,310],[220.738998,302]]}},{"id":"7","type":"Feature","properties":{"SketchRouteSeqOrder":null,"aligned":true,"feat_type":null,"id":"9","isRoute":null,"otype":"Line","selected":false,"sid":"S9","mapType":"Sketch","gen_id":"g.38"},"geometry":{"type":"LineString","coordinates":[[431.856681,310],[666.630104,317]]}},{"id":"8","type":"Feature","properties":{"SketchRouteSeqOrder":3,"aligned":true,"feat_type":null,"id":"10","isRoute":"Yes","otype":"Line","selected":false,"sid":"S10","mapType":"Sketch","gen_id":"g.26"},"geometry":{"type":"LineString","coordinates":[[431.856681,310],[434.686748,224]]}},{"id":"9","type":"Feature","properties":{"SketchRouteSeqOrder":null,"aligned":true,"feat_type":null,"id":"11","isRoute":null,"otype":"Line","selected":false,"sid":"S11","mapType":"Sketch","gen_id":"g.27.29"},"geometry":{"type":"LineString","coordinates":[[434.686748,224],[270.72679,217]]}},{"id":"10","type":"Feature","properties":{"SketchRouteSeqOrder":null,"aligned":true,"feat_type":null,"id":"21","isRoute":null,"otype":"Line","selected":false,"sid":"S21","mapType":"Sketch","gen_id":"g.39"},"geometry":{"type":"LineString","coordinates":[[434.686748,224],[730.762803,243]]}},{"id":"11","type":"Feature","properties":{"SketchRouteSeqOrder":4,"aligned":true,"feat_type":null,"id":"22","isRoute":"Yes","otype":"Line","selected":false,"sid":"S22","mapType":"Sketch","gen_id":"g.43"},"geometry":{"type":"LineString","coordinates":[[434.686748,224],[486.322499,207],[518.314686,185],[522.313709,159]]}},{"id":"12","type":"Feature","properties":{"SketchRouteSeqOrder":null,"aligned":true,"feat_type":null,"id":"23","isRoute":null,"otype":"Line","selected":false,"sid":"S23","mapType":"Sketch","gen_id":"g.40.42"},"geometry":{"type":"LineString","coordinates":[[522.313709,159],[603.293933,166],[741.260239,170.5]]}},{"id":"13","type":"Feature","properties":{"SketchRouteSeqOrder":null,"aligned":true,"feat_type":null,"id":"24","isRoute":null,"otype":"Line","selected":false,"sid":"S24","mapType":"Sketch","gen_id":"g.41"},"geometry":{"type":"LineString","coordinates":[[741.260239,170.5],[777.751328,177.5],[839.73619,182.5]]}},{"id":"14","type":"Feature","properties":{"SketchRouteSeqOrder":null,"aligned":true,"feat_type":null,"id":"25","isRoute":null,"otype":"Line","selected":false,"sid":"S25","mapType":"Sketch","gen_id":"g.37"},"geometry":{"type":"LineString","coordinates":[[741.260239,170.5],[739.260728,94.5]]}},{"id":"15","type":"Feature","properties":{"SketchRouteSeqOrder":7,"aligned":true,"feat_type":null,"id":"26","isRoute":"Yes","otype":"Line","selected":false,"sid":"S26","mapType":"Sketch","gen_id":"g.35"},"geometry":{"type":"LineString","coordinates":[[739.260728,94.5],[794.747177,95]]}},{"id":"16","type":"Feature","properties":{"SketchRouteSeqOrder":6,"aligned":true,"feat_type":null,"id":"27","isRoute":"Yes","otype":"Line","selected":false,"sid":"S27","mapType":"Sketch","gen_id":"g.34"},"geometry":{"type":"LineString","coordinates":[[520.814076,87.5],[739.260728,94.5]]}},{"id":"17","type":"Feature","properties":{"SketchRouteSeqOrder":5,"aligned":true,"feat_type":null,"id":"28","isRoute":"Yes","otype":"Line","selected":false,"sid":"S28","mapType":"Sketch","gen_id":"g.44"},"geometry":{"type":"LineString","coordinates":[[522.313709,159],[520.814076,87.5]]}},{"id":"18","type":"Feature","properties":{"SketchRouteSeqOrder":null,"aligned":true,"feat_type":null,"id":"29","isRoute":null,"otype":"Line","selected":false,"sid":"S29","mapType":"Sketch","gen_id":"g.33"},"geometry":{"type":"LineString","coordinates":[[520.814076,87.5],[523.813343,16]]}},{"id":"19","type":"Feature","properties":{"SketchRouteSeqOrder":null,"aligned":true,"feat_type":null,"id":"30","isRoute":null,"otype":"Line","selected":false,"sid":"S30","mapType":"Sketch","gen_id":"g.30.32"},"geometry":{"type":"LineString","coordinates":[[520.814076,87.5],[262.41894,79.5]]}},{"type":"Feature","properties":{"id":"2","sid":"S2","isRoute":null,"feat_type":"Landmark","selected":false,"aligned":true,"otype":"Polygon","mapType":"Sketch","gen_id":"g.73"},"geometry":{"type":"Polygon","coordinates":[[[703.632058,560],[701.632546,522],[760.618141,528],[755.619362,566],[741.62278,579],[722.627419,575],[703.632058,560]]]}},{"type":"Feature","properties":{"id":"4","sid":"S4","isRoute":null,"feat_type":"Landmark","selected":false,"aligned":true,"otype":"Polygon","mapType":"Sketch","gen_id":"g.53"},"geometry":{"type":"Polygon","coordinates":[[[369.937923,465.25],[373.437069,437.5],[406.678951,439.25],[402.429988,467],[369.937923,465.25]]]}},{"type":"Feature","properties":{"id":"12","sid":"S12","isRoute":null,"feat_type":"Landmark","selected":false,"aligned":true,"otype":"Polygon","mapType":"Sketch","gen_id":"g.67"},"geometry":{"type":"Polygon","coordinates":[[[298.868278,290.5],[300.367912,279.5],[352.855094,281.5],[358.853629,255.5],[385.347159,257.5],[381.848013,295.5],[298.868278,290.5]]]}},{"type":"Feature","properties":{"id":"13","sid":"S13","isRoute":null,"feat_type":"Landmark","selected":false,"aligned":true,"otype":"Polygon","mapType":"Sketch","gen_id":"g.48"},"geometry":{"type":"Polygon","coordinates":[[[314.864372,386.5],[318.863395,350],[378.848746,351.5],[379.348624,388.5],[314.864372,386.5]]]}},{"type":"Feature","properties":{"id":"17","sid":"S17","isRoute":null,"feat_type":"Landmark","selected":false,"aligned":true,"otype":"Polygon","mapType":"Sketch","gen_id":"g.55.56"},"geometry":{"type":"Polygon","coordinates":[[[464.827748,393.5],[462.328359,371.5],[479.824086,374],[479.824086,385.5],[573.301257,386.5],[572.801379,397.5],[464.827748,393.5]]]}},{"type":"Feature","properties":{"id":"31","sid":"S31","isRoute":null,"feat_type":"Landmark","selected":false,"aligned":true,"otype":"Polygon","mapType":"Sketch","gen_id":"g.66"},"geometry":{"type":"Polygon","coordinates":[[[600.18359,224.25],[601.683223,179],[638.424251,180.25],[633.425472,229],[600.18359,224.25]]]}},{"type":"Feature","properties":{"id":"32","sid":"S32","isRoute":null,"feat_type":"Landmark","selected":false,"aligned":true,"otype":"Polygon","mapType":"Sketch","gen_id":"g.65"},"geometry":{"type":"Polygon","coordinates":[[[642.673213,137],[644.672725,103],[675.915095,106],[673.665644,139.75],[642.673213,137]]]}}]}