{"type":"FeatureCollection","features":[{"type":"Feature","geometry":{"type":"MultiPolygon","coordinates":[[[[390.911677,252.300001],[400.159418,216.300001],[396.410334,188.050001],[458.145257,190.050001],[446.648065,255.300001],[390.911677,252.300001]]],[[[487.887994,258.050001],[487.138177,201.050001],[573.866996,200.550001],[570.867729,256.050001],[487.887994,258.050001]]],[[[481.889459,168.550001],[481.889459,121.050001],[519.880181,121.800001],[520.629998,169.800001],[481.889459,168.550001]]],[[[665.906305,277.300001],[674.154291,219.550001],[735.639275,217.800001],[720.642938,278.800001],[665.906305,277.300001]]]]},"properties":{"mapType":"Sketch","id":"G26","sid":"S29","isRoute":null,"feat_type":"Landmark","selected":false,"aligned":true,"otype":"Polygon","group":true,"groupID":"26","gen_id":"g.59.60.61.62.63.64"}},{"id":"0","type":"Feature","properties":{"SketchRouteSeqOrder":null,"aligned":true,"feat_type":null,"id":"0","isRoute":null,"otype":"Line","selected":false,"sid":"S0","mapType":"Sketch","gen_id":"g.4"},"geometry":{"type":"LineString","coordinates":[[342.720198,561.200005],[343.719954,525.200005]]}},{"id":"1","type":"Feature","properties":{"SketchRouteSeqOrder":null,"aligned":true,"feat_type":null,"id":"1","isRoute":null,"otype":"Line","selected":false,"sid":"S1","mapType":"Sketch","gen_id":"g.19.21.25"},"geometry":{"type":"LineString","coordinates":[[343.719954,525.200005],[88.782213,519.200005]]}},{"id":"2","type":"Feature","properties":{"SketchRouteSeqOrder":null,"aligned":true,"feat_type":null,"id":"4","isRoute":null,"otype":"Line","selected":false,"sid":"S4","mapType":"Sketch","gen_id":"g.5.7"},"geometry":{"type":"LineString","coordinates":[[343.719954,525.200005],[740.623024,538.200005]]}},{"id":"3","type":"Feature","properties":{"SketchRouteSeqOrder":null,"aligned":true,"feat_type":null,"id":"5","isRoute":null,"otype":"Line","selected":false,"sid":"S5","mapType":"Sketch","gen_id":"g.2"},"geometry":{"type":"LineString","coordinates":[[343.719954,525.200005],[356.71678,397.200005]]}},{"id":"4","type":"Feature","properties":{"SketchRouteSeqOrder":null,"aligned":true,"feat_type":null,"id":"6","isRoute":null,"otype":"Line","selected":false,"sid":"S6","mapType":"Sketch","gen_id":"g.8"},"geometry":{"type":"LineString","coordinates":[[356.71678,397.200005],[751.620338,413.200005]]}},{"id":"5","type":"Feature","properties":{"SketchRouteSeqOrder":null,"aligned":true,"feat_type":null,"id":"7","isRoute":null,"otype":"Line","selected":false,"sid":"S7","mapType":"Sketch","gen_id":"g.9"},"geometry":{"type":"LineString","coordinates":[[751.620338,413.200005],[740.623024,538.200005]]}},{"id":"6","type":"Feature","properties":{"SketchRouteSeqOrder":null,"aligned":false,"feat_type":null,"id":"8","isRoute":null,"otype":"Line","selected":false,"sid":"S8","mapType":"Sketch"},"geometry":{"type":"LineString","coordinates":[[740.623024,538.200005],[796.609351,539.200005]]}},{"id":"7","type":"Feature","properties":{"SketchRouteSeqOrder":null,"aligned":true,"feat_type":null,"id":"9","isRoute":null,"otype":"Line","selected":false,"sid":"S9","mapType":"Sketch","gen_id":"g.11.13"},"geometry":{"type":"LineString","coordinates":[[751.620338,413.200005],[809.606177,413.200005]]}},{"id":"8","type":"Feature","properties":{"SketchRouteSeqOrder":null,"aligned":true,"feat_type":null,"id":"10","isRoute":null,"otype":"Line","selected":false,"sid":"S10","mapType":"Sketch","gen_id":"g.47"},"geometry":{"type":"LineString","coordinates":[[751.620338,413.200005],[754.619606,296.200005]]}},{"id":"9","type":"Feature","properties":{"SketchRouteSeqOrder":null,"aligned":true,"feat_type":null,"id":"11","isRoute":null,"otype":"Line","selected":false,"sid":"S11","mapType":"Sketch","gen_id":"g.46"},"geometry":{"type":"LineString","coordinates":[[754.619606,296.200005],[764.617164,190.200005]]}},{"id":"10","type":"Feature","properties":{"SketchRouteSeqOrder":null,"aligned":true,"feat_type":null,"id":"12","isRoute":null,"otype":"Line","selected":false,"sid":"S12","mapType":"Sketch","gen_id":"g.45"},"geometry":{"type":"LineString","coordinates":[[764.617164,190.200005],[774.413756,11.95]]}},{"id":"11","type":"Feature","properties":{"SketchRouteSeqOrder":null,"aligned":true,"feat_type":null,"id":"13","isRoute":null,"otype":"Line","selected":false,"sid":"S13","mapType":"Sketch","gen_id":"g.38"},"geometry":{"type":"LineString","coordinates":[[754.619606,296.200005],[369.736312,298.200005]]}},{"id":"12","type":"Feature","properties":{"SketchRouteSeqOrder":2,"aligned":true,"feat_type":null,"id":"14","isRoute":"Yes","otype":"Line","selected":false,"sid":"S14","mapType":"Sketch","gen_id":"g.16"},"geometry":{"type":"LineString","coordinates":[[356.71678,397.200005],[369.736312,298.200005]]}},{"id":"13","type":"Feature","properties":{"SketchRouteSeqOrder":4,"aligned":true,"feat_type":null,"id":"16","isRoute":"Yes","otype":"Line","selected":false,"sid":"S16","mapType":"Sketch","gen_id":"g.43"},"geometry":{"type":"LineString","coordinates":[[369.736312,298.200005],[368.736556,127.200005],[386.732161,82.200005],[415.725081,68.200005],[528.697491,70.200005]]}},{"id":"14","type":"Feature","properties":{"SketchRouteSeqOrder":5,"aligned":true,"feat_type":null,"id":"17","isRoute":"Yes","otype":"Line","selected":false,"sid":"S17","mapType":"Sketch","gen_id":"g.34.44"},"geometry":{"type":"LineString","coordinates":[[528.697491,70.200005],[611.677226,57.200005],[639.67039,20.200005]]}},{"id":"15","type":"Feature","properties":{"SketchRouteSeqOrder":null,"aligned":true,"feat_type":null,"id":"18","isRoute":null,"otype":"Line","selected":false,"sid":"S18","mapType":"Sketch","gen_id":"g.40.41.42"},"geometry":{"type":"LineString","coordinates":[[528.697491,70.200005],[525.698224,120.200005],[528.697491,155.200005],[556.690655,187.200005],[606.678447,200.200005],[764.617164,190.200005]]}},{"id":"16","type":"Feature","properties":{"SketchRouteSeqOrder":1,"aligned":true,"feat_type":null,"id":"19","isRoute":"Yes","otype":"Line","selected":false,"sid":"S19","mapType":"Sketch","gen_id":"g.0"},"geometry":{"type":"LineString","coordinates":[[70.809315,398.200005],[356.71678,397.200005]]}},{"id":"17","type":"Feature","properties":{"SketchRouteSeqOrder":null,"aligned":true,"feat_type":null,"id":"20","isRoute":null,"otype":"Line","selected":false,"sid":"S20","mapType":"Sketch","gen_id":"g.17"},"geometry":{"type":"LineString","coordinates":[[369.736312,298.200005],[114.798572,288.200005]]}},{"type":"Feature","properties":{"id":"21","sid":"S21","isRoute":null,"feat_type":"Landmark","selected":false,"aligned":true,"otype":"Polygon","mapType":"Sketch","gen_id":"g.72"},"geometry":{"type":"Polygon","coordinates":[[[238.726225,582.525001],[238.101378,549.900001],[322.580747,550.525001],[321.83093,583.900001],[238.726225,582.525001]]]}},{"type":"Feature","properties":{"id":"22","sid":"S22","isRoute":null,"feat_type":"Landmark","selected":false,"aligned":true,"otype":"Polygon","mapType":"Sketch","gen_id":"g.73"},"geometry":{"type":"Polygon","coordinates":[[[439.846426,587.100002],[440.346304,546.600002],[668.790515,550.600002],[653.198636,593.900001],[439.846426,587.100002]]]}},{"type":"Feature","properties":{"id":"23","sid":"S23","isRoute":null,"feat_type":"Landmark","selected":false,"aligned":true,"otype":"Polygon","mapType":"Sketch","gen_id":"g.50.51.52"},"geometry":{"type":"Polygon","coordinates":[[[211.871208,384.100002],[212.371086,313.600002],[180.878777,307.100002],[70.905634,305.600002],[63.407465,321.600002],[65.906855,382.100002],[211.871208,384.100002]]]}},{"type":"Feature","properties":{"id":"24","sid":"S24","isRoute":null,"feat_type":"Landmark","selected":false,"aligned":true,"otype":"Polygon","mapType":"Sketch","gen_id":"g.48"},"geometry":{"type":"Polygon","coordinates":[[[262.339842,388.650001],[266.588804,347.775001],[342.320309,349.400001],[333.072568,390.525001],[262.339842,388.650001]]]}},{"type":"Feature","properties":{"id":"25","sid":"S25","isRoute":null,"feat_type":"Landmark","selected":false,"aligned":true,"otype":"Polygon","mapType":"Sketch","gen_id":"g.67"},"geometry":{"type":"Polygon","coordinates":[[[257.424312,269.300001],[253.175349,172.550001],[348.402094,161.050001],[339.154352,183.550001],[340.903925,275.800001],[257.424312,269.300001]]]}},{"type":"Feature","properties":{"id":"30","sid":"S30","isRoute":null,"feat_type":"Landmark","selected":false,"aligned":true,"otype":"Polygon","mapType":"Sketch","gen_id":"g.65"},"geometry":{"type":"Polygon","coordinates":[[[732.146173,152.050001],[728.397088,21.800001],[643.667781,26.300001],[650.166194,100.300001],[695.655085,100.300001],[693.655573,153.300001],[732.146173,152.050001]]]}},{"type":"Feature","properties":{"id":"31","sid":"S31","isRoute":null,"feat_type":"Landmark","selected":false,"aligned":true,"otype":"CircleMarker","mapType":"Sketch","gen_id":"g.53"},"geometry":{"type":"Polygon","coordinates":[[[303,489.930674],[302.995185,489.832657],[302.980785,489.735584],[302.95694,489.640389],[302.92388,489.547991],[302.881921,489.459277],[302.83147,489.375104],[302.77301,489.296281],[302.707107,489.223567],[302.634393,489.157664],[302.55557,489.099204],[302.471397,489.048753],[302.382683,489.006794],[302.290285,488.973734],[302.19509,488.949889],[302.098017,488.935489],[302,488.930674],[301.901983,488.935489],[301.80491,488.949889],[301.709715,488.973734],[301.617317,489.006794],[301.528603,489.048753],[301.44443,489.099204],[301.365607,489.157664],[301.292893,489.223567],[301.22699,489.296281],[301.16853,489.375104],[301.118079,489.459277],[301.07612,489.547991],[301.04306,489.640389],[301.019215,489.735584],[301.004815,489.832657],[301,489.930674],[301.004815,490.028691],[301.019215,490.125764],[301.04306,490.220959],[301.07612,490.313357],[301.118079,490.402071],[301.16853,490.486244],[301.22699,490.565067],[301.292893,490.637781],[301.365607,490.703684],[301.44443,490.762144],[301.528603,490.812595],[301.617317,490.854554],[301.709715,490.887614],[301.80491,490.911459],[301.901983,490.925859],[302,490.930674],[302.098017,490.925859],[302.19509,490.911459],[302.290285,490.887614],[302.382683,490.854554],[302.471397,490.812595],[302.55557,490.762144],[302.634393,490.703684],[302.707107,490.637781],[302.77301,490.565067],[302.83147,490.486244],[302.881921,490.402071],[302.92388,490.313357],[302.95694,490.220959],[302.980785,490.125764],[302.995185,490.028691],[303,489.930674]]]}},{"type":"Feature","properties":{"id":"32","sid":"S32","isRoute":null,"feat_type":"Landmark","selected":false,"aligned":true,"otype":"CircleMarker","mapType":"Sketch","gen_id":"g.55"},"geometry":{"type":"Polygon","coordinates":[[[393.5,374.856125],[393.495185,374.758108],[393.480785,374.661035],[393.45694,374.56584],[393.42388,374.473442],[393.381921,374.384728],[393.33147,374.300555],[393.27301,374.221732],[393.207107,374.149018],[393.134393,374.083115],[393.05557,374.024655],[392.971397,373.974204],[392.882683,373.932245],[392.790285,373.899185],[392.69509,373.87534],[392.598017,373.86094],[392.5,373.856125],[392.401983,373.86094],[392.30491,373.87534],[392.209715,373.899185],[392.117317,373.932245],[392.028603,373.974204],[391.94443,374.024655],[391.865607,374.083115],[391.792893,374.149018],[391.72699,374.221732],[391.66853,374.300555],[391.618079,374.384728],[391.57612,374.473442],[391.54306,374.56584],[391.519215,374.661035],[391.504815,374.758108],[391.5,374.856125],[391.504815,374.954142],[391.519215,375.051215],[391.54306,375.14641],[391.57612,375.238808],[391.618079,375.327522],[391.66853,375.411695],[391.72699,375.490518],[391.792893,375.563232],[391.865607,375.629135],[391.94443,375.687595],[392.028603,375.738046],[392.117317,375.780005],[392.209715,375.813065],[392.30491,375.83691],[392.401983,375.85131],[392.5,375.856125],[392.598017,375.85131],[392.69509,375.83691],[392.790285,375.813065],[392.882683,375.780005],[392.971397,375.738046],[393.05557,375.687595],[393.134393,375.629135],[393.207107,375.563232],[393.27301,375.490518],[393.33147,375.411695],[393.381921,375.327522],[393.42388,375.238808],[393.45694,375.14641],[393.480785,375.051215],[393.495185,374.954142],[393.5,374.856125]]]}}]}