{"type":"FeatureCollection","features":[{"id":"0","type":"Feature","properties":{"SketchRouteSeqOrder":null,"aligned":true,"feat_type":null,"group":null,"id":"1","isRoute":null,"otype":"Line","selected":false,"sid":"S1","mapType":"Sketch","gen_id":"g.1"},"geometry":{"type":"LineString","coordinates":[[121,553.517066],[135,429.427015]]}},{"id":"1","type":"Feature","properties":{"SketchRouteSeqOrder":1,"aligned":true,"feat_type":null,"group":null,"id":"2","isRoute":"Yes","otype":"Line","selected":false,"sid":"S2","mapType":"Sketch","gen_id":"g.0"},"geometry":{"type":"LineString","coordinates":[[52.5,430.928105],[135,429.427015]]}},{"id":"2","type":"Feature","properties":{"SketchRouteSeqOrder":2,"aligned":true,"feat_type":null,"group":null,"id":"4","isRoute":"Yes","otype":"Line","selected":false,"sid":"S4","mapType":"Sketch","gen_id":"g.2"},"geometry":{"type":"LineString","coordinates":[[135,429.427015],[179.5,431.928831]]}},{"id":"3","type":"Feature","properties":{"SketchRouteSeqOrder":null,"aligned":true,"feat_type":null,"group":null,"id":"10","isRoute":null,"otype":"Line","selected":false,"sid":"S10","mapType":"Sketch","gen_id":"g.123"},"geometry":{"type":"LineString","coordinates":[[179.5,431.928831],[183.5,362.878722],[263.5,246.294118]]}},{"id":"4","type":"Feature","properties":{"SketchRouteSeqOrder":null,"aligned":true,"feat_type":null,"group":null,"id":"11","isRoute":null,"otype":"Line","selected":false,"sid":"S11","mapType":"Sketch","gen_id":"g.15.17"},"geometry":{"type":"LineString","coordinates":[[135,429.427015],[156,57.465505]]}},{"id":"5","type":"Feature","properties":{"SketchRouteSeqOrder":null,"aligned":true,"feat_type":null,"group":null,"id":"12","isRoute":null,"otype":"Line","selected":false,"sid":"S12","mapType":"Sketch","gen_id":"g.13.14.31"},"geometry":{"type":"LineString","coordinates":[[263.5,246.294118],[384,53.4626]]}},{"id":"6","type":"Feature","properties":{"SketchRouteSeqOrder":null,"aligned":true,"feat_type":null,"group":null,"id":"13","isRoute":null,"otype":"Line","selected":false,"sid":"S13","mapType":"Sketch","gen_id":"g.7.8.38.39.49.139"},"geometry":{"type":"LineString","coordinates":[[263.5,246.294118],[684,264.615832]]}},{"id":"7","type":"Feature","properties":{"SketchRouteSeqOrder":8,"aligned":true,"feat_type":null,"group":null,"id":"14","isRoute":"Yes","otype":"Line","selected":false,"sid":"S14","mapType":"Sketch","gen_id":"g.54"},"geometry":{"type":"LineString","coordinates":[[684,264.615832],[695,132.519971]]}},{"id":"8","type":"Feature","properties":{"SketchRouteSeqOrder":7,"aligned":true,"feat_type":null,"group":null,"id":"15","isRoute":"Yes","otype":"Line","selected":false,"sid":"S15","mapType":"Sketch","gen_id":"g.53"},"geometry":{"type":"LineString","coordinates":[[679,452.75236],[684,264.615832]]}},{"id":"9","type":"Feature","properties":{"SketchRouteSeqOrder":6,"aligned":true,"feat_type":null,"group":null,"id":"16","isRoute":"Yes","otype":"Line","selected":false,"sid":"S16","mapType":"Sketch","gen_id":"g.10.11.50.51"},"geometry":{"type":"LineString","coordinates":[[179.5,431.928831],[282,440.743646],[460,446.748003],[679,452.75236]]}},{"id":"10","type":"Feature","properties":{"SketchRouteSeqOrder":null,"aligned":true,"feat_type":null,"group":null,"id":"18","isRoute":null,"otype":"Line","selected":false,"sid":"S18","mapType":"Sketch","gen_id":"g.52"},"geometry":{"type":"LineString","coordinates":[[679,452.75236],[676,556.827887]]}},{"type":"Feature","properties":{"id":"0","sid":"S0","isRoute":null,"feat_type":"Landmark","selected":false,"aligned":true,"otype":"Polygon","mapType":"Sketch","gen_id":"g.60.62.64"},"geometry":{"type":"Polygon","coordinates":[[[140,519.992738],[142,459.949165],[171.5,460.949891],[170.5,520.493101],[140,519.992738]]]}},{"type":"Feature","properties":{"id":"3","sid":"S3","isRoute":null,"feat_type":"Landmark","selected":false,"aligned":true,"otype":"Polygon","mapType":"Sketch","gen_id":"g.68"},"geometry":{"type":"Polygon","coordinates":[[[143.5,391.399419],[145.5,369.383442],[167.5,371.885258],[164,393.901235],[143.5,391.399419]]]}},{"type":"Feature","properties":{"id":"5","sid":"S5","isRoute":null,"feat_type":"Landmark","selected":false,"aligned":true,"otype":"Polygon","mapType":"Sketch","gen_id":"g.76"},"geometry":{"type":"Polygon","coordinates":[[[193.5,424.923747],[189.5,402.907771],[205.5,400.906318],[203.5,424.923747],[193.5,424.923747]]]}},{"type":"Feature","properties":{"id":"6","sid":"S6","isRoute":null,"feat_type":"Landmark","selected":false,"aligned":true,"otype":"Polygon","mapType":"Sketch","gen_id":"g.78"},"geometry":{"type":"Polygon","coordinates":[[[189.5,402.907771],[205.5,400.906318],[203.5,379.390704],[192.5,378.890341],[189.5,402.907771]]]}},{"type":"Feature","properties":{"id":"7","sid":"S7","isRoute":null,"feat_type":"Landmark","selected":false,"aligned":true,"otype":"Polygon","mapType":"Sketch","gen_id":"g.84.86"},"geometry":{"type":"Polygon","coordinates":[[[346,453.444444],[415.5,455.445897],[416,572.030501],[366,571.029775],[343.5,553.517066],[346,453.444444]]]}},{"type":"Feature","properties":{"id":"8","sid":"S8","isRoute":null,"feat_type":"Landmark","selected":false,"aligned":true,"otype":"Polygon","SketchRouteSeqOrder":null,"group":null,"mapType":"Sketch","gen_id":"g.116"},"geometry":{"type":"Polygon","coordinates":[[[416.5,375.3878],[419,348.368192],[470,352.371097],[469,381.89252],[416.5,375.3878]]]}},{"type":"Feature","properties":{"id":"9","sid":"S9","isRoute":null,"feat_type":"Landmark","selected":false,"aligned":true,"otype":"Polygon","mapType":"Sketch","gen_id":"g.114"},"geometry":{"type":"Polygon","coordinates":[[[354,313.843137],[419.5,313.342774],[414,279.818446],[352,276.816267],[354,313.843137]]]}},{"type":"Feature","properties":{"id":"17","sid":"S17","isRoute":null,"feat_type":"Landmark","selected":false,"aligned":true,"otype":"Polygon","mapType":"Sketch","gen_id":"g.118"},"geometry":{"type":"Polygon","coordinates":[[[375,230.59114],[376.5,199.242919],[421.5,203.746187],[424.5,227.763617],[421,239.271968],[385.5,238.771605],[375,230.59114]]]}}]}