{"type":"FeatureCollection","features":[{"id":"0","type":"Feature","properties":{"SketchRouteSeqOrder":null,"aligned":true,"feat_type":null,"id":"3","isRoute":null,"otype":"Line","selected":false,"sid":"S3","mapType":"Sketch","gen_id":"g.18"},"geometry":{"type":"LineString","coordinates":[[185,53.516619],[81,47.510921]]}},{"id":"1","type":"Feature","properties":{"SketchRouteSeqOrder":null,"aligned":true,"feat_type":null,"id":"4","isRoute":null,"otype":"Line","selected":false,"sid":"S4","mapType":"Sketch","gen_id":"g.19"},"geometry":{"type":"LineString","coordinates":[[185,53.516619],[186,0]]}},{"id":"2","type":"Feature","properties":{"SketchRouteSeqOrder":null,"aligned":true,"feat_type":null,"id":"5","isRoute":null,"otype":"Line","selected":false,"sid":"S5","mapType":"Sketch","gen_id":"g.20.22"},"geometry":{"type":"LineString","coordinates":[[185,53.516619],[330,63.526116],[597,90.551757]]}},{"id":"3","type":"Feature","properties":{"SketchRouteSeqOrder":1,"aligned":true,"feat_type":null,"id":"6","isRoute":"Yes","otype":"Line","selected":false,"sid":"S6","mapType":"Sketch","gen_id":"g.0"},"geometry":{"type":"LineString","coordinates":[[50,412.873219],[152.5,424.384141]]}},{"id":"4","type":"Feature","properties":{"SketchRouteSeqOrder":null,"aligned":true,"feat_type":null,"id":"7","isRoute":null,"otype":"Line","selected":false,"sid":"S7","mapType":"Sketch","gen_id":"g.1"},"geometry":{"type":"LineString","coordinates":[[152.5,424.384141],[142,541.831909]]}},{"id":"5","type":"Feature","properties":{"SketchRouteSeqOrder":null,"aligned":true,"feat_type":null,"id":"8","isRoute":null,"otype":"Line","selected":false,"sid":"S8","mapType":"Sketch","gen_id":"g.15.17"},"geometry":{"type":"LineString","coordinates":[[152.5,424.384141],[172,192.500475],[182,108.206078],[185,53.516619]]}},{"id":"6","type":"Feature","properties":{"SketchRouteSeqOrder":2,"aligned":true,"feat_type":null,"id":"9","isRoute":"Yes","otype":"Line","selected":false,"sid":"S9","mapType":"Sketch","gen_id":"g.2"},"geometry":{"type":"LineString","coordinates":[[152.5,424.384141],[176,425.348528]]}},{"id":"7","type":"Feature","properties":{"SketchRouteSeqOrder":null,"aligned":true,"feat_type":null,"id":"10","isRoute":null,"otype":"Line","selected":false,"sid":"S10","mapType":"Sketch","gen_id":"g.13.14.31.32.123.126"},"geometry":{"type":"LineString","coordinates":[[176,425.348528],[202,308.737892],[229.5,194.129155],[248.5,127.566002],[271.638474,59.497361],[278.5,0]]}},{"id":"8","type":"Feature","properties":{"SketchRouteSeqOrder":4,"aligned":true,"feat_type":null,"id":"11","isRoute":"Yes","otype":"Line","selected":false,"sid":"S11","mapType":"Sketch","gen_id":"g.10.11"},"geometry":{"type":"LineString","coordinates":[[176,425.348528],[341,444.431149],[513,452.438746],[554,451.437797]]}},{"id":"9","type":"Feature","properties":{"SketchRouteSeqOrder":null,"aligned":true,"feat_type":null,"id":"12","isRoute":null,"otype":"Line","selected":false,"sid":"S12","mapType":"Sketch","gen_id":"g.12.23.35.41.42.139"},"geometry":{"type":"LineString","coordinates":[[554,451.437797],[561,314.307692],[578,174.174739],[597,90.551757]]}},{"id":"10","type":"Feature","properties":{"SketchRouteSeqOrder":null,"aligned":true,"feat_type":null,"id":"13","isRoute":null,"otype":"Line","selected":false,"sid":"S13","mapType":"Sketch"},"geometry":{"type":"LineString","coordinates":[[597,90.551757],[609,0]]}},{"id":"11","type":"Feature","properties":{"SketchRouteSeqOrder":null,"aligned":true,"feat_type":null,"id":"14","isRoute":null,"otype":"Line","selected":false,"sid":"S14","mapType":"Sketch","gen_id":"g.24.26.27"},"geometry":{"type":"LineString","coordinates":[[597,90.551757],[785,99.105413]]}},{"id":"12","type":"Feature","properties":{"SketchRouteSeqOrder":null,"aligned":true,"feat_type":null,"id":"15","isRoute":null,"otype":"Line","selected":false,"sid":"S15","mapType":"Sketch","gen_id":"g.56"},"geometry":{"type":"LineString","coordinates":[[785,99.105413],[850,102.108262]]}},{"id":"13","type":"Feature","properties":{"SketchRouteSeqOrder":6,"aligned":true,"feat_type":null,"id":"16","isRoute":"Yes","otype":"Line","selected":false,"sid":"S16","mapType":"Sketch","gen_id":"g.50.51"},"geometry":{"type":"LineString","coordinates":[[554,451.437797],[651,453.441595],[797,459.447293]]}},{"id":"14","type":"Feature","properties":{"SketchRouteSeqOrder":null,"aligned":true,"feat_type":null,"id":"17","isRoute":null,"otype":"Line","selected":false,"sid":"S17","mapType":"Sketch","gen_id":"g.52"},"geometry":{"type":"LineString","coordinates":[[797,459.447293],[792,548.531814]]}},{"id":"15","type":"Feature","properties":{"SketchRouteSeqOrder":null,"aligned":false,"feat_type":null,"id":"18","isRoute":null,"otype":"Line","selected":false,"sid":"S18","mapType":"Sketch"},"geometry":{"type":"LineString","coordinates":[[797,459.447293],[850,462.450142]]}},{"id":"16","type":"Feature","properties":{"SketchRouteSeqOrder":8,"aligned":true,"feat_type":null,"id":"22","isRoute":"Yes","otype":"Line","selected":false,"sid":"S22","mapType":"Sketch","gen_id":"g.53.54"},"geometry":{"type":"LineString","coordinates":[[797,459.447293],[789.5,429.219848],[786.5,327.623457],[780.5,191.994777],[785,99.105413]]}},{"id":"17","type":"Feature","properties":{"SketchRouteSeqOrder":9,"aligned":true,"feat_type":null,"id":"23","isRoute":"Yes","otype":"Line","selected":false,"sid":"S23","mapType":"Sketch","gen_id":"g.55"},"geometry":{"type":"LineString","coordinates":[[785,99.105413],[794,18.830484]]}},{"type":"Feature","properties":{"id":"20","sid":"S20","isRoute":null,"feat_type":"Landmark","selected":false,"aligned":true,"otype":"Polygon","mapType":"Sketch","gen_id":"g.106.108"},"geometry":{"type":"Polygon","coordinates":[[[644,346.339981],[654,254.252612],[710,270.267806],[705,356.349478],[644,346.339981]]]}},{"type":"Feature","properties":{"id":"21","sid":"S21","isRoute":null,"feat_type":"Landmark","selected":false,"aligned":true,"otype":"Polygon","mapType":"Sketch","gen_id":"g.98"},"geometry":{"type":"Polygon","coordinates":[[[767.5,430.718898],[768.5,402.191833],[734.5,399.689459],[730.5,427.215575],[767.5,430.718898]]]}},{"type":"Feature","properties":{"id":"24","sid":"S24","isRoute":null,"feat_type":"Landmark","selected":false,"aligned":true,"otype":"Polygon","mapType":"Sketch","gen_id":"g.58"},"geometry":{"type":"Polygon","coordinates":[[[72,503.186135],[74,474.158594],[77.5,443.129155],[83,434.120608],[135,446.632479],[123.5,515.197531],[95.5,513.195632],[77,509.345204],[72,503.186135]]]}},{"type":"Feature","properties":{"id":"25","sid":"S25","isRoute":null,"feat_type":"Landmark","selected":false,"aligned":true,"otype":"Polygon","mapType":"Sketch","gen_id":"g.60.62.64"},"geometry":{"type":"Polygon","coordinates":[[[168.5,500.958689],[177.5,444.405033],[221,448.909307],[221.5,487.445869],[217.5,508.966287],[195,506.463913],[168.5,500.958689]]]}},{"type":"Feature","properties":{"id":"26","sid":"S26","isRoute":null,"feat_type":"Landmark","selected":false,"aligned":true,"otype":"Polygon","mapType":"Sketch","gen_id":"g.76"},"geometry":{"type":"Polygon","coordinates":[[[217,391.924027],[200.5,390.422602],[200,408.940171],[206.25,412.94397],[211,414.195157],[213.75,406.437797],[217,391.924027]]]}},{"type":"Feature","properties":{"id":"27","sid":"S27","isRoute":null,"feat_type":"Landmark","selected":false,"aligned":true,"otype":"Polygon","mapType":"Sketch","gen_id":"g.78"},"geometry":{"type":"Polygon","coordinates":[[[217,391.924027],[200.5,390.422602],[200.25,374.407407],[206.5,370.653846],[217,375.15812],[217,391.924027]]]}},{"type":"Feature","properties":{"id":"30","sid":"S30","isRoute":null,"feat_type":"Landmark","selected":false,"aligned":true,"otype":"Polygon","mapType":"Sketch","gen_id":"g.114"},"geometry":{"type":"Polygon","coordinates":[[[371,341.264482],[365,373.294872],[399,382.303419],[418.5,383.304368],[420.5,346.269231],[371,341.264482]]]}},{"type":"Feature","properties":{"id":"31","sid":"S31","isRoute":null,"feat_type":"Landmark","selected":false,"aligned":true,"otype":"Polygon","mapType":"Sketch","gen_id":"g.118"},"geometry":{"type":"Polygon","coordinates":[[[355.5,254.181861],[356,210.640551],[356,193.624406],[413,200.130579],[413,240.168566],[411,256.684236],[393,258.18566],[355.5,254.181861]]]}},{"type":"Feature","properties":{"id":"32","sid":"S32","isRoute":null,"feat_type":"Landmark","selected":false,"aligned":true,"otype":"Polygon","mapType":"Sketch","gen_id":"g.120"},"geometry":{"type":"Polygon","coordinates":[[[513,318.24264],[501,323.247388],[481,326.250237],[454,327.251187],[427,327.251187],[420.5,315.239791],[418,297.723172],[425,284.210351],[427.5,269.196106],[429,239.167616],[430.5,226.655745],[455.5,221.650997],[482.5,217.647198],[505.5,230.659544],[502.5,257.685185],[517,279.706078],[522,303.228395],[513,318.24264]]]}},{"type":"Feature","properties":{"id":"33","sid":"S33","isRoute":null,"feat_type":"Landmark","selected":false,"aligned":true,"otype":"Polygon","mapType":"Sketch","gen_id":"g.90"},"geometry":{"type":"Polygon","coordinates":[[[627,493.119421],[630,468.345916],[666.75,472.349715],[665.75,496.372507],[627,493.119421]]]}},{"type":"Feature","properties":{"id":"34","sid":"S34","isRoute":null,"feat_type":"Landmark","selected":false,"aligned":true,"otype":"CircleMarker","mapType":"Sketch","gen_id":"g.68"},"geometry":{"type":"Polygon","coordinates":[[[175.25,375.973172],[175.245185,375.875155],[175.230785,375.778082],[175.20694,375.682887],[175.17388,375.590489],[175.131921,375.501775],[175.08147,375.417602],[175.02301,375.338779],[174.957107,375.266065],[174.884393,375.200162],[174.80557,375.141702],[174.721397,375.091251],[174.632683,375.049292],[174.540285,375.016232],[174.44509,374.992387],[174.348017,374.977987],[174.25,374.973172],[174.151983,374.977987],[174.05491,374.992387],[173.959715,375.016232],[173.867317,375.049292],[173.778603,375.091251],[173.69443,375.141702],[173.615607,375.200162],[173.542893,375.266065],[173.47699,375.338779],[173.41853,375.417602],[173.368079,375.501775],[173.32612,375.590489],[173.29306,375.682887],[173.269215,375.778082],[173.254815,375.875155],[173.25,375.973172],[173.254815,376.071189],[173.269215,376.168262],[173.29306,376.263457],[173.32612,376.355855],[173.368079,376.444569],[173.41853,376.528742],[173.47699,376.607565],[173.542893,376.680279],[173.615607,376.746182],[173.69443,376.804642],[173.778603,376.855093],[173.867317,376.897052],[173.959715,376.930112],[174.05491,376.953957],[174.151983,376.968357],[174.25,376.973172],[174.348017,376.968357],[174.44509,376.953957],[174.540285,376.930112],[174.632683,376.897052],[174.721397,376.855093],[174.80557,376.804642],[174.884393,376.746182],[174.957107,376.680279],[175.02301,376.607565],[175.08147,376.528742],[175.131921,376.444569],[175.17388,376.355855],[175.20694,376.263457],[175.230785,376.168262],[175.245185,376.071189],[175.25,375.973172]]]}}]}