{"type":"FeatureCollection","features":[{"type":"Feature","geometry":{"type":"LineString","coordinates":[[141.901605,430],[141.90893,359],[182.89892,290],[207.892816,211],[238.885247,133],[252.23648,4.5]]},"properties":{"mapType":"Sketch","genType3":"Multi-MultiOmissionMerge","SketchRouteSeqOrder":null,"aligned":true,"feat_type":null,"id":"G15","isRoute":null,"otype":"Line","selected":false,"sid":"S22","group":true,"groupID":"15","gen_id":"g.13.14.31.32.123.126"}},{"type":"Feature","geometry":{"type":"MultiLineString","coordinates":[[[182.89892,290],[222.709943,301]],[[238.885247,133],[271.69798,140]],[[207.892816,211],[242.70506,226]]]},"properties":{"mapType":"Sketch","genType3":"Others","SketchRouteSeqOrder":null,"aligned":true,"feat_type":null,"id":"G16","isRoute":null,"otype":"Line","selected":false,"sid":"S25","group":true,"groupID":"16","gen_id":"g.7.29.33.129"}},{"type":"Feature","geometry":{"type":"LineString","coordinates":[[505.812733,435],[516.561741,103]]},"properties":{"mapType":"Sketch","genType3":"Multi-MultiOmissionMerge","SketchRouteSeqOrder":null,"aligned":true,"feat_type":null,"id":"G33","isRoute":null,"otype":"Line","selected":false,"sid":"S13","group":true,"groupID":"33","gen_id":"g.12.35.41.42.139"}},{"id":"0","type":"Feature","properties":{"SketchRouteSeqOrder":1,"aligned":true,"feat_type":null,"group":null,"groupID":null,"id":"0","isRoute":"Yes","otype":"Line","selected":false,"sid":"S0","mapType":"Sketch","gen_id":"g.0"},"geometry":{"type":"LineString","coordinates":[[3.096953,417],[79.784411,424]]}},{"id":"1","type":"Feature","properties":{"SketchRouteSeqOrder":null,"aligned":true,"feat_type":null,"group":null,"groupID":null,"id":"1","isRoute":null,"otype":"Line","selected":false,"sid":"S1","mapType":"Sketch","gen_id":"g.1"},"geometry":{"type":"LineString","coordinates":[[79.784411,424],[75.434322,528]]}},{"id":"2","type":"Feature","properties":{"SketchRouteSeqOrder":null,"aligned":true,"feat_type":null,"group":null,"groupID":null,"id":"2","isRoute":null,"otype":"Line","selected":false,"sid":"S2","mapType":"Sketch","gen_id":"g.15.17"},"geometry":{"type":"LineString","coordinates":[[79.784411,424],[86.707258,52]]}},{"id":"3","type":"Feature","properties":{"SketchRouteSeqOrder":null,"aligned":true,"feat_type":null,"group":null,"groupID":null,"id":"3","isRoute":null,"otype":"Line","selected":false,"sid":"S3","mapType":"Sketch","gen_id":"g.19"},"geometry":{"type":"LineString","coordinates":[[86.707258,52],[86.929378,5.5]]}},{"id":"4","type":"Feature","properties":{"SketchRouteSeqOrder":null,"aligned":true,"feat_type":null,"group":null,"groupID":null,"id":"4","isRoute":null,"otype":"Line","selected":false,"sid":"S4","mapType":"Sketch","gen_id":"g.20.22"},"geometry":{"type":"LineString","coordinates":[[86.707258,52],[268.622291,74],[516.561741,103]]}},{"id":"5","type":"Feature","properties":{"SketchRouteSeqOrder":null,"aligned":true,"feat_type":null,"group":null,"groupID":null,"id":"5","isRoute":null,"otype":"Line","selected":false,"sid":"S5","mapType":"Sketch","gen_id":"g.24.26.27"},"geometry":{"type":"LineString","coordinates":[[516.561741,103],[765.500946,124]]}},{"id":"6","type":"Feature","properties":{"SketchRouteSeqOrder":null,"aligned":true,"feat_type":null,"group":null,"groupID":null,"id":"6","isRoute":null,"otype":"Line","selected":false,"sid":"S6","mapType":"Sketch","gen_id":"g.56"},"geometry":{"type":"LineString","coordinates":[[765.500946,124],[846.188747,134.5]]}},{"id":"7","type":"Feature","properties":{"SketchRouteSeqOrder":9,"aligned":true,"feat_type":null,"group":null,"groupID":null,"id":"7","isRoute":"Yes","otype":"Line","selected":false,"sid":"S7","mapType":"Sketch","gen_id":"g.55"},"geometry":{"type":"LineString","coordinates":[[765.500946,124],[772.44067,46.25]]}},{"id":"8","type":"Feature","properties":{"SketchRouteSeqOrder":8,"aligned":true,"feat_type":null,"group":null,"groupID":null,"id":"8","isRoute":"Yes","otype":"Line","selected":false,"sid":"S8","mapType":"Sketch","gen_id":"g.53.54"},"geometry":{"type":"LineString","coordinates":[[752.752426,444],[765.500946,124]]}},{"id":"9","type":"Feature","properties":{"SketchRouteSeqOrder":null,"aligned":true,"feat_type":null,"group":null,"groupID":null,"id":"9","isRoute":null,"otype":"Line","selected":false,"sid":"S9","mapType":"Sketch","gen_id":"g.52"},"geometry":{"type":"LineString","coordinates":[[752.752426,444],[748.753403,556]]}},{"id":"10","type":"Feature","properties":{"SketchRouteSeqOrder":6,"aligned":true,"feat_type":null,"group":null,"groupID":null,"id":"10","isRoute":"Yes","otype":"Line","selected":false,"sid":"S10","mapType":"Sketch","gen_id":"g.50.51"},"geometry":{"type":"LineString","coordinates":[[505.812733,435],[752.752426,444]]}},{"id":"11","type":"Feature","properties":{"SketchRouteSeqOrder":4,"aligned":true,"feat_type":null,"group":null,"groupID":null,"id":"11","isRoute":"Yes","otype":"Line","selected":false,"sid":"S11","mapType":"Sketch","gen_id":"g.10.11"},"geometry":{"type":"LineString","coordinates":[[141.901605,430],[505.812733,435]]}},{"id":"12","type":"Feature","properties":{"SketchRouteSeqOrder":2,"aligned":true,"feat_type":null,"group":null,"groupID":null,"id":"12","isRoute":"Yes","otype":"Line","selected":false,"sid":"S12","mapType":"Sketch","gen_id":"g.2"},"geometry":{"type":"LineString","coordinates":[[79.784411,424],[141.901605,430]]}},{"id":"14","type":"Feature","properties":{"SketchRouteSeqOrder":null,"aligned":true,"feat_type":null,"group":null,"groupID":null,"id":"14","isRoute":null,"otype":"Line","selected":false,"sid":"S14","mapType":"Sketch","gen_id":"g.23"},"geometry":{"type":"LineString","coordinates":[[516.561741,103],[517.406,58]]}},{"type":"Feature","properties":{"id":"26","sid":"S26","isRoute":null,"feat_type":"Landmark","selected":false,"aligned":true,"otype":"Polygon","mapType":"Sketch","gen_id":"g.58"},"geometry":{"type":"Polygon","coordinates":[[[7.692684,515],[5.693173,436.25],[52.681697,437.75],[51.681942,514],[7.692684,515]]]}},{"type":"Feature","properties":{"id":"27","sid":"S27","isRoute":null,"feat_type":"Landmark","selected":false,"aligned":true,"otype":"Polygon","mapType":"Sketch","gen_id":"g.60.62.64"},"geometry":{"type":"Polygon","coordinates":[[[99.920161,498.75],[101.669734,456.5],[139.660456,460.75],[140.660212,500],[99.920161,498.75]]]}},{"type":"Feature","properties":{"id":"28","sid":"S28","isRoute":null,"feat_type":"Landmark","selected":false,"aligned":true,"otype":"Polygon","mapType":"Sketch","gen_id":"g.68"},"geometry":{"type":"Polygon","coordinates":[[[93.921626,357.25],[95.171321,340.75],[120.915034,343.25],[119.915278,359.25],[93.921626,357.25]]]}},{"type":"Feature","properties":{"id":"29","sid":"S29","isRoute":null,"feat_type":"Landmark","selected":false,"aligned":true,"otype":"Polygon","mapType":"Sketch","gen_id":"g.76"},"geometry":{"type":"Polygon","coordinates":[[[163.963377,414.125],[166.087858,387.5],[183.958494,392.75],[182.583829,416.625],[163.963377,414.125]]]}},{"type":"Feature","properties":{"id":"30","sid":"S30","isRoute":null,"feat_type":"Landmark","selected":false,"aligned":true,"otype":"Polygon","mapType":"Sketch","gen_id":"g.78"},"geometry":{"type":"Polygon","coordinates":[[[166.087858,387.5],[168.712217,355.5],[185.833036,371.5],[183.958494,392.75],[166.087858,387.5]]]}},{"type":"Feature","properties":{"id":"31","sid":"S31","isRoute":null,"feat_type":"Landmark","selected":false,"aligned":true,"otype":"Polygon","mapType":"Sketch","gen_id":"g.114"},"geometry":{"type":"Polygon","coordinates":[[[245.458829,372.25],[244.958951,331.375],[274.20181,332],[307.443692,338.875],[307.443692,376.5],[245.458829,372.25]]]}},{"type":"Feature","properties":{"id":"32","sid":"S32","isRoute":null,"feat_type":"Landmark","selected":false,"aligned":true,"otype":"Polygon","mapType":"Sketch","gen_id":"g.116"},"geometry":{"type":"Polygon","coordinates":[[[344.890069,405.5],[346.139764,365],[412.623527,376.25],[411.623772,411.25],[344.890069,405.5]]]}},{"type":"Feature","properties":{"id":"33","sid":"S33","isRoute":null,"feat_type":"Landmark","selected":false,"aligned":true,"otype":"Polygon","mapType":"Sketch","gen_id":"g.84.86"},"geometry":{"type":"Polygon","coordinates":[[[292.289782,452.5],[359.773302,455],[359.273424,507.5],[351.275377,534],[337.778673,543],[316.283922,540],[300.787707,518],[289.790392,478],[292.289782,452.5]]]}},{"type":"Feature","properties":{"id":"34","sid":"S34","isRoute":null,"feat_type":"Landmark","selected":false,"aligned":true,"otype":"Polygon","mapType":"Sketch","gen_id":"g.90"},"geometry":{"type":"Polygon","coordinates":[[[574.720808,485],[574.22093,454.5],[606.712995,458.5],[604.213606,485.5],[574.720808,485]]]}},{"type":"Feature","properties":{"id":"35","sid":"S35","isRoute":null,"feat_type":"Landmark","selected":false,"aligned":true,"otype":"Polygon","mapType":"Sketch","gen_id":"g.98"},"geometry":{"type":"Polygon","coordinates":[[[652.849722,423],[655.84899,387.25],[707.836294,391.5],[704.587087,424.25],[652.849722,423]]]}},{"type":"Feature","properties":{"id":"36","sid":"S36","isRoute":null,"feat_type":"Landmark","selected":false,"aligned":true,"otype":"Polygon","mapType":"Sketch","gen_id":"g.100"},"geometry":{"type":"Polygon","coordinates":[[[629.605399,377.25],[630.105277,355],[666.846304,359.25],[665.096731,377.5],[629.605399,377.25]]]}},{"type":"Feature","properties":{"id":"37","sid":"S37","isRoute":null,"feat_type":"Landmark","selected":false,"aligned":true,"otype":"Polygon","mapType":"Sketch","gen_id":"g.106.108"},"geometry":{"type":"Polygon","coordinates":[[[648.350821,348.25],[654.099417,280.25],[715.83434,285.25],[713.085012,350.5],[648.350821,348.25]]]}},{"type":"Feature","properties":{"id":"38","sid":"S38","isRoute":null,"feat_type":"Landmark","selected":false,"aligned":true,"otype":"Polygon","mapType":"Sketch","gen_id":"g.110"},"geometry":{"type":"Polygon","coordinates":[[[621.107474,244],[608.610526,237.75],[602.362052,223],[604.111625,153.25],[609.360343,141.75],[633.104544,141.5],[658.348379,149.25],[665.34667,157.75],[668.095999,176],[667.596121,220.5],[661.097708,246.75],[621.107474,244]]]}},{"type":"Feature","properties":{"id":"39","sid":"S39","isRoute":null,"feat_type":"Landmark","selected":false,"aligned":true,"otype":"Polygon","mapType":"Sketch","gen_id":"g.112"},"geometry":{"type":"Polygon","coordinates":[[[727.581472,205.25],[729.081105,178.5],[752.325429,183.25],[751.325673,208.25],[727.581472,205.25]]]}},{"type":"Feature","properties":{"id":"40","sid":"S40","isRoute":null,"feat_type":"Landmark","selected":false,"aligned":true,"otype":"Polygon","mapType":"Sketch","gen_id":"g.120"},"geometry":{"type":"Polygon","coordinates":[[[372.111503,292.75],[367.86254,268],[371.361686,253.5],[380.359488,244.5],[379.859611,208.25],[385.858146,193.5],[402.604056,183.75],[442.59429,196],[453.591604,239.5],[460.839834,250.5],[479.835195,260.5],[480.585012,280],[477.835683,297.5],[469.08782,305.5],[438.095389,315],[396.85546,306.5],[372.111503,292.75]]]}},{"type":"Feature","properties":{"id":"41","sid":"S41","isRoute":null,"feat_type":"Landmark","selected":false,"aligned":true,"otype":"Polygon","mapType":"Sketch","gen_id":"g.118"},"geometry":{"type":"Polygon","coordinates":[[[259.888909,266.25],[275.385125,169.5],[343.8684,181.5],[339.869377,231.5],[319.624321,230],[314.125664,276.5],[282.883294,273.5],[259.888909,266.25]]]}}]}