{"type":"FeatureCollection","features":[{"type":"Feature","geometry":{"type":"LineString","coordinates":[[554.157327,452.200005],[568.171963,260.200005],[596.442738,89.200005]]},"properties":{"mapType":"Sketch","genType3":"Multi-MultiOmissionMerge","SketchRouteSeqOrder":null,"aligned":true,"feat_type":null,"id":"G27","isRoute":null,"otype":"Line","selected":false,"sid":"S15","group":true,"groupID":"27","gen_id":"g.12.35.41.42.139"}},{"id":"0","type":"Feature","properties":{"SketchRouteSeqOrder":null,"aligned":true,"feat_type":null,"group":null,"groupID":null,"id":"0","isRoute":null,"otype":"Line","selected":false,"sid":"S0","mapType":"Sketch","gen_id":"g.1"},"geometry":{"type":"LineString","coordinates":[[142.90537,539.200005],[153.91687,421.200005]]}},{"id":"1","type":"Feature","properties":{"SketchRouteSeqOrder":1,"aligned":true,"feat_type":null,"group":null,"groupID":null,"id":"1","isRoute":"Yes","otype":"Line","selected":false,"sid":"S1","mapType":"Sketch","gen_id":"g.0"},"geometry":{"type":"LineString","coordinates":[[48.807097,413.200005],[153.91687,421.200005]]}},{"id":"2","type":"Feature","properties":{"SketchRouteSeqOrder":null,"aligned":true,"feat_type":null,"group":null,"groupID":null,"id":"2","isRoute":null,"otype":"Line","selected":false,"sid":"S2","mapType":"Sketch","gen_id":"g.13.14.31.32.123.126"},"geometry":{"type":"LineString","coordinates":[[153.91687,421.200005],[180.945098,413.200005],[261.028735,90.200005],[277.260843,5.300001]]}},{"id":"3","type":"Feature","properties":{"SketchRouteSeqOrder":null,"aligned":true,"feat_type":null,"group":null,"groupID":null,"id":"3","isRoute":null,"otype":"Line","selected":false,"sid":"S3","mapType":"Sketch","gen_id":"g.15.17"},"geometry":{"type":"LineString","coordinates":[[153.91687,421.200005],[186.94928,52.200005]]}},{"id":"4","type":"Feature","properties":{"SketchRouteSeqOrder":null,"aligned":true,"feat_type":null,"group":null,"groupID":null,"id":"4","isRoute":null,"otype":"Line","selected":false,"sid":"S4","mapType":"Sketch","gen_id":"g.18"},"geometry":{"type":"LineString","coordinates":[[186.94928,52.200005],[82.840552,45.200005]]}},{"id":"5","type":"Feature","properties":{"SketchRouteSeqOrder":null,"aligned":true,"feat_type":null,"group":null,"groupID":null,"id":"5","isRoute":null,"otype":"Line","selected":false,"sid":"S5","mapType":"Sketch","gen_id":"g.19"},"geometry":{"type":"LineString","coordinates":[[186.94928,52.200005],[185.618137,3.025001]]}},{"id":"6","type":"Feature","properties":{"SketchRouteSeqOrder":null,"aligned":true,"feat_type":null,"group":null,"groupID":null,"id":"6","isRoute":null,"otype":"Line","selected":false,"sid":"S6","mapType":"Sketch","gen_id":"g.20.22"},"geometry":{"type":"LineString","coordinates":[[186.94928,52.200005],[596.442738,89.200005]]}},{"id":"7","type":"Feature","properties":{"SketchRouteSeqOrder":null,"aligned":true,"feat_type":null,"group":null,"groupID":null,"id":"7","isRoute":null,"otype":"Line","selected":false,"sid":"S7","mapType":"Sketch","gen_id":"g.24.26.27"},"geometry":{"type":"LineString","coordinates":[[596.442738,89.200005],[785.64033,101.200005]]}},{"id":"8","type":"Feature","properties":{"SketchRouteSeqOrder":null,"aligned":true,"feat_type":null,"group":null,"groupID":null,"id":"8","isRoute":null,"otype":"Line","selected":false,"sid":"S8","mapType":"Sketch","gen_id":"g.23"},"geometry":{"type":"LineString","coordinates":[[596.442738,89.200005],[606.453193,21.200005]]}},{"id":"9","type":"Feature","properties":{"SketchRouteSeqOrder":9,"aligned":true,"feat_type":null,"group":null,"groupID":null,"id":"9","isRoute":"Yes","otype":"Line","selected":false,"sid":"S9","mapType":"Sketch","gen_id":"g.55"},"geometry":{"type":"LineString","coordinates":[[785.64033,101.200005],[793.648694,21.200005]]}},{"id":"10","type":"Feature","properties":{"SketchRouteSeqOrder":null,"aligned":true,"feat_type":null,"group":null,"groupID":null,"id":"10","isRoute":null,"otype":"Line","selected":false,"sid":"S10","mapType":"Sketch","gen_id":"g.56"},"geometry":{"type":"LineString","coordinates":[[785.64033,101.200005],[846.219547,100.900001]]}},{"id":"11","type":"Feature","properties":{"SketchRouteSeqOrder":8,"aligned":true,"feat_type":null,"group":null,"groupID":null,"id":"11","isRoute":"Yes","otype":"Line","selected":false,"sid":"S11","mapType":"Sketch","gen_id":"g.53.54"},"geometry":{"type":"LineString","coordinates":[[791.429147,457.200005],[783.420783,293.200005],[785.64033,101.200005]]}},{"id":"12","type":"Feature","properties":{"SketchRouteSeqOrder":null,"aligned":true,"feat_type":null,"group":null,"groupID":null,"id":"12","isRoute":null,"otype":"Line","selected":false,"sid":"S12","mapType":"Sketch","gen_id":"g.52"},"geometry":{"type":"LineString","coordinates":[[791.429147,457.200005],[795.433329,539.200005]]}},{"id":"13","type":"Feature","properties":{"SketchRouteSeqOrder":null,"aligned":false,"feat_type":null,"group":null,"groupID":null,"id":"13","isRoute":null,"otype":"Line","selected":false,"sid":"S13","mapType":"Sketch"},"geometry":{"type":"LineString","coordinates":[[791.429147,457.200005],[846.682825,463.150001]]}},{"id":"14","type":"Feature","properties":{"SketchRouteSeqOrder":6,"aligned":true,"feat_type":null,"group":null,"groupID":null,"id":"14","isRoute":"Yes","otype":"Line","selected":false,"sid":"S14","mapType":"Sketch","gen_id":"g.50.51"},"geometry":{"type":"LineString","coordinates":[[554.157327,452.200005],[791.429147,457.200005]]}},{"id":"16","type":"Feature","properties":{"SketchRouteSeqOrder":4,"aligned":true,"feat_type":null,"group":null,"groupID":null,"id":"16","isRoute":"Yes","otype":"Line","selected":false,"sid":"S16","mapType":"Sketch","gen_id":"g.2.10.11"},"geometry":{"type":"LineString","coordinates":[[153.91687,421.200005],[391.987962,447.200005],[554.157327,452.200005]]}},{"type":"Feature","properties":{"id":"17","sid":"S17","isRoute":null,"feat_type":"Landmark","selected":false,"aligned":true,"otype":"Polygon","mapType":"Sketch","gen_id":"g.58"},"geometry":{"type":"Polygon","coordinates":[[[70.905513,508.300001],[81.41649,432.800001],[136.724252,446.300001],[124.461445,515.800001],[70.905513,508.300001]]]}},{"type":"Feature","properties":{"id":"18","sid":"S18","isRoute":null,"feat_type":"Landmark","selected":false,"aligned":true,"otype":"Polygon","mapType":"Sketch","gen_id":"g.60.62.64"},"geometry":{"type":"Polygon","coordinates":[[[168.006922,502.550001],[179.018422,442.050001],[223.815207,450.300001],[218.80998,507.550001],[168.006922,502.550001]]]}},{"type":"Feature","properties":{"id":"19","sid":"S19","isRoute":null,"feat_type":"Landmark","selected":false,"aligned":true,"otype":"Polygon","mapType":"Sketch","gen_id":"g.76"},"geometry":{"type":"Polygon","coordinates":[[[199.289593,412.300001],[199.790116,389.300001],[217.558673,393.800001],[211.802661,415.550001],[199.289593,412.300001]]]}},{"type":"Feature","properties":{"id":"20","sid":"S20","isRoute":null,"feat_type":"Landmark","selected":false,"aligned":true,"otype":"Polygon","mapType":"Sketch","gen_id":"g.78"},"geometry":{"type":"Polygon","coordinates":[[[199.790116,389.300001],[203.794298,369.300001],[219.811025,374.550001],[217.558673,393.800001],[199.790116,389.300001]]]}},{"type":"Feature","properties":{"id":"22","sid":"S22","isRoute":null,"feat_type":"Landmark","selected":false,"aligned":true,"otype":"Polygon","mapType":"Sketch","gen_id":"g.114"},"geometry":{"type":"Polygon","coordinates":[[[364.042207,376.550001],[371.049525,342.550001],[421.101798,348.550001],[419.099707,381.300001],[364.042207,376.550001]]]}},{"type":"Feature","properties":{"id":"23","sid":"S23","isRoute":null,"feat_type":"Landmark","selected":false,"aligned":true,"otype":"Polygon","mapType":"Sketch","gen_id":"g.118"},"geometry":{"type":"Polygon","coordinates":[[[353.531229,254.550001],[357.034888,189.800001],[412.34265,199.050001],[411.842128,257.550001],[353.531229,254.550001]]]}},{"type":"Feature","properties":{"id":"24","sid":"S24","isRoute":null,"feat_type":"Landmark","selected":false,"aligned":true,"otype":"Polygon","mapType":"Sketch","gen_id":"g.120"},"geometry":{"type":"Polygon","coordinates":[[[430.861991,327.050001],[420.851537,321.300001],[417.347878,304.050001],[418.849446,289.550001],[426.607548,274.050001],[428.609639,233.300001],[433.865128,223.550001],[451.383423,216.550001],[482.415833,214.050001],[504.939356,227.550001],[516.70164,275.800001],[524.960265,308.050001],[507.441969,323.300001],[430.861991,327.050001]]]}},{"type":"Feature","properties":{"id":"25","sid":"S25","isRoute":null,"feat_type":"Landmark","selected":false,"aligned":true,"otype":"Polygon","mapType":"Sketch","gen_id":"g.106.108"},"geometry":{"type":"Polygon","coordinates":[[[643.346048,350.050001],[651.10415,262.800001],[708.664264,270.300001],[704.910344,355.300001],[643.346048,350.050001]]]}},{"type":"Feature","properties":{"id":"26","sid":"S26","isRoute":null,"feat_type":"Landmark","selected":false,"aligned":true,"otype":"Polygon","mapType":"Sketch","gen_id":"g.98"},"geometry":{"type":"Polygon","coordinates":[[[733.318343,429.550001],[736.32148,397.800001],[771.107809,401.050001],[770.857548,431.550001],[733.318343,429.550001]]]}},{"type":"Feature","properties":{"id":"27","sid":"S27","isRoute":null,"feat_type":"Landmark","selected":false,"aligned":true,"otype":"Polygon","mapType":"Sketch","gen_id":"g.90"},"geometry":{"type":"Polygon","coordinates":[[[625.609904,495.650001],[627.486864,468.150001],[668.654859,473.525001],[666.527638,497.025001],[625.609904,495.650001]]]}},{"type":"Feature","properties":{"id":"28","sid":"S28","isRoute":null,"feat_type":"Landmark","selected":false,"aligned":true,"otype":"CircleMarker","mapType":"Sketch","gen_id":"g.68"},"geometry":{"type":"Polygon","coordinates":[[[175.25,373.983618],[175.245185,373.885601],[175.230785,373.788528],[175.20694,373.693333],[175.17388,373.600935],[175.131921,373.512221],[175.08147,373.428048],[175.02301,373.349225],[174.957107,373.276511],[174.884393,373.210608],[174.80557,373.152148],[174.721397,373.101697],[174.632683,373.059738],[174.540285,373.026678],[174.44509,373.002833],[174.348017,372.988433],[174.25,372.983618],[174.151983,372.988433],[174.05491,373.002833],[173.959715,373.026678],[173.867317,373.059738],[173.778603,373.101697],[173.69443,373.152148],[173.615607,373.210608],[173.542893,373.276511],[173.47699,373.349225],[173.41853,373.428048],[173.368079,373.512221],[173.32612,373.600935],[173.29306,373.693333],[173.269215,373.788528],[173.254815,373.885601],[173.25,373.983618],[173.254815,374.081635],[173.269215,374.178708],[173.29306,374.273903],[173.32612,374.366301],[173.368079,374.455015],[173.41853,374.539188],[173.47699,374.618011],[173.542893,374.690725],[173.615607,374.756628],[173.69443,374.815088],[173.778603,374.865539],[173.867317,374.907498],[173.959715,374.940558],[174.05491,374.964403],[174.151983,374.978803],[174.25,374.983618],[174.348017,374.978803],[174.44509,374.964403],[174.540285,374.940558],[174.632683,374.907498],[174.721397,374.865539],[174.80557,374.815088],[174.884393,374.756628],[174.957107,374.690725],[175.02301,374.618011],[175.08147,374.539188],[175.131921,374.455015],[175.17388,374.366301],[175.20694,374.273903],[175.230785,374.178708],[175.245185,374.081635],[175.25,373.983618]]]}}]}