{"type":"FeatureCollection","features":[{"type":"Feature","geometry":{"type":"Polygon","coordinates":[[[15.735963,385.912326],[14.095265,408.699653],[36.461526,427.574653],[43.083938,431.199653],[109.159035,376.787326],[122.716237,370.787326],[125.840017,365.912326],[103.071292,341.949653],[95.949075,338.199653],[18.984693,380.412326],[15.735963,385.912326]]]},"properties":{"genType":"Amalgamation","BaseAlign":[195,197,199,201,203,205],"SketchAlign":"S41","id":"41","isRoute":null,"feat_type":"Landmark","selected":false,"aligned":true,"otype":"Polygon","gen_id":"g.195.197.199.201.203.205"}},{"type":"Feature","geometry":{"type":"Polygon","coordinates":[[[150.390433,372.599826],[151.077664,382.224826],[160.636429,381.474826],[159.949197,371.787326],[162.760599,364.037326],[161.948416,360.974826],[157.575125,358.287326],[154.201443,358.599826],[150.827762,363.037326],[148.578641,366.162326],[150.390433,372.599826]]]},"properties":{"genType":"Amalgamation","BaseAlign":[228,229,230,231],"SketchAlign":"S43","id":"43","isRoute":null,"feat_type":"Landmark","selected":false,"aligned":true,"otype":"Polygon","gen_id":"g.228.229.230.231"}},{"type":"Feature","geometry":{"type":"Polygon","coordinates":[[[777.075491,83.949653],[778.574905,88.949653],[797.202664,102.349826],[807.011331,106.099826],[812.321756,108.037326],[817.444754,106.662326],[819.506449,101.724826],[844.525983,75.449653],[839.261795,62.974826],[834.51365,54.912326],[821.880006,56.737413],[815.819875,57.706163],[803.887037,60.893663],[791.860487,64.393663],[787.160573,67.224826],[783.724416,70.912326],[777.075491,83.949653]]]},"properties":{"genType":"Amalgamation","BaseAlign":[221,222,223],"SketchAlign":"S47","id":"47","isRoute":null,"feat_type":"Landmark","selected":false,"aligned":true,"otype":"Polygon","gen_id":"g.221.222.223"}},{"type":"Feature","geometry":{"type":"Polygon","coordinates":[[[673.11067,85.099826],[673.610475,89.724826],[680.545265,95.662326],[688.294878,103.537326],[691.418657,103.349826],[693.355401,100.724826],[699.615457,90.831163],[696.232231,84.474826],[690.041554,77.412326],[678.546046,79.537326],[673.11067,85.099826]]]},"properties":{"genType":"Amalgamation","BaseAlign":[209,211,235,236,207],"SketchAlign":"S48","id":"48","isRoute":null,"feat_type":"Landmark","selected":false,"aligned":true,"otype":"Polygon","gen_id":"g.207.209.211.235.236"}},{"type":"Feature","geometry":{"type":"Polygon","coordinates":[[[691.449344,19.349826],[688.200613,23.599826],[713.014606,40.199653],[731.62869,48.412326],[735.502177,49.912326],[738.188627,49.974826],[741.874686,45.474826],[727.383991,21.824653],[704.392975,5.949653],[691.449344,19.349826]]]},"properties":{"genType":"Amalgamation","BaseAlign":[224,225,226],"SketchAlign":"S50","id":"50","isRoute":null,"feat_type":"Landmark","selected":false,"aligned":true,"otype":"Polygon","gen_id":"g.224.225.226"}},{"type":"Feature","geometry":{"type":"LineString","coordinates":[[158.51899,339.649305],[139.138059,362.074653],[124.90505,382.824653]]},"properties":{"genType":"OmissionMerge","BaseAlign":[105,107],"SketchAlign":"S4","RouteSeqOrder":null,"aligned":true,"feat_type":null,"id":"4","isRoute":null,"otype":"Line","selected":false,"gen_id":"g.105.107"}},{"type":"Feature","geometry":{"type":"LineString","coordinates":[[212.441996,384.899305],[272.918364,414.649305],[310.653619,431.899305],[347.823772,442.899305],[378.561761,451.149305],[396.399883,449.693795]]},"properties":{"genType":"OmissionMerge","BaseAlign":[1,82],"SketchAlign":"S32","RouteSeqOrder":null,"aligned":true,"feat_type":null,"id":"32","isRoute":null,"otype":"Line","selected":false,"gen_id":"g.1.82"}},{"type":"Feature","geometry":{"type":"LineString","coordinates":[[685.208367,123.324653],[695.40792,107.724826],[705.653916,91.787326],[720.676924,73.949653],[733.04709,63.574653]]},"properties":{"genType":"OmissionMerge","BaseAlign":[57,59,61],"SketchAlign":"S19","RouteSeqOrder":null,"aligned":true,"feat_type":null,"id":"19","isRoute":null,"otype":"Line","selected":false,"gen_id":"g.57.59.61"}},{"type":"Feature","geometry":{"type":"LineString","coordinates":[[733.04709,63.574653],[755.524741,49.912326],[786.333244,24.149305],[798.578459,13.149305],[811.073576,0]]},"properties":{"genType":"OmissionMerge","BaseAlign":[64,66,68,70],"SketchAlign":"S18","RouteSeqOrder":28,"aligned":true,"feat_type":null,"id":"18","isRoute":"Yes","otype":"Line","selected":false,"gen_id":"g.64.66.68.70"}},{"type":"Feature","geometry":{"type":"LineString","coordinates":[[582.302844,353.899305],[550.815148,365.649305],[514.579307,383.399305],[475.341416,407.899305],[413.298187,447.149305],[396.399883,449.693795]]},"properties":{"genType":"OmissionMerge","BaseAlign":[83,6],"SketchAlign":"S24","RouteSeqOrder":1,"aligned":true,"feat_type":null,"id":"24","isRoute":"Yes","otype":"Line","selected":false,"gen_id":"g.6.83"}},{"type":"Feature","geometry":{"type":"Polygon","coordinates":[[[321.527655,505.503245],[321.52284,505.405228],[321.50844,505.308155],[321.484595,505.21296],[321.451535,505.120562],[321.409576,505.031848],[321.359125,504.947675],[321.300665,504.868852],[321.234762,504.796138],[321.162048,504.730235],[321.083225,504.671775],[320.999052,504.621324],[320.910338,504.579365],[320.81794,504.546305],[320.722745,504.52246],[320.625672,504.50806],[320.527655,504.503245],[320.429638,504.50806],[320.332565,504.52246],[320.23737,504.546305],[320.144972,504.579365],[320.056258,504.621324],[319.972085,504.671775],[319.893262,504.730235],[319.820548,504.796138],[319.754645,504.868852],[319.696185,504.947675],[319.645734,505.031848],[319.603775,505.120562],[319.570715,505.21296],[319.54687,505.308155],[319.53247,505.405228],[319.527655,505.503245],[319.53247,505.601262],[319.54687,505.698335],[319.570715,505.79353],[319.603775,505.885928],[319.645734,505.974642],[319.696185,506.058815],[319.754645,506.137638],[319.820548,506.210352],[319.893262,506.276255],[319.972085,506.334715],[320.056258,506.385166],[320.144972,506.427125],[320.23737,506.460185],[320.332565,506.48403],[320.429638,506.49843],[320.527655,506.503245],[320.625672,506.49843],[320.722745,506.48403],[320.81794,506.460185],[320.910338,506.427125],[320.999052,506.385166],[321.083225,506.334715],[321.162048,506.276255],[321.234762,506.210352],[321.300665,506.137638],[321.359125,506.058815],[321.409576,505.974642],[321.451535,505.885928],[321.484595,505.79353],[321.50844,505.698335],[321.52284,505.601262],[321.527655,505.503245]]]},"properties":{"genType":"Collapse","BaseAlign":[133],"SketchAlign":"S45","id":"45","isRoute":null,"feat_type":"Landmark","selected":false,"aligned":true,"otype":"Polygon","gen_id":"g.133"}},{"type":"Feature","geometry":{"type":"LineString","coordinates":[[212.441996,384.899305],[235.240438,356.699653],[240.053837,349.349826],[256.588633,330.324653],[274.9217,310.149305],[295.413692,301.899305],[339.144245,292.899305],[399.872875,264.149305],[404.121215,259.149305],[431.147223,220.699653],[449.302209,197.074653],[463.296741,177.949653],[483.5,150.021512],[502.75,134.002921],[514.571696,126.732072],[565.06282,112.149305],[601.304324,102.774305],[619.425076,98.086805],[628.485452,95.743055],[637.999902,93.75],[646.996289,96.25]]},"properties":{"genType3":"Multi-MultiOmissionMerge","BaseAlign":[16,18,23,25,27,28,30,31,33,37,254,258],"SketchAlign":["S35","S34","S33","S36"],"RouteSeqOrder":21,"aligned":true,"feat_type":null,"id":"G23","isRoute":"Yes","otype":"Line","selected":false,"group":true,"groupID":"23","gen_id":"g.16.18.23.25.27.28.30.31.33.37.254.258"}},{"type":"Feature","geometry":{"type":"MultiLineString","coordinates":[[[240.053837,349.349826],[215.492293,326.699653]],[[237.721005,314.449653],[256.588633,330.324653]],[[295.413692,301.899305],[288.416427,291.899305],[265.925215,272.899305],[258.178242,266.899305]],[[404.121215,259.149305],[389.376976,217.149305]],[[449.302209,197.074653],[434.058166,185.199653]],[[463.296741,177.949653],[438.556262,157.574653]],[[565.06282,112.149305],[559.576295,88.899305],[555.577858,54.649305],[559.326393,31.149305]]]},"properties":{"genType":"Abstraction to show existence streets","BaseAlign":[19,22,26,29,32,34,36],"SketchAlign":["S14","S13","S12"],"RouteSeqOrder":null,"aligned":true,"feat_type":null,"id":"G24","isRoute":null,"otype":"Line","selected":false,"group":true,"groupID":"24","gen_id":"g.19.22.26.29.32.34.36"}},{"type":"Feature","geometry":{"type":"MultiLineString","coordinates":[[[582.302844,353.899305],[595.394098,327.449653]],[[595.394098,327.449653],[619.722429,288.199653]],[[619.722429,288.199653],[628.843865,272.074653]],[[628.843865,272.074653],[639.966033,254.074653]],[[639.966033,254.074653],[647.214666,240.199653],[650.213494,212.699653]],[[661.980038,172.099826],[671.838592,145.449653],[676.586736,138.324653]],[[676.586736,138.324653],[685.208367,123.324653]],[[650.213494,212.699653],[660.417343,174.974826]]]},"properties":{"genType":"Abstraction to show existence streets","BaseAlign":[8,39,41,43,47,52,54,113],"SketchAlign":["S40","S38","S39"],"RouteSeqOrder":null,"aligned":true,"feat_type":null,"id":"G31","isRoute":null,"otype":"Line","selected":false,"group":true,"groupID":"31","gen_id":"g.8.39.41.43.47.52.54.113"}},{"type":"Feature","geometry":{"type":"MultiLineString","coordinates":[[[619.722429,288.199653],[643.713055,302.324653]],[[639.966033,254.074653],[687.167907,277.399305]],[[661.980038,172.099826],[680.536679,181.724826]],[[676.586736,138.324653],[692.080682,146.699653]]]},"properties":{"genType":"Abstraction to show existence streets","BaseAlign":[40,46,51,53],"SketchAlign":["S20","S21"],"RouteSeqOrder":null,"aligned":true,"feat_type":null,"id":"G32","isRoute":null,"otype":"Line","selected":false,"group":true,"groupID":"32","gen_id":"g.40.46.51.53"}},{"type":"Feature","geometry":{"type":"LineString","coordinates":[[396.399883,449.693795],[399.282931,480.199653],[397.658566,485.949653],[385.285763,503.949653],[377.413839,512.449653],[363.91628,523.324653],[349.172041,528.949653],[342.170284,530.574653],[332.095157,532.149305],[317.850723,530.149305],[294.859707,517.649305],[272.118593,503.149305],[242.130311,482.149305],[173.457229,435.149305]]},"properties":{"genType3":"Multi-MultiOmissionMerge","BaseAlign":[71,73,75,77,79,81],"SketchAlign":["S31","S28","S29","S30"],"RouteSeqOrder":3,"aligned":true,"feat_type":null,"id":"G35","isRoute":"Yes","otype":"Line","selected":false,"group":true,"groupID":"35","gen_id":"g.71.73.75.77.79.81"}},{"type":"Feature","geometry":{"type":"MultiLineString","coordinates":[[[317.850723,530.149305],[294.359902,563.899305]],[[342.170284,530.574653],[340.341251,582.649305]],[[363.91628,523.324653],[386.573674,567.899305]],[[385.285763,503.949653],[419.558148,528.649305]],[[399.282931,480.199653],[425.055804,479.899305],[471.085243,519.798611]]]},"properties":{"genType":"Abstraction to show existence streets","BaseAlign":[72,74,76,78,80],"SketchAlign":["S25","S26","S27"],"RouteSeqOrder":null,"aligned":true,"feat_type":null,"id":"G36","isRoute":null,"otype":"Line","selected":false,"group":true,"groupID":"36","gen_id":"g.72.74.76.78.80"}},{"type":"Feature","geometry":{"type":"LineString","coordinates":[[158.51899,339.649305],[129.047016,310.399305],[104.056781,286.399305],[91.561663,258.649305]]},"properties":{"genType":"No generalization","BaseAlign":111,"SketchAlign":["S2"],"RouteSeqOrder":null,"aligned":true,"feat_type":null,"id":"2","isRoute":null,"otype":"Line","selected":false,"gen_id":"g.111"}},{"type":"Feature","geometry":{"type":"LineString","coordinates":[[212.441996,384.899305],[158.51899,339.649305]]},"properties":{"genType":"No generalization","BaseAlign":103,"SketchAlign":["S7"],"RouteSeqOrder":null,"aligned":true,"feat_type":null,"id":"7","isRoute":null,"otype":"Line","selected":false,"gen_id":"g.103"}},{"type":"Feature","geometry":{"type":"LineString","coordinates":[[124.90505,382.824653],[184.732659,420.615671]]},"properties":{"genType":"No generalization","BaseAlign":97,"SketchAlign":["S6"],"RouteSeqOrder":null,"aligned":true,"feat_type":null,"id":"6","isRoute":null,"otype":"Line","selected":false,"gen_id":"g.97"}},{"type":"Feature","geometry":{"type":"LineString","coordinates":[[89.330412,439.149305],[124.90505,382.824653]]},"properties":{"genType":"No generalization","BaseAlign":95,"SketchAlign":["S3"],"RouteSeqOrder":null,"aligned":true,"feat_type":null,"id":"3","isRoute":null,"otype":"Line","selected":false,"gen_id":"g.95"}},{"type":"Feature","geometry":{"type":"LineString","coordinates":[[89.330412,439.149305],[49.845352,439.149305]]},"properties":{"genType":"No generalization","BaseAlign":93,"SketchAlign":["S0"],"RouteSeqOrder":null,"aligned":true,"feat_type":null,"id":"0","isRoute":null,"otype":"Line","selected":false,"gen_id":"g.93"}},{"type":"Feature","geometry":{"type":"LineString","coordinates":[[138.561175,469.649305],[89.330412,439.149305]]},"properties":{"genType":"No generalization","BaseAlign":91,"SketchAlign":["S5"],"RouteSeqOrder":null,"aligned":true,"feat_type":null,"id":"5","isRoute":null,"otype":"Line","selected":false,"gen_id":"g.91"}},{"type":"Feature","geometry":{"type":"LineString","coordinates":[[138.561175,469.649305],[88.0809,519.149305]]},"properties":{"genType":"No generalization","BaseAlign":89,"SketchAlign":["S8"],"RouteSeqOrder":null,"aligned":true,"feat_type":null,"id":"8","isRoute":null,"otype":"Line","selected":false,"gen_id":"g.89"}},{"type":"Feature","geometry":{"type":"LineString","coordinates":[[173.457229,435.149305],[138.561175,469.649305]]},"properties":{"genType":"No generalization","BaseAlign":87,"SketchAlign":["S9"],"RouteSeqOrder":null,"aligned":true,"feat_type":null,"id":"9","isRoute":null,"otype":"Line","selected":false,"gen_id":"g.87"}},{"type":"Feature","geometry":{"type":"LineString","coordinates":[[173.457229,435.149305],[184.732659,420.615671]]},"properties":{"genType":"No generalization","BaseAlign":99,"SketchAlign":["S10"],"RouteSeqOrder":9,"aligned":true,"feat_type":null,"id":"10","isRoute":"Yes","otype":"Line","selected":false,"gen_id":"g.99"}},{"type":"Feature","geometry":{"type":"LineString","coordinates":[[184.732659,420.615671],[212.441996,384.899305]]},"properties":{"genType":"No generalization","BaseAlign":101,"SketchAlign":["S11"],"RouteSeqOrder":10,"aligned":true,"feat_type":null,"id":"11","isRoute":"Yes","otype":"Line","selected":false,"gen_id":"g.101"}},{"type":"Feature","geometry":{"type":"LineString","coordinates":[[646.996289,96.25],[663.092009,107.824653],[685.208367,123.324653]]},"properties":{"genType":"No generalization","BaseAlign":55,"SketchAlign":["S37"],"RouteSeqOrder":null,"aligned":true,"feat_type":null,"id":"37","isRoute":null,"otype":"Line","selected":false,"gen_id":"g.55"}},{"type":"Feature","geometry":{"type":"LineString","coordinates":[[646.996289,96.25],[654.832244,86.699653],[670.363705,78.037326],[695.666318,69.474826],[710.722934,65.912326],[722.843198,53.974826]]},"properties":{"genType":"No generalization","BaseAlign":56,"SketchAlign":["S17"],"RouteSeqOrder":23,"aligned":true,"feat_type":null,"id":"17","isRoute":"Yes","otype":"Line","selected":false,"gen_id":"g.56"}},{"type":"Feature","geometry":{"type":"LineString","coordinates":[[722.843198,53.974826],[647.815497,0]]},"properties":{"genType":"No generalization","BaseAlign":63,"SketchAlign":["S15"],"RouteSeqOrder":null,"aligned":true,"feat_type":null,"id":"15","isRoute":null,"otype":"Line","selected":false,"gen_id":"g.63"}},{"type":"Feature","geometry":{"type":"LineString","coordinates":[[722.843198,53.974826],[733.04709,63.574653]]},"properties":{"genType":"No generalization","BaseAlign":62,"SketchAlign":["S16"],"RouteSeqOrder":24,"aligned":true,"feat_type":null,"id":"16","isRoute":"Yes","otype":"Line","selected":false,"gen_id":"g.62"}},{"type":"Feature","geometry":{"type":"LineString","coordinates":[[582.302844,353.899305],[624.979524,341.899305],[687.455111,333.899305],[741.933824,332.899305]]},"properties":{"genType":"No generalization","BaseAlign":38,"SketchAlign":["S22"],"RouteSeqOrder":null,"aligned":true,"feat_type":null,"id":"22","isRoute":null,"otype":"Line","selected":false,"gen_id":"g.38"}},{"type":"Feature","geometry":{"type":"Polygon","coordinates":[[[159.695926,421.412326],[145.326541,411.724826],[147.013382,409.224826],[138.204324,402.724826],[136.267581,402.787326],[134.143411,400.912326],[136.70491,396.849826],[135.705301,395.849826],[138.383266,392.549913],[166.49728,411.299913],[159.695926,421.412326]]]},"properties":{"id":"42","isRoute":null,"feat_type":"Landmark","selected":false,"aligned":true,"otype":"Polygon","genType":"No generalization","BaseAlign":232,"SketchAlign":["S42"],"gen_id":"g.232"}},{"type":"Feature","geometry":{"type":"Polygon","coordinates":[[[230.196935,464.474826],[238.881041,469.787326],[238.318761,472.537326],[248.379319,476.699653],[250.503489,472.699653],[255.87639,473.449653],[271.995092,492.949653],[274.369164,491.824653],[274.809802,489.974826],[278.745764,488.537326],[279.682897,490.162326],[284.18114,488.224826],[283.244006,484.912326],[281.932019,484.724826],[281.994494,479.037326],[276.871496,479.787326],[276.24674,481.912326],[273.247912,481.412326],[271.935925,479.099826],[275.746935,477.849826],[274.434777,473.787326],[272.935363,473.974826],[272.685461,471.974826],[273.810021,471.537326],[272.12318,467.849826],[268.062267,469.787326],[265.37556,462.449653],[262.626634,457.074653],[259.502855,457.574653],[257.503636,460.574653],[254.379857,458.574653],[254.75471,453.574653],[249.006956,450.699653],[246.008128,451.199653],[244.629406,456.099826],[244.504455,458.537326],[244.504455,460.662326],[242.44276,460.537326],[242.067907,457.224826],[242.817614,456.787326],[242.942565,453.787326],[236.868409,453.849826],[236.556031,451.787326],[232.307691,452.099826],[232.0625,455.93839],[233.875,457.93845],[232.5625,460.001781],[226.9375,456.621617],[223.875,459.749228],[230.196935,464.474826]]]},"properties":{"id":"44","isRoute":null,"feat_type":"Landmark","selected":false,"aligned":true,"otype":"Polygon","genType":"No generalization","BaseAlign":131,"SketchAlign":["S44"],"gen_id":"g.131"}},{"type":"Feature","geometry":{"type":"Polygon","coordinates":[[[749.56846,74.699653],[741.446634,75.699653],[738.322855,72.949653],[736.573538,74.074653],[737.448197,79.574653],[733.449759,84.949653],[739.072562,87.199653],[741.571585,90.199653],[744.570413,91.574653],[749.56846,90.449653],[752.942142,86.949653],[752.317386,82.324653],[753.691849,79.574653],[751.942533,77.449653],[749.56846,74.699653]]]},"properties":{"id":"46","isRoute":null,"feat_type":"Landmark","selected":false,"aligned":true,"otype":"Polygon","genType":"No generalization","BaseAlign":213,"SketchAlign":["S46"],"gen_id":"g.213"}},{"type":"Feature","geometry":{"type":"Polygon","coordinates":[[[709.062406,79.912326],[703.876932,76.474826],[703.377128,74.537326],[704.626639,73.224826],[705.813676,73.412326],[707.687943,71.162326],[712.311137,70.662326],[713.310746,75.037326],[709.062406,79.912326]]]},"properties":{"id":"49","isRoute":null,"feat_type":"Landmark","selected":false,"aligned":true,"otype":"Polygon","genType":"No generalization","BaseAlign":227,"SketchAlign":["S49"],"gen_id":"g.227"}},{"type":"Feature","geometry":{"type":"LineString","coordinates":[[310.653619,431.899305],[325.649323,405.649305],[337.144831,390.399305],[349.140143,388.149305],[372.381062,395.649305],[383.376765,395.899305],[402.369344,369.149305],[409.058451,358.324653]]},"properties":{"RouteSeqOrder":null,"aligned":false,"feat_type":null,"id":110147,"isRoute":null,"otype":"Line","selected":false,"missing":true}},{"type":"Feature","geometry":{"type":"LineString","coordinates":[[409.058451,358.324653],[356.137605,335.649305],[339.144245,292.899305]]},"properties":{"RouteSeqOrder":null,"aligned":false,"feat_type":null,"id":110148,"isRoute":null,"otype":"Line","selected":false,"missing":true}},{"type":"Feature","geometry":{"type":"LineString","coordinates":[[409.058451,358.324653],[438.605771,368.149305],[462.346494,388.399305],[475.341416,407.899305]]},"properties":{"RouteSeqOrder":null,"aligned":false,"feat_type":null,"id":110149,"isRoute":null,"otype":"Line","selected":false,"missing":true}},{"type":"Feature","geometry":{"type":"LineString","coordinates":[[582.302844,353.899305],[585.295618,382.149305],[587.794641,403.649305],[589.044153,421.399305],[589.146979,430.324653],[583.296301,445.399305]]},"properties":{"RouteSeqOrder":null,"aligned":false,"feat_type":null,"id":110150,"isRoute":null,"otype":"Line","selected":false,"missing":true}},{"type":"Feature","geometry":{"type":"LineString","coordinates":[[595.394098,327.449653],[534.801868,287.899305]]},"properties":{"RouteSeqOrder":null,"aligned":false,"feat_type":null,"id":110151,"isRoute":null,"otype":"Line","selected":false,"missing":true}},{"type":"Feature","geometry":{"type":"LineString","coordinates":[[534.801868,287.899305],[519.557824,317.149305],[496.316906,338.649305],[488.160601,340.949653],[479.788872,340.949653],[467.293755,333.949653]]},"properties":{"RouteSeqOrder":null,"aligned":false,"feat_type":null,"id":110152,"isRoute":null,"otype":"Line","selected":false,"missing":true}},{"type":"Feature","geometry":{"type":"LineString","coordinates":[[467.293755,333.949653],[473.666265,323.824653],[478.789263,315.199653],[482.912652,305.824653],[487.036041,298.824653],[487.535845,296.074653],[490.409722,293.949653],[497.406988,291.699653],[511.526471,272.949653]]},"properties":{"RouteSeqOrder":null,"aligned":false,"feat_type":null,"id":110153,"isRoute":null,"otype":"Line","selected":false,"missing":true}},{"type":"Feature","geometry":{"type":"LineString","coordinates":[[511.526471,272.949653],[534.801868,287.899305]]},"properties":{"RouteSeqOrder":null,"aligned":false,"feat_type":null,"id":110154,"isRoute":null,"otype":"Line","selected":false,"missing":true}},{"type":"Feature","geometry":{"type":"LineString","coordinates":[[491.901276,259.324653],[511.526471,272.949653]]},"properties":{"RouteSeqOrder":null,"aligned":false,"feat_type":null,"id":110155,"isRoute":null,"otype":"Line","selected":false,"missing":true}},{"type":"Feature","geometry":{"type":"LineString","coordinates":[[467.293755,333.949653],[462.147711,333.199653],[454.52569,327.324653],[442.530377,320.824653],[437.53233,315.699653],[437.407379,300.324653],[453.026276,276.699653],[480.515534,275.699653],[491.901276,259.324653]]},"properties":{"RouteSeqOrder":null,"aligned":false,"feat_type":null,"id":110156,"isRoute":null,"otype":"Line","selected":false,"missing":true}},{"type":"Feature","geometry":{"type":"LineString","coordinates":[[491.901276,259.324653],[463.384626,240.324653],[431.147223,220.699653]]},"properties":{"RouteSeqOrder":null,"aligned":false,"feat_type":null,"id":110157,"isRoute":null,"otype":"Line","selected":false,"missing":true}},{"type":"Feature","geometry":{"type":"LineString","coordinates":[[235.240438,356.699653],[261.482968,372.824653],[291.846103,386.824653],[295.844541,388.574653]]},"properties":{"RouteSeqOrder":null,"aligned":false,"feat_type":null,"id":110158,"isRoute":null,"otype":"Line","selected":false,"missing":true}},{"type":"Feature","geometry":{"type":"LineString","coordinates":[[205.935356,333.662326],[208.746757,334.287326],[215.492293,326.699653]]},"properties":{"RouteSeqOrder":null,"aligned":false,"feat_type":null,"id":110159,"isRoute":null,"otype":"Line","selected":false,"missing":true}},{"type":"Feature","geometry":{"type":"LineString","coordinates":[[215.492293,326.699653],[217.118486,324.974826],[221.429301,325.224826],[237.721005,314.449653]]},"properties":{"RouteSeqOrder":null,"aligned":false,"feat_type":null,"id":110160,"isRoute":null,"otype":"Line","selected":false,"missing":true}},{"type":"Feature","geometry":{"type":"LineString","coordinates":[[237.721005,314.449653],[207.448065,290.399305]]},"properties":{"RouteSeqOrder":null,"aligned":false,"feat_type":null,"id":110161,"isRoute":null,"otype":"Line","selected":false,"missing":true}},{"type":"Feature","geometry":{"type":"LineString","coordinates":[[628.843865,272.074653],[597.357682,252.949653]]},"properties":{"RouteSeqOrder":null,"aligned":false,"feat_type":null,"id":110162,"isRoute":null,"otype":"Line","selected":false,"missing":true}},{"type":"Feature","geometry":{"type":"LineString","coordinates":[[660.417343,174.974826],[661.980038,172.099826]]},"properties":{"RouteSeqOrder":null,"aligned":false,"feat_type":null,"id":110163,"isRoute":null,"otype":"Line","selected":false,"missing":true}},{"type":"Feature","geometry":{"type":"LineString","coordinates":[[695.40792,107.724826],[713.838218,118.099826]]},"properties":{"RouteSeqOrder":null,"aligned":false,"feat_type":null,"id":110164,"isRoute":null,"otype":"Line","selected":false,"missing":true}},{"type":"Feature","geometry":{"type":"LineString","coordinates":[[705.653916,91.787326],[741.54377,112.199653]]},"properties":{"RouteSeqOrder":null,"aligned":false,"feat_type":null,"id":110165,"isRoute":null,"otype":"Line","selected":false,"missing":true}},{"type":"Feature","geometry":{"type":"LineString","coordinates":[[755.524741,49.912326],[764.047188,59.449653],[773.668428,90.949653]]},"properties":{"RouteSeqOrder":null,"aligned":false,"feat_type":null,"id":110166,"isRoute":null,"otype":"Line","selected":false,"missing":true}},{"type":"Feature","geometry":{"type":"LineString","coordinates":[[786.333244,24.149305],[756.095059,0]]},"properties":{"RouteSeqOrder":null,"aligned":false,"feat_type":null,"id":110167,"isRoute":null,"otype":"Line","selected":false,"missing":true}},{"type":"Feature","geometry":{"type":"LineString","coordinates":[[798.578459,13.149305],[812.822893,25.649305]]},"properties":{"RouteSeqOrder":null,"aligned":false,"feat_type":null,"id":110168,"isRoute":null,"otype":"Line","selected":false,"missing":true}},{"type":"Feature","geometry":{"type":"LineString","coordinates":[[491.901276,259.324653],[515.276509,203.149305]]},"properties":{"RouteSeqOrder":null,"aligned":false,"feat_type":null,"id":110169,"isRoute":null,"otype":"Line","selected":false,"missing":true}},{"type":"Feature","geometry":{"type":"LineString","coordinates":[[139.138059,362.074653],[111.040375,340.399305],[90.14802,326.199653],[49.811761,307.899305]]},"properties":{"RouteSeqOrder":null,"aligned":false,"feat_type":null,"id":110170,"isRoute":null,"otype":"Line","selected":false,"missing":true}},{"type":"Feature","geometry":{"type":"LineString","coordinates":[[611.499167,141.899305],[660.417343,174.974826]]},"properties":{"RouteSeqOrder":null,"aligned":false,"feat_type":null,"id":110171,"isRoute":null,"otype":"Line","selected":false,"missing":true}},{"type":"Feature","geometry":{"type":"LineString","coordinates":[[534.801868,287.899305],[550.2852,246.899305],[566.778755,209.399305],[582.772505,185.399305]]},"properties":{"RouteSeqOrder":null,"aligned":false,"feat_type":null,"id":110172,"isRoute":null,"otype":"Line","selected":false,"missing":true}},{"type":"Feature","geometry":{"type":"LineString","coordinates":[[582.772505,185.399305],[615.509713,201.899305],[650.213494,212.699653]]},"properties":{"RouteSeqOrder":null,"aligned":false,"feat_type":null,"id":110173,"isRoute":null,"otype":"Line","selected":false,"missing":true}},{"type":"Feature","geometry":{"type":"LineString","coordinates":[[611.499167,141.899305],[604.75,140.001187],[598.75,135.500712],[587.5,127.500475],[576,120.250475],[570,116.750475],[565.06282,112.149305]]},"properties":{"RouteSeqOrder":null,"aligned":false,"feat_type":null,"id":110174,"isRoute":null,"otype":"Line","selected":false,"missing":true}},{"type":"Feature","geometry":{"type":"LineString","coordinates":[[582.772505,185.399305],[591.898557,173.824653],[611.499167,141.899305]]},"properties":{"RouteSeqOrder":null,"aligned":false,"feat_type":null,"id":110175,"isRoute":null,"otype":"Line","selected":false,"missing":true}},{"type":"Feature","geometry":{"type":"LineString","coordinates":[[582.772505,185.399305],[542.25,155.767641],[529,148.760994]]},"properties":{"RouteSeqOrder":null,"aligned":false,"feat_type":null,"id":110176,"isRoute":null,"otype":"Line","selected":false,"missing":true}},{"type":"Feature","geometry":{"type":"LineString","coordinates":[[529,148.760994],[514.571696,126.732072]]},"properties":{"RouteSeqOrder":null,"aligned":false,"feat_type":null,"id":110177,"isRoute":null,"otype":"Line","selected":false,"missing":true}},{"type":"Feature","geometry":{"type":"LineString","coordinates":[[493.75,184.544944],[513.25,157.769541],[522.625,151.006565],[529,148.760994]]},"properties":{"RouteSeqOrder":null,"aligned":false,"feat_type":null,"id":110178,"isRoute":null,"otype":"Line","selected":false,"missing":true}},{"type":"Feature","geometry":{"type":"Polygon","coordinates":[[[317.482984,484.162326],[317.170606,479.287326],[312.922267,479.412326],[312.922267,474.849826],[318.232691,474.974826],[318.794972,477.912326],[322.855885,477.474826],[322.293605,474.599826],[326.541945,472.162326],[329.353346,476.662326],[325.542335,478.912326],[325.417384,483.349826],[329.415822,481.037326],[331.789894,484.724826],[329.29087,487.662326],[325.729762,486.912326],[327.229176,489.724826],[323.980446,494.662326],[320.294386,490.099826],[320.294386,487.974826],[319.044874,487.099826],[318.232691,489.537326],[313.047218,487.849826],[314.796534,482.849826],[316.928968,483.237413],[317.482984,484.162326]]]},"properties":{"id":110179,"isRoute":null,"feat_type":"Landmark","selected":false,"aligned":false,"otype":"Polygon","missing":true}},{"type":"Feature","geometry":{"type":"Polygon","coordinates":[[[410.449881,242.849826],[403.827469,243.912326],[402.328055,238.724826],[403.39014,238.224826],[401.578348,233.474826],[407.825906,231.787326],[410.449881,242.849826]]]},"properties":{"id":110180,"isRoute":null,"feat_type":"Landmark","selected":false,"aligned":false,"otype":"Polygon","missing":true}},{"type":"Feature","geometry":{"type":"Polygon","coordinates":[[[434.518317,146.907987],[407.029059,125.282987],[445.763923,81.907987],[472.503474,103.032987],[460.38321,119.032987],[434.518317,146.907987]]]},"properties":{"id":110181,"isRoute":null,"feat_type":"Landmark","selected":false,"aligned":false,"otype":"Polygon","missing":true}},{"type":"Feature","geometry":{"type":"Polygon","coordinates":[[[726.902639,79.412326],[723.591433,77.474826],[719.905373,80.787326],[715.094753,85.349826],[720.030324,87.912326],[726.902639,79.412326]]]},"properties":{"id":110182,"isRoute":null,"feat_type":"Landmark","selected":false,"aligned":false,"otype":"Polygon","missing":true}},{"type":"Feature","geometry":{"type":"Polygon","coordinates":[[[790.955984,39.412326],[785.645559,34.099826],[774.58738,44.099826],[779.335525,48.599826],[790.955984,39.412326]]]},"properties":{"id":110183,"isRoute":null,"feat_type":"Landmark","selected":false,"aligned":false,"otype":"Polygon","missing":true}},{"type":"Feature","geometry":{"type":"Polygon","coordinates":[[[354.235478,511.912326],[344.114433,504.349826],[349.549809,497.287326],[360.108184,504.287326],[354.235478,511.912326]]]},"properties":{"id":110184,"isRoute":null,"feat_type":"Landmark","selected":false,"aligned":false,"otype":"Polygon","missing":true}},{"type":"Feature","geometry":{"type":"Polygon","coordinates":[[[373.60291,504.974826],[368.042583,500.724826],[370.604082,497.912326],[376.289361,502.037326],[373.60291,504.974826]]]},"properties":{"id":110185,"isRoute":null,"feat_type":"Landmark","selected":false,"aligned":false,"otype":"Polygon","missing":true}}]}