{"type":"FeatureCollection","features":[{"type":"Feature","geometry":{"type":"LineString","coordinates":[[802,303.685309],[710,299.805369],[654,303.808352],[589,295.802386],[546,298.804623],[418,286.795675]]},"properties":{"mapType":"Sketch","genType3":"Multi-MultiOmissionMerge","SketchRouteSeqOrder":null,"aligned":true,"feat_type":null,"id":"G9","isRoute":null,"otype":"Line","selected":false,"sid":"S19","group":true,"groupID":"9","gen_id":"g.48.52.53.55.59.65.113.115"}},{"type":"Feature","geometry":{"type":"MultiLineString","coordinates":[[[710,299.805369],[710,222.747949]],[[589,295.802386],[593,224.749441]]]},"properties":{"mapType":"Sketch","genType3":"Others","SketchRouteSeqOrder":null,"aligned":true,"feat_type":null,"id":"G10","isRoute":null,"otype":"Line","selected":false,"sid":"S16","group":true,"groupID":"10","gen_id":"g.38.54.116"}},{"type":"Feature","geometry":{"type":"MultiLineString","coordinates":[[[546,298.804623],[539,354.846383]],[[654,303.808352],[657,375.862043]]]},"properties":{"mapType":"Sketch","genType3":"Others","SketchRouteSeqOrder":null,"aligned":true,"feat_type":null,"id":"G11","isRoute":null,"otype":"Line","selected":false,"sid":"S18","group":true,"groupID":"11","gen_id":"g.40.49.51.57.60.114"}},{"id":"0","type":"Feature","properties":{"SketchRouteSeqOrder":null,"aligned":true,"feat_type":null,"id":"0","isRoute":null,"otype":"Line","selected":false,"sid":"S0","mapType":"Sketch","gen_id":"g.32"},"geometry":{"type":"LineString","coordinates":[[244,414.835943],[228,576.956749]]}},{"id":"1","type":"Feature","properties":{"SketchRouteSeqOrder":null,"aligned":true,"feat_type":null,"id":"4","isRoute":null,"otype":"Line","selected":false,"sid":"S4","mapType":"Sketch","gen_id":"g.46"},"geometry":{"type":"LineString","coordinates":[[811,483.819538],[814,567.882177]]}},{"id":"2","type":"Feature","properties":{"SketchRouteSeqOrder":11,"aligned":true,"feat_type":null,"id":"5","isRoute":"Yes","otype":"Line","selected":false,"sid":"S5","mapType":"Sketch","gen_id":"g.63.64"},"geometry":{"type":"LineString","coordinates":[[811,483.819538],[802,303.685309]]}},{"id":"12","type":"Feature","properties":{"SketchRouteSeqOrder":12,"aligned":true,"feat_type":null,"id":"20","isRoute":"Yes","otype":"Line","selected":false,"sid":"S20","mapType":"Sketch","gen_id":"g.66"},"geometry":{"type":"LineString","coordinates":[[802,303.685309],[799,118.670395]]}},{"id":"13","type":"Feature","properties":{"SketchRouteSeqOrder":13,"aligned":true,"feat_type":null,"id":"21","isRoute":"Yes","otype":"Line","selected":false,"sid":"S21","mapType":"Sketch","gen_id":"g.68"},"geometry":{"type":"LineString","coordinates":[[799,118.670395],[803,12.793438]]}},{"id":"14","type":"Feature","properties":{"SketchRouteSeqOrder":null,"aligned":true,"feat_type":null,"id":"22","isRoute":null,"otype":"Line","selected":false,"sid":"S22","mapType":"Sketch","gen_id":"g.26.36.37.67"},"geometry":{"type":"LineString","coordinates":[[799,118.670395],[588,94.670395],[405,105.678598],[251,128.695749],[172,165.723341],[144,213.759135]]}},{"id":"15","type":"Feature","properties":{"SketchRouteSeqOrder":null,"aligned":true,"feat_type":null,"id":"23","isRoute":null,"otype":"Line","selected":false,"sid":"S23","mapType":"Sketch","gen_id":"g.21"},"geometry":{"type":"LineString","coordinates":[[144,213.759135],[32,81.637584]]}},{"id":"16","type":"Feature","properties":{"SketchRouteSeqOrder":null,"aligned":true,"feat_type":null,"id":"24","isRoute":null,"otype":"Line","selected":false,"sid":"S24","mapType":"Sketch","gen_id":"g.6.19"},"geometry":{"type":"LineString","coordinates":[[144,213.759135],[121,269.777778],[95,388.866518]]}},{"id":"17","type":"Feature","properties":{"SketchRouteSeqOrder":4,"aligned":true,"feat_type":null,"id":"25","isRoute":"Yes","otype":"Line","selected":false,"sid":"S25","mapType":"Sketch","gen_id":"g.4.31"},"geometry":{"type":"LineString","coordinates":[[95,388.866518],[244,414.835943]]}},{"id":"18","type":"Feature","properties":{"SketchRouteSeqOrder":1,"aligned":true,"feat_type":null,"id":"26","isRoute":"Yes","otype":"Line","selected":false,"sid":"S26","mapType":"Sketch","gen_id":"g.0"},"geometry":{"type":"LineString","coordinates":[[44,509.871738],[95,388.866518]]}},{"id":"19","type":"Feature","properties":{"SketchRouteSeqOrder":9,"aligned":true,"feat_type":null,"id":"30","isRoute":"Yes","otype":"Line","selected":false,"sid":"S30","mapType":"Sketch","gen_id":"g.33.39.41.43.45"},"geometry":{"type":"LineString","coordinates":[[244,414.835943],[314,420.766592],[490,427.771812],[597,437.779269],[727,467.801641],[811,483.819538]]}},{"type":"Feature","properties":{"id":"1","sid":"S1","isRoute":null,"feat_type":"Landmark","selected":false,"aligned":true,"otype":"Polygon","mapType":"Sketch","gen_id":"g.71"},"geometry":{"type":"Polygon","coordinates":[[[254,549.936614],[286,562.946309],[323,566.949292],[347,513.909769],[340,474.880686],[285,462.871738],[264,463.872483],[258,502.901566],[254,549.936614]]]}},{"type":"Feature","properties":{"id":"6","sid":"S6","isRoute":null,"feat_type":"Landmark","selected":false,"aligned":true,"otype":"Polygon","mapType":"Sketch","gen_id":"g.107"},"geometry":{"type":"Polygon","coordinates":[[[399,399.756898],[460,405.761372],[463,311.691275],[409,307.688292],[399,399.756898]]]}},{"type":"Feature","properties":{"id":"7","sid":"S7","isRoute":null,"feat_type":"Landmark","selected":false,"aligned":true,"otype":"Polygon","mapType":"Sketch","gen_id":"g.108"},"geometry":{"type":"Polygon","coordinates":[[[407,267.658464],[464,273.662938],[460,143.565996],[412,142.56525],[407,267.658464]]]}},{"type":"Feature","properties":{"id":"9","sid":"S9","isRoute":null,"feat_type":"Landmark","selected":false,"aligned":true,"otype":"Polygon","mapType":"Sketch","gen_id":"g.110"},"geometry":{"type":"Polygon","coordinates":[[[769,218.821029],[761.5,209.814318],[766.5,202.809098],[763.5,183.794929],[782.5,186.797166],[787,207.812826],[769,218.821029]]]}},{"type":"Feature","properties":{"id":"10","sid":"S10","isRoute":null,"feat_type":"Landmark","selected":false,"aligned":true,"otype":"Polygon","mapType":"Sketch","gen_id":"g.109"},"geometry":{"type":"Polygon","coordinates":[[[473.5,180.341536],[493,190.348993],[511.5,180.841909],[514.5,152.821029],[496.5,133.806861],[474,143.313945],[473.5,180.341536]]]}},{"type":"Feature","properties":{"id":"27","sid":"S27","isRoute":null,"feat_type":"Landmark","selected":false,"aligned":true,"otype":"Polygon","mapType":"Sketch","gen_id":"g.73.75.79.81.83.85.87.89.91.93.95.101.102.103.104.105.106"},"geometry":{"type":"Polygon","coordinates":[[[392,288.679344],[388,162.585384],[309,152.577927],[216,179.598061],[170,231.636838],[140,298.686801],[123,375.398956],[259.5,391.410887],[376.5,398.91648],[392,288.679344]]]}}]}