{"type":"FeatureCollection","features":[{"id":"0","type":"Feature","properties":{"SketchRouteSeqOrder":null,"aligned":true,"feat_type":null,"id":"0","isRoute":null,"otype":"Line","selected":false,"sid":"S0","mapType":"Sketch","gen_id":"g.21"},"geometry":{"type":"LineString","coordinates":[[196,50.564504],[152,192.670395]]}},{"id":"1","type":"Feature","properties":{"SketchRouteSeqOrder":null,"aligned":true,"feat_type":null,"id":"1","isRoute":null,"otype":"Line","selected":false,"sid":"S1","mapType":"Sketch","gen_id":"g.26.36.37.67"},"geometry":{"type":"LineString","coordinates":[[152,192.670395],[732,188.667412]]}},{"id":"2","type":"Feature","properties":{"SketchRouteSeqOrder":null,"aligned":true,"feat_type":null,"id":"5","isRoute":null,"otype":"Line","selected":false,"sid":"S5","mapType":"Sketch","gen_id":"g.48.52.53.55.59.65.113.115"},"geometry":{"type":"LineString","coordinates":[[331.5,296.84601],[509.5,313.858688],[686,338.752424]]}},{"id":"3","type":"Feature","properties":{"SketchRouteSeqOrder":null,"aligned":true,"feat_type":null,"id":"6","isRoute":null,"otype":"Line","selected":false,"sid":"S6","mapType":"Sketch","gen_id":"g.6.19"},"geometry":{"type":"LineString","coordinates":[[152,192.670395],[94,334.749441]]}},{"id":"4","type":"Feature","properties":{"SketchRouteSeqOrder":1,"aligned":true,"feat_type":null,"id":"7","isRoute":"Yes","otype":"Line","selected":false,"sid":"S7","mapType":"Sketch","gen_id":"g.0"},"geometry":{"type":"LineString","coordinates":[[54,471.851603],[48,470.850858],[94,334.749441]]}},{"id":"5","type":"Feature","properties":{"SketchRouteSeqOrder":4,"aligned":true,"feat_type":null,"id":"8","isRoute":"Yes","otype":"Line","selected":false,"sid":"S8","mapType":"Sketch","gen_id":"g.4.31"},"geometry":{"type":"LineString","coordinates":[[94,334.749441],[245,379.356823]]}},{"id":"6","type":"Feature","properties":{"SketchRouteSeqOrder":null,"aligned":true,"feat_type":null,"id":"10","isRoute":null,"otype":"Line","selected":false,"sid":"S10","mapType":"Sketch","gen_id":"g.32"},"geometry":{"type":"LineString","coordinates":[[245,379.356823],[207,515.45824]]}},{"id":"7","type":"Feature","properties":{"SketchRouteSeqOrder":9,"aligned":true,"feat_type":null,"id":"12","isRoute":"Yes","otype":"Line","selected":false,"sid":"S12","mapType":"Sketch","gen_id":"g.33.39.41.43.45"},"geometry":{"type":"LineString","coordinates":[[245,379.356823],[657,484.785981]]}},{"id":"8","type":"Feature","properties":{"SketchRouteSeqOrder":12,"aligned":true,"feat_type":null,"id":"17","isRoute":"Yes","otype":"Line","selected":false,"sid":"S17","mapType":"Sketch","gen_id":"g.66"},"geometry":{"type":"LineString","coordinates":[[686,338.752424],[732,188.667412]]}},{"id":"9","type":"Feature","properties":{"SketchRouteSeqOrder":11,"aligned":true,"feat_type":null,"id":"18","isRoute":"Yes","otype":"Line","selected":false,"sid":"S18","mapType":"Sketch","gen_id":"g.63.64"},"geometry":{"type":"LineString","coordinates":[[657,484.785981],[686,338.752424]]}},{"id":"10","type":"Feature","properties":{"SketchRouteSeqOrder":null,"aligned":true,"feat_type":null,"id":"19","isRoute":null,"otype":"Line","selected":false,"sid":"S19","mapType":"Sketch","gen_id":"g.46"},"geometry":{"type":"LineString","coordinates":[[657,484.785981],[649,577.991797]]}},{"id":"11","type":"Feature","properties":{"SketchRouteSeqOrder":13,"aligned":true,"feat_type":null,"id":"20","isRoute":"Yes","otype":"Line","selected":false,"sid":"S20","mapType":"Sketch","gen_id":"g.68"},"geometry":{"type":"LineString","coordinates":[[732,188.667412],[762,44.594333]]}},{"type":"Feature","properties":{"id":"2","sid":"S2","isRoute":null,"feat_type":"Landmark","selected":false,"aligned":true,"otype":"Polygon","mapType":"Sketch","gen_id":"g.73.75.77.79.81.83.85.87.89.91.93.95.101.102.103.104.105.106"},"geometry":{"type":"Polygon","coordinates":[[[140,319.765101],[228,353.790455],[257,344.783743],[283,225.695004],[248,214.686801],[178,212.685309],[140,319.765101]]]}},{"type":"Feature","properties":{"id":"3","sid":"S3","isRoute":null,"feat_type":"Landmark","selected":false,"aligned":true,"otype":"Polygon","mapType":"Sketch","gen_id":"g.108"},"geometry":{"type":"Polygon","coordinates":[[[306,283.738255],[359,285.739746],[348,228.697241],[335,212.685309],[315,232.700224],[306,283.738255]]]}},{"type":"Feature","properties":{"id":"4","sid":"S4","isRoute":null,"feat_type":"Landmark","selected":false,"aligned":true,"otype":"Polygon","mapType":"Sketch","gen_id":"g.107"},"geometry":{"type":"Polygon","coordinates":[[[308,304.753915],[353,308.756898],[334,373.805369],[309,384.813572],[295,371.803878],[297,355.890007],[308,304.753915]]]}},{"type":"Feature","properties":{"id":"9","sid":"S9","isRoute":null,"feat_type":"Landmark","selected":false,"aligned":true,"otype":"Polygon","mapType":"Sketch","gen_id":"g.71"},"geometry":{"type":"Polygon","coordinates":[[[236,478.931022],[297.5,492.941462],[321,427.392617],[265,405.376212],[236,478.931022]]]}},{"type":"Feature","properties":{"id":"15","sid":"S15","isRoute":null,"feat_type":"Landmark","selected":false,"aligned":true,"otype":"Polygon","mapType":"Sketch","gen_id":"g.110"},"geometry":{"type":"Polygon","coordinates":[[[661,248.728561],[703,253.732289],[701,229.714392],[670,226.712155],[661,248.728561]]]}},{"type":"Feature","properties":{"id":"16","sid":"S16","isRoute":null,"feat_type":"Landmark","selected":false,"aligned":true,"otype":"Polygon","mapType":"Sketch","gen_id":"g.109"},"geometry":{"type":"Polygon","coordinates":[[[366,233.860179],[393,237.863162],[389,219.349366],[369,209.341909],[358,211.3434],[366,233.860179]]]}}]}