{"type":"FeatureCollection","features":[{"type":"Feature","geometry":{"type":"LineString","coordinates":[[492,313.792692],[530,314.793438],[587,311.791201],[641,311.791201],[682,310.790455],[768,318.796421]]},"properties":{"mapType":"Sketch","genType3":"Multi-MultiOmissionMerge","SketchRouteSeqOrder":null,"aligned":true,"feat_type":null,"id":"G9","isRoute":null,"otype":"Line","selected":false,"sid":"S28","group":true,"groupID":"9","gen_id":"g.48.52.53.55.59.65.113.115"}},{"type":"Feature","geometry":{"type":"MultiLineString","coordinates":[[[530,314.793438],[524,385.846383]],[[641,311.791201],[637,384.845638]]]},"properties":{"mapType":"Sketch","genType3":"Others","SketchRouteSeqOrder":null,"aligned":true,"feat_type":null,"id":"G10","isRoute":null,"otype":"Line","selected":false,"sid":"S25","group":true,"groupID":"10","gen_id":"g.40.49.51.57.60.114"}},{"type":"Feature","geometry":{"type":"MultiLineString","coordinates":[[[682,310.790455],[686,238.736764]],[[587,311.791201],[585,243.740492]]]},"properties":{"mapType":"Sketch","genType3":"Others","SketchRouteSeqOrder":null,"aligned":true,"feat_type":null,"id":"G19","isRoute":null,"otype":"Line","selected":false,"sid":"S27","group":true,"groupID":"19","gen_id":"g.38.54.116"}},{"type":"Feature","geometry":{"type":"MultiPolygon","coordinates":[[[[162,379.750932],[166,347.727069],[220,351.730052],[214,380.751678],[162,379.750932]]],[[[240,400.766592],[245,368.742729],[292,367.741984],[303,374.747204],[301.5,386.382177],[294.5,408.898956],[240,400.766592]]],[[[177,318.331469],[212.5,334.3434],[228,312.326995],[226,303.320283],[187.75,292.902312],[177,318.331469]]],[[[256.5,340.875466],[295.5,348.381059],[317.5,325.363908],[261.5,313.855332],[256.5,340.875466]]],[[[339,419.934377],[368,424.437733],[375.5,395.91648],[345.5,389.411633],[339,419.934377]]],[[[197.5,271.323639],[233.5,278.829232],[231.5,246.805369],[203.5,243.302759],[197.5,271.323639]]],[[[261.5,253.310216],[302.5,256.312453],[303,226.290082],[266.5,219.284862],[261.5,253.310216]]],[[[194.5,224.288591],[227.5,225.789709],[237,200.270694],[207,192.264728],[194.5,224.288591]]],[[[328.5,367.395227],[352,368.395973],[357,340.875466],[327,339.87472],[328.5,367.395227]]],[[[320.5,311.85384],[359.5,313.354959],[356.5,271.824012],[319.5,277.328113],[320.5,311.85384]]],[[[326.5,248.306488],[351.5,247.305742],[364,221.286353],[331.5,212.279642],[326.5,248.306488]]],[[[379.5,335.371365],[396.5,333.870246],[405,312.354213],[376,308.851603],[379.5,335.371365]]]]},"properties":{"mapType":"Sketch","id":"G4","sid":"S15","isRoute":null,"feat_type":"Landmark","selected":false,"aligned":true,"otype":"Polygon","group":true,"groupID":"4","gen_id":"g.73.75.77.79.81.83.85.87.89.91.93.95.101.102.103.104.105.106"}},{"id":"0","type":"Feature","properties":{"SketchRouteSeqOrder":null,"aligned":true,"feat_type":null,"group":null,"groupID":null,"id":"0","isRoute":null,"otype":"Line","selected":false,"sid":"S0","mapType":"Sketch","gen_id":"g.21"},"geometry":{"type":"LineString","coordinates":[[151,169.653244],[84,116.613721]]}},{"id":"1","type":"Feature","properties":{"SketchRouteSeqOrder":1,"aligned":true,"feat_type":null,"group":null,"groupID":null,"id":"2","isRoute":"Yes","otype":"Line","selected":false,"sid":"S2","mapType":"Sketch","gen_id":"g.0"},"geometry":{"type":"LineString","coordinates":[[29,479.825503],[127,408.831469]]}},{"id":"2","type":"Feature","properties":{"SketchRouteSeqOrder":null,"aligned":true,"feat_type":null,"group":null,"groupID":null,"id":"3","isRoute":null,"otype":"Line","selected":false,"sid":"S3","mapType":"Sketch","gen_id":"g.6.19"},"geometry":{"type":"LineString","coordinates":[[127,408.831469],[151,169.653244]]}},{"id":"3","type":"Feature","properties":{"SketchRouteSeqOrder":null,"aligned":true,"feat_type":null,"group":null,"groupID":null,"id":"19","isRoute":null,"otype":"Line","selected":false,"sid":"S19","mapType":"Sketch","gen_id":"g.26.36.37.67"},"geometry":{"type":"LineString","coordinates":[[151,169.653244],[766,171.686801]]}},{"id":"13","type":"Feature","properties":{"SketchRouteSeqOrder":13,"aligned":true,"feat_type":null,"group":null,"groupID":null,"id":"30","isRoute":"Yes","otype":"Line","selected":false,"sid":"S30","mapType":"Sketch","gen_id":"g.68"},"geometry":{"type":"LineString","coordinates":[[766,171.686801],[772,98.255406]]}},{"id":"14","type":"Feature","properties":{"SketchRouteSeqOrder":11,"aligned":true,"feat_type":null,"group":null,"groupID":null,"id":"32","isRoute":"Yes","otype":"Line","selected":false,"sid":"S32","mapType":"Sketch","gen_id":"g.63.64"},"geometry":{"type":"LineString","coordinates":[[771,476.927666],[768,318.796421]]}},{"id":"15","type":"Feature","properties":{"SketchRouteSeqOrder":12,"aligned":true,"feat_type":null,"group":null,"groupID":null,"id":"33","isRoute":"Yes","otype":"Line","selected":false,"sid":"S33","mapType":"Sketch","gen_id":"g.66"},"geometry":{"type":"LineString","coordinates":[[768,318.796421],[766,171.686801]]}},{"id":"16","type":"Feature","properties":{"SketchRouteSeqOrder":9,"aligned":true,"feat_type":null,"group":null,"groupID":null,"id":"34","isRoute":"Yes","otype":"Line","selected":false,"sid":"S34","mapType":"Sketch","gen_id":"g.33.39.41.43.45"},"geometry":{"type":"LineString","coordinates":[[289,438.735272],[354,445.740492],[557,467.756898],[771,476.927666]]}},{"id":"17","type":"Feature","properties":{"SketchRouteSeqOrder":null,"aligned":true,"feat_type":null,"group":null,"groupID":null,"id":"35","isRoute":null,"otype":"Line","selected":false,"sid":"S35","mapType":"Sketch","gen_id":"g.46"},"geometry":{"type":"LineString","coordinates":[[771,476.927666],[768,574.836689]]}},{"id":"18","type":"Feature","properties":{"SketchRouteSeqOrder":null,"aligned":true,"feat_type":null,"group":null,"groupID":null,"id":"36","isRoute":null,"otype":"Line","selected":false,"sid":"S36","mapType":"Sketch","gen_id":"g.32"},"geometry":{"type":"LineString","coordinates":[[289,438.735272],[275,570.833706]]}},{"id":"19","type":"Feature","properties":{"SketchRouteSeqOrder":4,"aligned":true,"feat_type":null,"group":null,"groupID":null,"id":"38","isRoute":"Yes","otype":"Line","selected":false,"sid":"S38","mapType":"Sketch","gen_id":"g.4.31"},"geometry":{"type":"LineString","coordinates":[[127,408.831469],[289,438.735272]]}},{"type":"Feature","properties":{"id":"16","sid":"S16","isRoute":null,"feat_type":"Landmark","selected":false,"aligned":true,"otype":"Polygon","mapType":"Sketch","gen_id":"g.108"},"geometry":{"type":"Polygon","coordinates":[[[411,301.876585],[413.5,306.690343],[470.5,307.378449],[476.5,262.845265],[471.5,232.322521],[454.5,223.816182],[438.5,199.798285],[431.5,191.291946],[413.5,196.295675],[409.5,215.810216],[413,258.341909],[411,301.876585]]]}},{"type":"Feature","properties":{"id":"17","sid":"S17","isRoute":null,"feat_type":"Landmark","selected":false,"aligned":true,"otype":"Polygon","mapType":"Sketch","gen_id":"g.107"},"geometry":{"type":"Polygon","coordinates":[[[413.5,323.890753],[467,323.890753],[468.5,380.432886],[462,426.467189],[430.5,432.972036],[401,427.467934],[399.5,399.947427],[409,353.412752],[413.5,323.890753]]]}},{"type":"Feature","properties":{"id":"18","sid":"S18","isRoute":null,"feat_type":"Landmark","selected":false,"aligned":true,"otype":"Polygon","mapType":"Sketch","gen_id":"g.109"},"geometry":{"type":"Polygon","coordinates":[[[465.25,221.411447],[477.5,223.913311],[488,233.670582],[496.75,231.919277],[497.25,217.408464],[496,201.146346],[484.75,196.142617],[475.75,193.89094],[466.5,204.899142],[465.25,221.411447]]]}},{"type":"Feature","properties":{"id":"29","sid":"S29","isRoute":null,"feat_type":"Landmark","selected":false,"aligned":true,"otype":"Polygon","mapType":"Sketch","gen_id":"g.110"},"geometry":{"type":"Polygon","coordinates":[[[729,250.869128],[746.5,257.373975],[746,225.350112],[728.5,221.347129],[729,250.869128]]]}},{"type":"Feature","properties":{"id":"37","sid":"S37","isRoute":null,"feat_type":"Landmark","selected":false,"aligned":true,"otype":"Polygon","mapType":"Sketch","gen_id":"g.71"},"geometry":{"type":"Polygon","coordinates":[[[300,552.425056],[365,546.920955],[365.5,471.865026],[304,464.359433],[300,552.425056]]]}}]}