{"type":"FeatureCollection","features":[{"id":"0","type":"Feature","properties":{"SketchRouteSeqOrder":null,"aligned":true,"feat_type":null,"group":null,"id":"3","isRoute":null,"otype":"Line","selected":false,"sid":"S3","mapType":"Sketch","gen_id":"g.40"},"geometry":{"type":"LineString","coordinates":[[420,440.991797],[429.5,297.384787]]}},{"id":"1","type":"Feature","properties":{"SketchRouteSeqOrder":null,"aligned":true,"feat_type":null,"group":null,"id":"4","isRoute":null,"otype":"Line","selected":false,"sid":"S4","mapType":"Sketch","gen_id":"g.38"},"geometry":{"type":"LineString","coordinates":[[429.5,297.384787],[440.5,157.780761]]}},{"id":"2","type":"Feature","properties":{"SketchRouteSeqOrder":null,"aligned":true,"feat_type":null,"group":null,"id":"6","isRoute":null,"otype":"Line","selected":false,"sid":"S6","mapType":"Sketch","gen_id":"g.37"},"geometry":{"type":"LineString","coordinates":[[440.5,157.780761],[412,153.817301],[325,159.321402]]}},{"id":"3","type":"Feature","properties":{"SketchRouteSeqOrder":null,"aligned":true,"feat_type":null,"group":null,"id":"7","isRoute":null,"otype":"Line","selected":false,"sid":"S7","mapType":"Sketch","gen_id":"g.30.35"},"geometry":{"type":"LineString","coordinates":[[325,159.321402],[308.5,288.444072]]}},{"id":"4","type":"Feature","properties":{"SketchRouteSeqOrder":null,"aligned":true,"feat_type":null,"group":null,"id":"8","isRoute":null,"otype":"Line","selected":false,"sid":"S8","mapType":"Sketch","gen_id":"g.113.115"},"geometry":{"type":"LineString","coordinates":[[308.5,288.444072],[429.5,297.384787]]}},{"id":"5","type":"Feature","properties":{"SketchRouteSeqOrder":6,"aligned":true,"feat_type":null,"group":null,"id":"9","isRoute":"Yes","otype":"Line","selected":false,"sid":"S9","mapType":"Sketch","gen_id":"g.39"},"geometry":{"type":"LineString","coordinates":[[299,423.894109],[420,440.991797]]}},{"id":"6","type":"Feature","properties":{"SketchRouteSeqOrder":null,"aligned":true,"feat_type":null,"group":null,"id":"10","isRoute":null,"otype":"Line","selected":false,"sid":"S10","mapType":"Sketch","gen_id":"g.17.34"},"geometry":{"type":"LineString","coordinates":[[299,423.894109],[308.5,288.444072]]}},{"id":"7","type":"Feature","properties":{"SketchRouteSeqOrder":5,"aligned":true,"feat_type":null,"group":null,"id":"11","isRoute":"Yes","otype":"Line","selected":false,"sid":"S11","mapType":"Sketch","gen_id":"g.33"},"geometry":{"type":"LineString","coordinates":[[213,414.887397],[299,423.894109]]}},{"id":"8","type":"Feature","properties":{"SketchRouteSeqOrder":null,"aligned":true,"feat_type":null,"group":null,"id":"13","isRoute":null,"otype":"Line","selected":false,"sid":"S13","mapType":"Sketch","gen_id":"g.32"},"geometry":{"type":"LineString","coordinates":[[213,414.887397],[203,569.889635]]}},{"id":"9","type":"Feature","properties":{"SketchRouteSeqOrder":4,"aligned":true,"feat_type":null,"group":null,"id":"14","isRoute":"Yes","otype":"Line","selected":false,"sid":"S14","mapType":"Sketch","gen_id":"g.4.31"},"geometry":{"type":"LineString","coordinates":[[91,386.753169],[213,414.887397]]}},{"id":"10","type":"Feature","properties":{"SketchRouteSeqOrder":null,"aligned":true,"feat_type":null,"group":null,"id":"15","isRoute":null,"otype":"Line","selected":false,"sid":"S15","mapType":"Sketch","gen_id":"g.6.19"},"geometry":{"type":"LineString","coordinates":[[91,386.753169],[143,201.615213]]}},{"id":"11","type":"Feature","properties":{"SketchRouteSeqOrder":1,"aligned":true,"feat_type":null,"group":null,"id":"16","isRoute":"Yes","otype":"Line","selected":false,"sid":"S16","mapType":"Sketch","gen_id":"g.0"},"geometry":{"type":"LineString","coordinates":[[27,488.829232],[91,386.753169]]}},{"id":"12","type":"Feature","properties":{"SketchRouteSeqOrder":null,"aligned":true,"feat_type":null,"group":null,"id":"17","isRoute":null,"otype":"Line","selected":false,"sid":"S17","mapType":"Sketch","gen_id":"g.21"},"geometry":{"type":"LineString","coordinates":[[143,201.615213],[35,128.782998]]}},{"id":"13","type":"Feature","properties":{"SketchRouteSeqOrder":null,"aligned":true,"feat_type":null,"group":null,"id":"18","isRoute":null,"otype":"Line","selected":false,"sid":"S18","mapType":"Sketch","gen_id":"g.26.36"},"geometry":{"type":"LineString","coordinates":[[143,201.615213],[234,174.692021],[325,159.321402]]}},{"id":"14","type":"Feature","properties":{"SketchRouteSeqOrder":7,"aligned":true,"feat_type":null,"group":null,"id":"19","isRoute":"Yes","otype":"Line","selected":false,"sid":"S19","mapType":"Sketch","gen_id":"g.41"},"geometry":{"type":"LineString","coordinates":[[420,440.991797],[449,443.835943]]}},{"id":"15","type":"Feature","properties":{"SketchRouteSeqOrder":8,"aligned":true,"feat_type":null,"group":null,"id":"20","isRoute":"Yes","otype":"Line","selected":false,"sid":"S20","mapType":"Sketch","gen_id":"g.43"},"geometry":{"type":"LineString","coordinates":[[449,443.835943],[603,502.87994],[724,527.898583]]}},{"id":"16","type":"Feature","properties":{"SketchRouteSeqOrder":null,"aligned":true,"feat_type":null,"group":null,"id":"21","isRoute":null,"otype":"Line","selected":false,"sid":"S21","mapType":"Sketch","gen_id":"g.42"},"geometry":{"type":"LineString","coordinates":[[449,443.835943],[448,422.820283],[510,426.823266]]}},{"id":"17","type":"Feature","properties":{"SketchRouteSeqOrder":null,"aligned":true,"feat_type":null,"group":null,"id":"22","isRoute":null,"otype":"Line","selected":false,"sid":"S22","mapType":"Sketch","gen_id":"g.49"},"geometry":{"type":"LineString","coordinates":[[510,426.823266],[518,299.728561]]}},{"id":"18","type":"Feature","properties":{"SketchRouteSeqOrder":null,"aligned":true,"feat_type":null,"group":null,"id":"23","isRoute":null,"otype":"Line","selected":false,"sid":"S23","mapType":"Sketch","gen_id":"g.48"},"geometry":{"type":"LineString","coordinates":[[518,299.728561],[429.5,297.384787]]}},{"id":"19","type":"Feature","properties":{"SketchRouteSeqOrder":null,"aligned":true,"feat_type":null,"group":null,"id":"24","isRoute":null,"otype":"Line","selected":false,"sid":"S24","mapType":"Sketch","gen_id":"g.67"},"geometry":{"type":"LineString","coordinates":[[440.5,157.780761],[665,171.651007],[798,187.662938]]}},{"id":"20","type":"Feature","properties":{"SketchRouteSeqOrder":null,"aligned":true,"feat_type":null,"group":null,"id":"25","isRoute":null,"otype":"Line","selected":false,"sid":"S25","mapType":"Sketch","gen_id":"g.50"},"geometry":{"type":"LineString","coordinates":[[510,426.823266],[587,436.851603]]}},{"id":"21","type":"Feature","properties":{"SketchRouteSeqOrder":null,"aligned":true,"feat_type":null,"group":null,"id":"26","isRoute":null,"otype":"Line","selected":false,"sid":"S26","mapType":"Sketch","gen_id":"g.51"},"geometry":{"type":"LineString","coordinates":[[587,436.851603],[593,303.752424]]}},{"id":"22","type":"Feature","properties":{"SketchRouteSeqOrder":null,"aligned":true,"feat_type":null,"group":null,"id":"27","isRoute":null,"otype":"Line","selected":false,"sid":"S27","mapType":"Sketch","gen_id":"g.52"},"geometry":{"type":"LineString","coordinates":[[593,303.752424],[518,299.728561]]}},{"id":"23","type":"Feature","properties":{"SketchRouteSeqOrder":null,"aligned":true,"feat_type":null,"group":null,"id":"28","isRoute":null,"otype":"Line","selected":false,"sid":"S28","mapType":"Sketch","gen_id":"g.53"},"geometry":{"type":"LineString","coordinates":[[593,303.752424],[632,300.757644]]}},{"id":"24","type":"Feature","properties":{"SketchRouteSeqOrder":null,"aligned":true,"feat_type":null,"group":null,"id":"29","isRoute":null,"otype":"Line","selected":false,"sid":"S29","mapType":"Sketch","gen_id":"g.54"},"geometry":{"type":"LineString","coordinates":[[632,300.757644],[646,203.304623]]}},{"id":"25","type":"Feature","properties":{"SketchRouteSeqOrder":null,"aligned":true,"feat_type":null,"group":null,"id":"30","isRoute":null,"otype":"Line","selected":false,"sid":"S30","mapType":"Sketch","gen_id":"g.55"},"geometry":{"type":"LineString","coordinates":[[632,300.757644],[657,308.478747]]}},{"id":"26","type":"Feature","properties":{"SketchRouteSeqOrder":null,"aligned":true,"feat_type":null,"group":null,"id":"31","isRoute":null,"otype":"Line","selected":false,"sid":"S31","mapType":"Sketch","gen_id":"g.57"},"geometry":{"type":"LineString","coordinates":[[657,308.478747],[647,445.893363]]}},{"id":"27","type":"Feature","properties":{"SketchRouteSeqOrder":null,"aligned":true,"feat_type":null,"group":null,"id":"32","isRoute":null,"otype":"Line","selected":false,"sid":"S32","mapType":"Sketch","gen_id":"g.59"},"geometry":{"type":"LineString","coordinates":[[657,308.478747],[733,308.740492]]}},{"id":"28","type":"Feature","properties":{"SketchRouteSeqOrder":null,"aligned":true,"feat_type":null,"group":null,"id":"33","isRoute":null,"otype":"Line","selected":false,"sid":"S33","mapType":"Sketch","gen_id":"g.60"},"geometry":{"type":"LineString","coordinates":[[733,308.740492],[727,461.854586]]}},{"id":"29","type":"Feature","properties":{"SketchRouteSeqOrder":null,"aligned":true,"feat_type":null,"group":null,"id":"34","isRoute":null,"otype":"Line","selected":false,"sid":"S34","mapType":"Sketch","gen_id":"g.56"},"geometry":{"type":"LineString","coordinates":[[587,436.851603],[647,445.893363]]}},{"id":"30","type":"Feature","properties":{"SketchRouteSeqOrder":null,"aligned":true,"feat_type":null,"group":null,"id":"35","isRoute":null,"otype":"Line","selected":false,"sid":"S35","mapType":"Sketch","gen_id":"g.58"},"geometry":{"type":"LineString","coordinates":[[647,445.893363],[727,461.854586]]}},{"id":"31","type":"Feature","properties":{"SketchRouteSeqOrder":null,"aligned":true,"feat_type":null,"group":null,"id":"36","isRoute":null,"otype":"Line","selected":false,"sid":"S36","mapType":"Sketch","gen_id":"g.44"},"geometry":{"type":"LineString","coordinates":[[727,461.854586],[724,527.898583]]}},{"id":"32","type":"Feature","properties":{"SketchRouteSeqOrder":9,"aligned":true,"feat_type":null,"group":null,"id":"37","isRoute":"Yes","otype":"Line","selected":false,"sid":"S37","mapType":"Sketch","gen_id":"g.45"},"geometry":{"type":"LineString","coordinates":[[724,527.898583],[774,534.909023]]}},{"id":"33","type":"Feature","properties":{"SketchRouteSeqOrder":null,"aligned":true,"feat_type":null,"group":null,"id":"38","isRoute":null,"otype":"Line","selected":false,"sid":"S38","mapType":"Sketch","gen_id":"g.46"},"geometry":{"type":"LineString","coordinates":[[774,534.909023],[776,600]]}},{"id":"34","type":"Feature","properties":{"SketchRouteSeqOrder":10,"aligned":true,"feat_type":null,"group":null,"id":"39","isRoute":"Yes","otype":"Line","selected":false,"sid":"S39","mapType":"Sketch","gen_id":"g.63"},"geometry":{"type":"LineString","coordinates":[[774,534.909023],[778,465.857569]]}},{"id":"35","type":"Feature","properties":{"SketchRouteSeqOrder":null,"aligned":true,"feat_type":null,"group":null,"id":"40","isRoute":null,"otype":"Line","selected":false,"sid":"S40","mapType":"Sketch","gen_id":"g.62"},"geometry":{"type":"LineString","coordinates":[[778,465.857569],[727,461.854586]]}},{"id":"36","type":"Feature","properties":{"SketchRouteSeqOrder":11,"aligned":true,"feat_type":null,"group":null,"id":"41","isRoute":"Yes","otype":"Line","selected":false,"sid":"S41","mapType":"Sketch","gen_id":"g.64"},"geometry":{"type":"LineString","coordinates":[[778,465.857569],[790,312.743475]]}},{"id":"37","type":"Feature","properties":{"SketchRouteSeqOrder":null,"aligned":true,"feat_type":null,"group":null,"id":"42","isRoute":null,"otype":"Line","selected":false,"sid":"S42","mapType":"Sketch","gen_id":"g.65"},"geometry":{"type":"LineString","coordinates":[[733,308.740492],[790,312.743475]]}},{"id":"38","type":"Feature","properties":{"SketchRouteSeqOrder":12,"aligned":true,"feat_type":null,"group":null,"id":"43","isRoute":"Yes","otype":"Line","selected":false,"sid":"S43","mapType":"Sketch","gen_id":"g.66"},"geometry":{"type":"LineString","coordinates":[[790,312.743475],[798,187.662938]]}},{"id":"39","type":"Feature","properties":{"SketchRouteSeqOrder":13,"aligned":true,"feat_type":null,"group":null,"id":"45","isRoute":"Yes","otype":"Line","selected":false,"sid":"S45","mapType":"Sketch","gen_id":"g.68"},"geometry":{"type":"LineString","coordinates":[[798,187.662938],[808,26.571961]]}},{"type":"Feature","properties":{"id":"1","sid":"S1","isRoute":null,"feat_type":"Landmark","selected":false,"aligned":true,"otype":"Polygon","mapType":"Sketch","gen_id":"g.107"},"geometry":{"type":"Polygon","coordinates":[[[363,395.821029],[375.5,302.841163],[317,295.33557],[306,364.887397],[308.5,402.915735],[340,411.422073],[356.5,409.420582],[363,395.821029]]]}},{"type":"Feature","properties":{"id":"2","sid":"S2","isRoute":null,"feat_type":"Landmark","selected":false,"aligned":true,"otype":"Polygon","mapType":"Sketch","gen_id":"g.108"},"geometry":{"type":"Polygon","coordinates":[[[321.5,279.871738],[373,285.375839],[387.5,185.301268],[383.5,176.294556],[369.5,174.293065],[345.5,176.794929],[334,180.797912],[330,201.813572],[321.5,279.871738]]]}},{"type":"Feature","properties":{"id":"5","sid":"S5","isRoute":null,"feat_type":"Landmark","selected":false,"aligned":true,"otype":"Polygon","mapType":"Sketch","gen_id":"g.109"},"geometry":{"type":"Polygon","coordinates":[[[394,199.163684],[398.5,206.669277],[410.75,206.41909],[418.25,202.416107],[421.75,192.40865],[421.5,178.39821],[417.75,172.14355],[405.5,172.643922],[396,174.145041],[394.25,183.902312],[394,199.163684]]]}},{"type":"Feature","properties":{"id":"12","sid":"S12","isRoute":null,"feat_type":"Landmark","selected":false,"aligned":true,"otype":"Polygon","mapType":"Sketch","gen_id":"g.71"},"geometry":{"type":"Polygon","coordinates":[[[229,549.988069],[259,550.988814],[284,548.987323],[297,534.976883],[301.5,517.975764],[300.5,451.426174],[289,442.919836],[265,437.916107],[237,438.916853],[226,453.928039],[228,490.95563],[228,524.480611],[229,549.988069]]]}},{"type":"Feature","properties":{"id":"44","sid":"S44","isRoute":null,"feat_type":"Landmark","selected":false,"aligned":true,"otype":"Polygon","mapType":"Sketch","gen_id":"g.110"},"geometry":{"type":"Polygon","coordinates":[[[747.5,249.863535],[756,258.369873],[778.5,257.369128],[778,230.849366],[752,230.348993],[747.5,249.863535]]]}},{"type":"Feature","properties":{"id":"46","sid":"S46","isRoute":null,"feat_type":"Landmark","selected":false,"aligned":true,"otype":"Polygon","mapType":"Sketch","gen_id":"g.73.75.77.79.81.83.85.87.89.91.93.95.101.102.103.104.105.106"},"geometry":{"type":"Polygon","coordinates":[[[129,363.797912],[235,387.815809],[284.5,394.412006],[309,183.755034],[170.5,209.274049],[129,363.797912]]]}}]}