{"type":"FeatureCollection","features":[{"type":"Feature","geometry":{"type":"MultiLineString","coordinates":[[[640.5,313.397911],[632,389.847104]],[[529.5,313.397911],[522,382.840456]]]},"properties":{"mapType":"Sketch","genType3":"Others","SketchRouteSeqOrder":null,"aligned":true,"feat_type":null,"id":"G18","isRoute":null,"otype":"Line","selected":false,"sid":"S18","group":true,"groupID":"18","gen_id":"g.40.49.51.57.60.114"}},{"type":"Feature","geometry":{"type":"MultiLineString","coordinates":[[[682,312.897436],[686,244.709402]],[[580.5,312.396961],[585,240.705603]]]},"properties":{"mapType":"Sketch","genType3":"Others","SketchRouteSeqOrder":null,"aligned":true,"feat_type":null,"id":"G19","isRoute":null,"otype":"Line","selected":false,"sid":"S19","group":true,"groupID":"19","gen_id":"g.38.54.116"}},{"type":"Feature","geometry":{"type":"LineString","coordinates":[[492,312.897436],[529.5,313.397911],[580.5,312.396961],[640.5,313.397911],[682,312.897436],[764,319.768281]]},"properties":{"mapType":"Sketch","genType3":"Multi-MultiOmissionMerge","SketchRouteSeqOrder":null,"aligned":true,"feat_type":null,"id":"G20","isRoute":null,"otype":"Line","selected":false,"sid":"S15","group":true,"groupID":"20","gen_id":"g.48.52.53.55.59.65.113.115"}},{"type":"Feature","geometry":{"type":"MultiPolygon","coordinates":[[[[206.5,382.415005],[177.5,383.916429],[157.5,380.91358],[159,353.887939],[164,349.383666],[214.5,351.88604],[213.5,370.904084],[206.5,382.415005]]],[[[297,409.440646],[240.5,400.432099],[244,377.410256],[254.5,370.904084],[304,374.407407],[297,409.440646]]],[[[367,423.954416],[344,423.453941],[335,414.445394],[338.5,394.426401],[349,390.422602],[377,395.927825],[367,423.954416]]],[[[215,328.864198],[203,328.864198],[179.5,319.355176],[175,309.345679],[184,294.331434],[208.5,295.332384],[230,302.339031],[224,318.354226],[215,328.864198]]],[[[298.5,343.878443],[274.5,345.880342],[256,341.876543],[256,328.864198],[257.5,318.354226],[280.5,314.850902],[309,317.353276],[318,320.8566],[298.5,343.878443]]],[[[354,372.905983],[324,372.905983],[322.5,363.396961],[324,345.880342],[329,338.373219],[356.5,338.873694],[360,346.881292],[354,372.905983]]],[[[357.75,313.430674],[343.25,314.431624],[323.5,312.679962],[318.5,303.671415],[319,282.150997],[323,275.644824],[352.75,272.1415],[356.5,275.644824],[358.75,295.41358],[357.75,313.430674]]],[[[379,336.702754],[377,322.439221],[375.25,313.430674],[377.25,308.926401],[401.75,308.926401],[401.5,318.435423],[399,330.196581],[393,335.701804],[379,336.702754]]],[[[231,276.849478],[207.5,273.846629],[196,270.84378],[199,258.331909],[202.5,246.320513],[216,243.818139],[232.5,243.317664],[235.5,259.833333],[231,276.849478]]],[[[300,255.829535],[268,255.829535],[260.5,249.823837],[260.5,232.307217],[262.5,220.796296],[284,220.796296],[301.5,224.800095],[300,255.829535]]],[[[229.5,222.798196],[216,227.302469],[194.5,223.29867],[198,206.783001],[203,191.768756],[229,194.771605],[236,197.273979],[229.5,222.798196]]],[[[354,246.320513],[328,248.822887],[326.5,230.805793],[326,213.789649],[341,209.78585],[365.5,220.796296],[354,246.320513]]]]},"properties":{"mapType":"Sketch","id":"G12","sid":"S31","isRoute":null,"feat_type":"Landmark","selected":false,"aligned":true,"otype":"Polygon","group":true,"groupID":"12","gen_id":"g.73.75.77.79.81.83.85.87.89.91.93.95.101.102.103.104.105.106"}},{"id":"0","type":"Feature","properties":{"SketchRouteSeqOrder":1,"aligned":true,"feat_type":null,"group":null,"groupID":null,"id":"0","isRoute":"Yes","otype":"Line","selected":false,"sid":"S0","mapType":"Sketch","gen_id":"g.0"},"geometry":{"type":"LineString","coordinates":[[33,480.922127],[136,406.851852]]}},{"id":"1","type":"Feature","properties":{"SketchRouteSeqOrder":null,"aligned":true,"feat_type":null,"group":null,"groupID":null,"id":"1","isRoute":null,"otype":"Line","selected":false,"sid":"S1","mapType":"Sketch","gen_id":"g.6.19"},"geometry":{"type":"LineString","coordinates":[[136,406.851852],[149,168.625831]]}},{"id":"2","type":"Feature","properties":{"SketchRouteSeqOrder":null,"aligned":true,"feat_type":null,"group":null,"groupID":null,"id":"2","isRoute":null,"otype":"Line","selected":false,"sid":"S2","mapType":"Sketch","gen_id":"g.21"},"geometry":{"type":"LineString","coordinates":[[149,168.625831],[25,76.538462]]}},{"id":"3","type":"Feature","properties":{"SketchRouteSeqOrder":4,"aligned":true,"feat_type":null,"group":null,"groupID":null,"id":"3","isRoute":"Yes","otype":"Line","selected":false,"sid":"S3","mapType":"Sketch","gen_id":"g.4.31"},"geometry":{"type":"LineString","coordinates":[[136,406.851852],[286,440.884141]]}},{"id":"4","type":"Feature","properties":{"SketchRouteSeqOrder":null,"aligned":true,"feat_type":null,"group":null,"groupID":null,"id":"4","isRoute":null,"otype":"Line","selected":false,"sid":"S4","mapType":"Sketch","gen_id":"g.32"},"geometry":{"type":"LineString","coordinates":[[276,561.99905],[286,440.884141]]}},{"id":"5","type":"Feature","properties":{"SketchRouteSeqOrder":9,"aligned":true,"feat_type":null,"group":null,"groupID":null,"id":"5","isRoute":"Yes","otype":"Line","selected":false,"sid":"S5","mapType":"Sketch","gen_id":"g.33.39.41.43.45"},"geometry":{"type":"LineString","coordinates":[[286,440.884141],[398,454.896486],[574,472.91358],[763,468.909782]]}},{"id":"6","type":"Feature","properties":{"SketchRouteSeqOrder":null,"aligned":true,"feat_type":null,"group":null,"groupID":null,"id":"6","isRoute":null,"otype":"Line","selected":false,"sid":"S6","mapType":"Sketch","gen_id":"g.46"},"geometry":{"type":"LineString","coordinates":[[763,468.909782],[767,561.998101]]}},{"id":"7","type":"Feature","properties":{"SketchRouteSeqOrder":null,"aligned":true,"feat_type":null,"group":null,"groupID":null,"id":"7","isRoute":null,"otype":"Line","selected":false,"sid":"S7","mapType":"Sketch","gen_id":"g.26.36.37.67"},"geometry":{"type":"LineString","coordinates":[[149,168.625831],[461,167.623932],[762,163.620133]]}},{"id":"8","type":"Feature","properties":{"SketchRouteSeqOrder":11,"aligned":true,"feat_type":null,"group":null,"groupID":null,"id":"8","isRoute":"Yes","otype":"Line","selected":false,"sid":"S8","mapType":"Sketch","gen_id":"g.63.64"},"geometry":{"type":"LineString","coordinates":[[763,468.909782],[764,319.768281]]}},{"id":"9","type":"Feature","properties":{"SketchRouteSeqOrder":12,"aligned":true,"feat_type":null,"group":null,"groupID":null,"id":"9","isRoute":"Yes","otype":"Line","selected":false,"sid":"S9","mapType":"Sketch","gen_id":"g.66"},"geometry":{"type":"LineString","coordinates":[[764,319.768281],[762,163.620133]]}},{"id":"10","type":"Feature","properties":{"SketchRouteSeqOrder":13,"aligned":true,"feat_type":null,"group":null,"groupID":null,"id":"10","isRoute":"Yes","otype":"Line","selected":false,"sid":"S10","mapType":"Sketch","gen_id":"g.68"},"geometry":{"type":"LineString","coordinates":[[762,163.620133],[772,48.510921]]}},{"type":"Feature","properties":{"id":"33","sid":"S33","isRoute":null,"feat_type":"Landmark","selected":false,"aligned":true,"otype":"Polygon","mapType":"Sketch","gen_id":"g.107"},"geometry":{"type":"Polygon","coordinates":[[[470,322.763533],[414,321.37227],[402.5,393.440646],[400,425.97151],[409,429.474834],[449.5,428.974359],[460.5,422.968661],[467.5,402.949668],[470,322.763533]]]}},{"type":"Feature","properties":{"id":"34","sid":"S34","isRoute":null,"feat_type":"Landmark","selected":false,"aligned":true,"otype":"Polygon","mapType":"Sketch","gen_id":"g.108"},"geometry":{"type":"Polygon","coordinates":[[[471,302.854701],[411,303.355176],[411.5,253.307692],[409.5,218.774929],[414,197.254511],[431,191.248813],[445,203.760684],[456.5,224.780627],[470,226.282051],[478.5,260.814815],[471,302.854701]]]}},{"type":"Feature","properties":{"id":"35","sid":"S35","isRoute":null,"feat_type":"Landmark","selected":false,"aligned":true,"otype":"Polygon","mapType":"Sketch","gen_id":"g.109"},"geometry":{"type":"Polygon","coordinates":[[[490.5,233.445869],[483,229.44207],[477.25,224.187085],[463.75,220.433523],[462.75,212.676163],[475.75,194.158594],[492.25,197.411681],[497,202.916904],[496.25,217.430674],[497,225.938746],[496.75,230.693257],[490.5,233.445869]]]}},{"type":"Feature","properties":{"id":"36","sid":"S36","isRoute":null,"feat_type":"Landmark","selected":false,"aligned":true,"otype":"Polygon","mapType":"Sketch","gen_id":"g.110"},"geometry":{"type":"Polygon","coordinates":[[[748.5,256.888889],[723,253.88604],[729,221.355176],[749.5,223.85755],[748.5,256.888889]]]}},{"type":"Feature","properties":{"id":"37","sid":"S37","isRoute":null,"feat_type":"Landmark","selected":false,"aligned":true,"otype":"Polygon","mapType":"Sketch","gen_id":"g.71"},"geometry":{"type":"Polygon","coordinates":[[[362,544.530389],[366.5,528.01472],[365,474.964387],[361,469.459164],[308,464.954891],[295.5,550.536087],[330,550.536087],[351.5,552.037512],[362,544.530389]]]}}]}