{"type":"FeatureCollection","features":[{"type":"Feature","geometry":{"type":"LineString","coordinates":[[436,289.644824],[543,296.651472],[591,294.649573],[655,301.65622],[707,299.654321],[808,306.756885]]},"properties":{"mapType":"Sketch","genType3":"Multi-MultiOmissionMerge","SketchRouteSeqOrder":null,"aligned":true,"feat_type":null,"id":"G18","isRoute":null,"otype":"Line","selected":false,"sid":"S20","group":true,"groupID":"18","gen_id":"g.48.52.53.55.59.65.113.115"}},{"type":"Feature","geometry":{"type":"MultiLineString","coordinates":[[[543,296.651472],[541,361.7132]],[[655,301.65622],[655,360.712251]]]},"properties":{"mapType":"Sketch","genType3":"Others","SketchRouteSeqOrder":null,"aligned":true,"feat_type":null,"id":"G19","isRoute":null,"otype":"Line","selected":false,"sid":"S17","group":true,"groupID":"19","gen_id":"g.40.49.51.57.60.114"}},{"type":"Feature","geometry":{"type":"MultiLineString","coordinates":[[[707,299.654321],[708,220.579297]],[[591,294.649573],[591,221.580247]]]},"properties":{"mapType":"Sketch","genType3":"Others","SketchRouteSeqOrder":null,"aligned":true,"feat_type":null,"id":"G20","isRoute":null,"otype":"Line","selected":false,"sid":"S19","group":true,"groupID":"20","gen_id":"g.38.54.116"}},{"id":"0","type":"Feature","properties":{"SketchRouteSeqOrder":1,"aligned":true,"feat_type":null,"group":null,"groupID":null,"id":"0","isRoute":"Yes","otype":"Line","selected":false,"sid":"S0","mapType":"Sketch","gen_id":"g.0"},"geometry":{"type":"LineString","coordinates":[[53,488.929725],[92,394.840456]]}},{"id":"1","type":"Feature","properties":{"SketchRouteSeqOrder":4,"aligned":true,"feat_type":null,"group":null,"groupID":null,"id":"1","isRoute":"Yes","otype":"Line","selected":false,"sid":"S1","mapType":"Sketch","gen_id":"g.4.31"},"geometry":{"type":"LineString","coordinates":[[92,394.840456],[243,408.853751]]}},{"id":"2","type":"Feature","properties":{"SketchRouteSeqOrder":null,"aligned":true,"feat_type":null,"group":null,"groupID":null,"id":"2","isRoute":null,"otype":"Line","selected":false,"sid":"S2","mapType":"Sketch","gen_id":"g.32"},"geometry":{"type":"LineString","coordinates":[[243,408.853751],[230,575.011396]]}},{"id":"3","type":"Feature","properties":{"SketchRouteSeqOrder":9,"aligned":true,"feat_type":null,"group":null,"groupID":null,"id":"3","isRoute":"Yes","otype":"Line","selected":false,"sid":"S3","mapType":"Sketch","gen_id":"g.33.39.41.43.45"},"geometry":{"type":"LineString","coordinates":[[243,408.853751],[404,423.867996],[559,425.869896],[702,462.905033],[809,478.920228]]}},{"id":"4","type":"Feature","properties":{"SketchRouteSeqOrder":null,"aligned":true,"feat_type":null,"group":null,"groupID":null,"id":"4","isRoute":null,"otype":"Line","selected":false,"sid":"S4","mapType":"Sketch","gen_id":"g.46"},"geometry":{"type":"LineString","coordinates":[[809,478.920228],[812,566.002849]]}},{"id":"5","type":"Feature","properties":{"SketchRouteSeqOrder":11,"aligned":true,"feat_type":null,"group":null,"groupID":null,"id":"5","isRoute":"Yes","otype":"Line","selected":false,"sid":"S5","mapType":"Sketch","gen_id":"g.63.64"},"geometry":{"type":"LineString","coordinates":[[809,478.920228],[808,306.756885]]}},{"id":"6","type":"Feature","properties":{"SketchRouteSeqOrder":12,"aligned":true,"feat_type":null,"group":null,"groupID":null,"id":"6","isRoute":"Yes","otype":"Line","selected":false,"sid":"S6","mapType":"Sketch","gen_id":"g.66"},"geometry":{"type":"LineString","coordinates":[[808,306.756885],[801,117.577398]]}},{"id":"7","type":"Feature","properties":{"SketchRouteSeqOrder":13,"aligned":true,"feat_type":null,"group":null,"groupID":null,"id":"7","isRoute":"Yes","otype":"Line","selected":false,"sid":"S7","mapType":"Sketch","gen_id":"g.68"},"geometry":{"type":"LineString","coordinates":[[801,117.577398],[806,20.48528]]}},{"id":"8","type":"Feature","properties":{"SketchRouteSeqOrder":null,"aligned":true,"feat_type":null,"group":null,"groupID":null,"id":"8","isRoute":null,"otype":"Line","selected":false,"sid":"S8","mapType":"Sketch","gen_id":"g.26.36.37.67"},"geometry":{"type":"LineString","coordinates":[[138,211.666667],[173,167.624881],[211,142.60114],[304,121.581197],[563,102.563153],[647,102.563153],[690,105.566002],[801,117.577398]]}},{"id":"9","type":"Feature","properties":{"SketchRouteSeqOrder":null,"aligned":true,"feat_type":null,"group":null,"groupID":null,"id":"9","isRoute":null,"otype":"Line","selected":false,"sid":"S9","mapType":"Sketch","gen_id":"g.6.19"},"geometry":{"type":"LineString","coordinates":[[92,394.840456],[111,296.813865],[123,234.754986],[138,211.666667]]}},{"id":"10","type":"Feature","properties":{"SketchRouteSeqOrder":null,"aligned":true,"feat_type":null,"group":null,"groupID":null,"id":"10","isRoute":null,"otype":"Line","selected":false,"sid":"S10","mapType":"Sketch","gen_id":"g.21"},"geometry":{"type":"LineString","coordinates":[[138,211.666667],[81,132.65812],[30,83.611586]]}},{"type":"Feature","properties":{"id":"11","sid":"S11","isRoute":null,"feat_type":"Landmark","selected":false,"aligned":true,"otype":"Polygon","mapType":"Sketch","gen_id":"g.71"},"geometry":{"type":"Polygon","coordinates":[[[329,569.072175],[295,567.070275],[260,555.058879],[253,543.530864],[256,497.987654],[265,463.955366],[307,468.459639],[342,477.968661],[338.5,537.024691],[336.5,560.046534],[329,569.072175]]]}},{"type":"Feature","properties":{"id":"21","sid":"S21","isRoute":null,"feat_type":"Landmark","selected":false,"aligned":true,"otype":"Polygon","mapType":"Sketch","gen_id":"g.73.75.77.79.81.83.85.87.89.91.93.95.96.101.102.103.104.105.106"},"geometry":{"type":"Polygon","coordinates":[[[379,393.74359],[393,313.667616],[393,174.535613],[388,157.519468],[345,151.51377],[279,156.518519],[220,172.533713],[183,203.563153],[141,275.631529],[123,358.710351],[123,370.721747],[212,382.733143],[379,393.74359]]]}},{"type":"Feature","properties":{"id":"22","sid":"S22","isRoute":null,"feat_type":"Landmark","selected":false,"aligned":true,"otype":"Polygon","mapType":"Sketch","gen_id":"g.107"},"geometry":{"type":"Polygon","coordinates":[[[460.625,299.458096],[404.5,294.32716],[400,364.393637],[396.5,395.923552],[398,401.92925],[411.5,402.930199],[437.5,404.431624],[458.5,404.431624],[462.5,387.915954],[462,357.887464],[460.625,299.458096]]]}},{"type":"Feature","properties":{"id":"24","sid":"S24","isRoute":null,"feat_type":"Landmark","selected":false,"aligned":true,"otype":"Polygon","mapType":"Sketch","gen_id":"g.108"},"geometry":{"type":"Polygon","coordinates":[[[461,280.81434],[462.5,149.189459],[453.5,144.685185],[426,141.682336],[410.5,144.18471],[406,193.231244],[405.5,276.310066],[461,280.81434]]]}},{"type":"Feature","properties":{"id":"25","sid":"S25","isRoute":null,"feat_type":"Landmark","selected":false,"aligned":true,"otype":"Polygon","mapType":"Sketch","gen_id":"g.109"},"geometry":{"type":"Polygon","coordinates":[[[495.75,189.589744],[488.875,189.839981],[481.375,186.211538],[471.25,182.082621],[468.375,175.576448],[469.375,161.81339],[470,146.924264],[474.25,141.54416],[489.625,134.787749],[499.25,134.537512],[511.125,143.796296],[514.125,156.183048],[513,166.067426],[513.375,176.32716],[510.5,182.332858],[502.625,186.461776],[495.75,189.589744]]]}},{"type":"Feature","properties":{"id":"26","sid":"S26","isRoute":null,"feat_type":"Landmark","selected":false,"aligned":true,"otype":"Polygon","mapType":"Sketch","gen_id":"g.110"},"geometry":{"type":"Polygon","coordinates":[[[787.25,208.368946],[772.5,216.126306],[769,219.62963],[762.5,211.622032],[767,199.860874],[765.25,184.346154],[773,184.346154],[785.75,190.602089],[787.25,208.368946]]]}}]}