{"type":"FeatureCollection","features":[{"id":"0","type":"Feature","properties":{"SketchRouteSeqOrder":1,"aligned":true,"feat_type":null,"id":"0","isRoute":"Yes","otype":"Line","selected":false,"sid":"S0","mapType":"Sketch","gen_id":"g.0"},"geometry":{"type":"LineString","coordinates":[[23,419.864198],[124,344.792972]]}},{"id":"1","type":"Feature","properties":{"SketchRouteSeqOrder":null,"aligned":true,"feat_type":null,"id":"1","isRoute":null,"otype":"Line","selected":false,"sid":"S1","mapType":"Sketch","gen_id":"g.6.19"},"geometry":{"type":"LineString","coordinates":[[124,344.792972],[213,171.62868]]}},{"id":"2","type":"Feature","properties":{"SketchRouteSeqOrder":null,"aligned":true,"feat_type":null,"id":"2","isRoute":null,"otype":"Line","selected":false,"sid":"S2","mapType":"Sketch","gen_id":"g.21"},"geometry":{"type":"LineString","coordinates":[[213,171.62868],[63,44.508072]]}},{"id":"3","type":"Feature","properties":{"SketchRouteSeqOrder":3,"aligned":true,"feat_type":null,"id":"3","isRoute":"Yes","otype":"Line","selected":false,"sid":"S3","mapType":"Sketch","gen_id":"g.4"},"geometry":{"type":"LineString","coordinates":[[124,344.792972],[228,399.845204]]}},{"id":"4","type":"Feature","properties":{"SketchRouteSeqOrder":null,"aligned":true,"feat_type":null,"id":"4","isRoute":null,"otype":"Line","selected":false,"sid":"S4","mapType":"Sketch","gen_id":"g.5.8"},"geometry":{"type":"LineString","coordinates":[[228,399.845204],[308,307.757835]]}},{"id":"5","type":"Feature","properties":{"SketchRouteSeqOrder":null,"aligned":true,"feat_type":null,"id":"5","isRoute":null,"otype":"Line","selected":false,"sid":"S5","mapType":"Sketch","gen_id":"g.9"},"geometry":{"type":"LineString","coordinates":[[308,307.757835],[362.5,312.882241]]}},{"id":"6","type":"Feature","properties":{"SketchRouteSeqOrder":null,"aligned":true,"feat_type":null,"id":"6","isRoute":null,"otype":"Line","selected":false,"sid":"S6","mapType":"Sketch","gen_id":"g.111"},"geometry":{"type":"LineString","coordinates":[[308,307.757835],[312,258.830959]]}},{"id":"7","type":"Feature","properties":{"SketchRouteSeqOrder":null,"aligned":true,"feat_type":null,"id":"7","isRoute":null,"otype":"Line","selected":false,"sid":"S7","mapType":"Sketch","gen_id":"g.112"},"geometry":{"type":"LineString","coordinates":[[312,258.830959],[363,265.337132]]}},{"id":"8","type":"Feature","properties":{"SketchRouteSeqOrder":null,"aligned":true,"feat_type":null,"id":"8","isRoute":null,"otype":"Line","selected":false,"sid":"S8","mapType":"Sketch","gen_id":"g.10"},"geometry":{"type":"LineString","coordinates":[[362.5,312.882241],[363,265.337132]]}},{"id":"9","type":"Feature","properties":{"SketchRouteSeqOrder":null,"aligned":true,"feat_type":null,"id":"9","isRoute":null,"otype":"Line","selected":false,"sid":"S9","mapType":"Sketch","gen_id":"g.12.14.16.17.113.115"},"geometry":{"type":"LineString","coordinates":[[362.5,312.882241],[509,317.386515]]}},{"id":"10","type":"Feature","properties":{"SketchRouteSeqOrder":null,"aligned":true,"feat_type":null,"id":"10","isRoute":null,"otype":"Line","selected":false,"sid":"S10","mapType":"Sketch","gen_id":"g.40"},"geometry":{"type":"LineString","coordinates":[[507.5,448.510921],[509,317.386515]]}},{"id":"11","type":"Feature","properties":{"SketchRouteSeqOrder":null,"aligned":true,"feat_type":null,"id":"11","isRoute":null,"otype":"Line","selected":false,"sid":"S11","mapType":"Sketch","gen_id":"g.38"},"geometry":{"type":"LineString","coordinates":[[509,317.386515],[522.5,152.730294]]}},{"id":"12","type":"Feature","properties":{"SketchRouteSeqOrder":null,"aligned":true,"feat_type":null,"id":"12","isRoute":null,"otype":"Line","selected":false,"sid":"S12","mapType":"Sketch","gen_id":"g.48.52.53.55.59.65"},"geometry":{"type":"LineString","coordinates":[[509,317.386515],[793,329.397911]]}},{"id":"13","type":"Feature","properties":{"SketchRouteSeqOrder":null,"aligned":true,"feat_type":null,"id":"13","isRoute":null,"otype":"Line","selected":false,"sid":"S13","mapType":"Sketch","gen_id":"g.67"},"geometry":{"type":"LineString","coordinates":[[522.5,152.730294],[800,174.648623]]}},{"id":"14","type":"Feature","properties":{"SketchRouteSeqOrder":null,"aligned":true,"feat_type":null,"id":"14","isRoute":null,"otype":"Line","selected":false,"sid":"S14","mapType":"Sketch","gen_id":"g.27.28"},"geometry":{"type":"LineString","coordinates":[[363,265.337132],[445,149.624881]]}},{"id":"15","type":"Feature","properties":{"SketchRouteSeqOrder":null,"aligned":true,"feat_type":null,"id":"15","isRoute":null,"otype":"Line","selected":false,"sid":"S15","mapType":"Sketch","gen_id":"g.36.37"},"geometry":{"type":"LineString","coordinates":[[445,149.624881],[522.5,152.730294]]}},{"id":"16","type":"Feature","properties":{"SketchRouteSeqOrder":null,"aligned":true,"feat_type":null,"id":"16","isRoute":null,"otype":"Line","selected":false,"sid":"S16","mapType":"Sketch","gen_id":"g.25"},"geometry":{"type":"LineString","coordinates":[[312,258.830959],[213,171.62868]]}},{"id":"17","type":"Feature","properties":{"SketchRouteSeqOrder":null,"aligned":true,"feat_type":null,"id":"17","isRoute":null,"otype":"Line","selected":false,"sid":"S17","mapType":"Sketch","gen_id":"g.26"},"geometry":{"type":"LineString","coordinates":[[213,171.62868],[288,157.632479],[373,144.620133],[445,149.624881]]}},{"id":"18","type":"Feature","properties":{"SketchRouteSeqOrder":9,"aligned":true,"feat_type":null,"id":"18","isRoute":"Yes","otype":"Line","selected":false,"sid":"S18","mapType":"Sketch","gen_id":"g.41.43.45"},"geometry":{"type":"LineString","coordinates":[[507.5,448.510921],[793,459.919278]]}},{"id":"19","type":"Feature","properties":{"SketchRouteSeqOrder":6,"aligned":true,"feat_type":null,"id":"19","isRoute":"Yes","otype":"Line","selected":false,"sid":"S19","mapType":"Sketch","gen_id":"g.31.33.39"},"geometry":{"type":"LineString","coordinates":[[228,399.845204],[333,430.891738],[412,445.905983],[507.5,448.510921]]}},{"id":"20","type":"Feature","properties":{"SketchRouteSeqOrder":null,"aligned":true,"feat_type":null,"id":"20","isRoute":null,"otype":"Line","selected":false,"sid":"S20","mapType":"Sketch","gen_id":"g.46"},"geometry":{"type":"LineString","coordinates":[[807,553.007597],[793,459.919278]]}},{"id":"21","type":"Feature","properties":{"SketchRouteSeqOrder":11,"aligned":true,"feat_type":null,"id":"21","isRoute":"Yes","otype":"Line","selected":false,"sid":"S21","mapType":"Sketch","gen_id":"g.63.64"},"geometry":{"type":"LineString","coordinates":[[793,459.919278],[793,329.397911]]}},{"id":"22","type":"Feature","properties":{"SketchRouteSeqOrder":12,"aligned":true,"feat_type":null,"id":"22","isRoute":"Yes","otype":"Line","selected":false,"sid":"S22","mapType":"Sketch","gen_id":"g.66"},"geometry":{"type":"LineString","coordinates":[[793,329.397911],[800,174.648623]]}},{"id":"23","type":"Feature","properties":{"SketchRouteSeqOrder":13,"aligned":true,"feat_type":null,"id":"23","isRoute":"Yes","otype":"Line","selected":false,"sid":"S23","mapType":"Sketch","gen_id":"g.68"},"geometry":{"type":"LineString","coordinates":[[800,174.648623],[802,68.547958]]}},{"type":"Feature","properties":{"id":"24","sid":"S24","isRoute":null,"feat_type":"Landmark","selected":false,"aligned":true,"otype":"Polygon","mapType":"Sketch","gen_id":"g.77"},"geometry":{"type":"Polygon","coordinates":[[[245.5,293.438509],[245.25,269.665954],[246.25,259.155983],[250.25,255.902896],[285,266.913343],[289.5,272.418566],[287.25,305.199668],[283.5,306.701092],[245.5,293.438509]]]}},{"type":"Feature","properties":{"id":"25","sid":"S25","isRoute":null,"feat_type":"Landmark","selected":false,"aligned":true,"otype":"Polygon","mapType":"Sketch","gen_id":"g.105"},"geometry":{"type":"Polygon","coordinates":[[[385.75,287.432811],[400.5,242.890551],[443.75,253.150285],[445.75,260.657407],[431.5,296.941833],[421.5,295.940883],[393,290.936135],[385.75,287.432811]]]}}]}