{"type":"FeatureCollection","features":[{"type":"Feature","geometry":{"type":"MultiPolygon","coordinates":[[[[125.973387,348.481195],[175.71124,209.70129],[237.696103,299.470634],[231.447629,328.22683],[269.68829,338.979147],[261.440304,377.487445],[125.973387,348.481195]]],[[[274.187191,377.737499],[281.935299,334.478177],[371.413447,355.482704],[368.16424,396.741594],[274.187191,377.737499]]],[[[285.434444,314.723921],[287.184017,251.210234],[378.661677,247.209372],[380.161311,335.478393],[285.434444,314.723921]]],[[[233.697079,247.70948],[186.708555,184.695902],[206.703671,172.943369],[206.453733,161.690944],[304.929683,144.68728],[347.419307,218.453176],[233.697079,247.70948]]]]},"properties":{"mapType":"Sketch","id":"G28","sid":"S30","isRoute":null,"feat_type":"Landmark","selected":false,"aligned":true,"otype":"Polygon","group":true,"groupID":"28","gen_id":"g.73.75.77.79.81.83.85.87.89.91.93.95.101.102.103.104.105.106"}},{"id":"0","type":"Feature","properties":{"SketchRouteSeqOrder":1,"aligned":true,"feat_type":null,"id":"0","isRoute":"Yes","otype":"Line","selected":false,"sid":"S0","mapType":"Sketch","gen_id":"g.0"},"geometry":{"type":"LineString","coordinates":[[10.214781,486.74084],[82.44714,389.46988]]}},{"id":"1","type":"Feature","properties":{"SketchRouteSeqOrder":2,"aligned":true,"feat_type":null,"id":"1","isRoute":"Yes","otype":"Line","selected":false,"sid":"S1","mapType":"Sketch","gen_id":"g.3"},"geometry":{"type":"LineString","coordinates":[[82.44714,389.46988],[102.722319,389.859239],[108.595884,369.854929]]}},{"id":"2","type":"Feature","properties":{"SketchRouteSeqOrder":null,"aligned":true,"feat_type":null,"id":"2","isRoute":null,"otype":"Line","selected":false,"sid":"S2","mapType":"Sketch","gen_id":"g.2"},"geometry":{"type":"LineString","coordinates":[[108.595884,369.854929],[110.595396,363.353528],[103.597105,360.477908]]}},{"id":"3","type":"Feature","properties":{"SketchRouteSeqOrder":5,"aligned":true,"feat_type":null,"id":"3","isRoute":"Yes","otype":"Line","selected":false,"sid":"S3","mapType":"Sketch","gen_id":"g.4.31.33"},"geometry":{"type":"LineString","coordinates":[[108.595884,369.854929],[413.680645,420.920253]]}},{"id":"4","type":"Feature","properties":{"SketchRouteSeqOrder":null,"aligned":true,"feat_type":null,"id":"4","isRoute":null,"otype":"Line","selected":false,"sid":"S4","mapType":"Sketch","gen_id":"g.6.19"},"geometry":{"type":"LineString","coordinates":[[103.597105,360.477908],[164.741439,165.865293]]}},{"id":"5","type":"Feature","properties":{"SketchRouteSeqOrder":null,"aligned":true,"feat_type":null,"id":"5","isRoute":null,"otype":"Line","selected":false,"sid":"S5","mapType":"Sketch","gen_id":"g.1"},"geometry":{"type":"LineString","coordinates":[[103.597105,360.477908],[80.214445,358.117887],[77.215177,376.996956],[82.44714,389.46988]]}},{"id":"6","type":"Feature","properties":{"SketchRouteSeqOrder":null,"aligned":true,"feat_type":null,"id":"6","isRoute":null,"otype":"Line","selected":false,"sid":"S6","mapType":"Sketch","gen_id":"g.22.24"},"geometry":{"type":"LineString","coordinates":[[164.741439,165.865293],[184.700345,165.87632],[191.448697,151.623249]]}},{"id":"7","type":"Feature","properties":{"SketchRouteSeqOrder":null,"aligned":true,"feat_type":null,"id":"7","isRoute":null,"otype":"Line","selected":false,"sid":"S7","mapType":"Sketch","gen_id":"g.26.36"},"geometry":{"type":"LineString","coordinates":[[191.448697,151.623249],[271.282335,132.488146],[377.256455,111.48362],[440.740951,106.98265]]}},{"id":"8","type":"Feature","properties":{"SketchRouteSeqOrder":null,"aligned":true,"feat_type":null,"id":"8","isRoute":null,"otype":"Line","selected":false,"sid":"S8","mapType":"Sketch","gen_id":"g.23"},"geometry":{"type":"LineString","coordinates":[[191.448697,151.623249],[187.302844,133.488361],[166.80785,126.486853]]}},{"id":"9","type":"Feature","properties":{"SketchRouteSeqOrder":null,"aligned":true,"feat_type":null,"id":"9","isRoute":null,"otype":"Line","selected":false,"sid":"S9","mapType":"Sketch","gen_id":"g.21"},"geometry":{"type":"LineString","coordinates":[[166.80785,126.486853],[96.325063,52.470903]]}},{"id":"10","type":"Feature","properties":{"SketchRouteSeqOrder":null,"aligned":true,"feat_type":null,"id":"10","isRoute":null,"otype":"Line","selected":false,"sid":"S10","mapType":"Sketch","gen_id":"g.20"},"geometry":{"type":"LineString","coordinates":[[166.80785,126.486853],[156.310413,145.490948],[164.741439,165.865293]]}},{"id":"11","type":"Feature","properties":{"SketchRouteSeqOrder":null,"aligned":true,"feat_type":null,"id":"11","isRoute":null,"otype":"Line","selected":false,"sid":"S11","mapType":"Sketch","gen_id":"g.30.35"},"geometry":{"type":"LineString","coordinates":[[440.740951,106.98265],[429.524385,265.020044]]}},{"id":"12","type":"Feature","properties":{"SketchRouteSeqOrder":null,"aligned":true,"feat_type":null,"id":"12","isRoute":null,"otype":"Line","selected":false,"sid":"S12","mapType":"Sketch","gen_id":"g.37"},"geometry":{"type":"LineString","coordinates":[[440.740951,106.98265],[556.493377,124.98987]]}},{"id":"13","type":"Feature","properties":{"SketchRouteSeqOrder":null,"aligned":true,"feat_type":null,"id":"13","isRoute":null,"otype":"Line","selected":false,"sid":"S13","mapType":"Sketch","gen_id":"g.38"},"geometry":{"type":"LineString","coordinates":[[556.493377,124.98987],[538.497772,284.02414]]}},{"id":"14","type":"Feature","properties":{"SketchRouteSeqOrder":null,"aligned":true,"feat_type":null,"id":"14","isRoute":null,"otype":"Line","selected":false,"sid":"S14","mapType":"Sketch","gen_id":"g.113.115"},"geometry":{"type":"LineString","coordinates":[[429.524385,265.020044],[538.497772,284.02414]]}},{"id":"15","type":"Feature","properties":{"SketchRouteSeqOrder":null,"aligned":true,"feat_type":null,"id":"15","isRoute":null,"otype":"Line","selected":false,"sid":"S15","mapType":"Sketch","gen_id":"g.17.34"},"geometry":{"type":"LineString","coordinates":[[429.524385,265.020044],[413.680645,420.920253]]}},{"id":"16","type":"Feature","properties":{"SketchRouteSeqOrder":6,"aligned":true,"feat_type":null,"id":"16","isRoute":"Yes","otype":"Line","selected":false,"sid":"S16","mapType":"Sketch","gen_id":"g.39"},"geometry":{"type":"LineString","coordinates":[[413.680645,420.920253],[517.502899,440.057762]]}},{"id":"17","type":"Feature","properties":{"SketchRouteSeqOrder":null,"aligned":true,"feat_type":null,"id":"17","isRoute":null,"otype":"Line","selected":false,"sid":"S17","mapType":"Sketch","gen_id":"g.40"},"geometry":{"type":"LineString","coordinates":[[517.502899,440.057762],[538.497772,284.02414]]}},{"id":"18","type":"Feature","properties":{"SketchRouteSeqOrder":9,"aligned":true,"feat_type":null,"id":"18","isRoute":"Yes","otype":"Line","selected":false,"sid":"S18","mapType":"Sketch","gen_id":"g.41.43.45"},"geometry":{"type":"LineString","coordinates":[[517.502899,440.057762],[731.45065,470.064228]]}},{"id":"19","type":"Feature","properties":{"SketchRouteSeqOrder":null,"aligned":true,"feat_type":null,"id":"19","isRoute":null,"otype":"Line","selected":false,"sid":"S19","mapType":"Sketch","gen_id":"g.46"},"geometry":{"type":"LineString","coordinates":[[731.45065,470.064228],[727.451627,580.087937]]}},{"id":"20","type":"Feature","properties":{"SketchRouteSeqOrder":11,"aligned":true,"feat_type":null,"id":"20","isRoute":"Yes","otype":"Line","selected":false,"sid":"S20","mapType":"Sketch","gen_id":"g.63.64"},"geometry":{"type":"LineString","coordinates":[[731.45065,470.064228],[740.448453,307.029097]]}},{"id":"21","type":"Feature","properties":{"SketchRouteSeqOrder":null,"aligned":true,"feat_type":null,"id":"21","isRoute":null,"otype":"Line","selected":false,"sid":"S21","mapType":"Sketch","gen_id":"g.48.52.53.55.59.65"},"geometry":{"type":"LineString","coordinates":[[538.497772,284.02414],[740.448453,307.029097]]}},{"id":"22","type":"Feature","properties":{"SketchRouteSeqOrder":12,"aligned":true,"feat_type":null,"id":"22","isRoute":"Yes","otype":"Line","selected":false,"sid":"S22","mapType":"Sketch","gen_id":"g.66"},"geometry":{"type":"LineString","coordinates":[[740.448453,307.029097],[749.657206,168.893959]]}},{"id":"23","type":"Feature","properties":{"SketchRouteSeqOrder":null,"aligned":true,"feat_type":null,"id":"23","isRoute":null,"otype":"Line","selected":false,"sid":"S23","mapType":"Sketch","gen_id":"g.67"},"geometry":{"type":"LineString","coordinates":[[556.493377,124.98987],[749.657206,168.893959]]}},{"id":"24","type":"Feature","properties":{"SketchRouteSeqOrder":13,"aligned":true,"feat_type":null,"id":"24","isRoute":"Yes","otype":"Line","selected":false,"sid":"S24","mapType":"Sketch","gen_id":"g.68"},"geometry":{"type":"LineString","coordinates":[[749.657206,168.893959],[756.655497,46.867664]]}},{"type":"Feature","properties":{"id":"25","sid":"S25","isRoute":null,"feat_type":"Landmark","selected":false,"aligned":true,"otype":"Polygon","mapType":"Sketch","gen_id":"g.110"},"geometry":{"type":"Polygon","coordinates":[[[726.165522,249.478393],[730.164546,217.221442],[699.172114,215.471065],[697.172603,241.476669],[726.165522,249.478393]]]}},{"type":"Feature","properties":{"id":"26","sid":"S26","isRoute":null,"feat_type":"Landmark","selected":false,"aligned":true,"otype":"Polygon","mapType":"Sketch","gen_id":"g.71"},"geometry":{"type":"Polygon","coordinates":[[[201.906366,525.988792],[205.405512,425.967239],[228.399896,416.465192],[301.382073,429.968101],[295.383538,535.990948],[279.387444,545.993103],[201.906366,525.988792]]]}}]}