{"type":"FeatureCollection","features":[{"type":"Feature","geometry":{"type":"LineString","coordinates":[[765,322],[681,313],[637,315],[581,312],[526,314],[488,314]]},"properties":{"mapType":"Sketch","genType3":"Multi-MultiOmissionMerge","SketchRouteSeqOrder":null,"aligned":true,"feat_type":null,"id":"G12","isRoute":null,"otype":"Line","selected":false,"sid":"S15","group":true,"groupID":"12","gen_id":"g.48.52.53.55.59.65.113.115"}},{"type":"Feature","geometry":{"type":"MultiLineString","coordinates":[[[681,313],[687,241]],[[581,312],[583,243]]]},"properties":{"mapType":"Sketch","genType3":"Others","SketchRouteSeqOrder":null,"aligned":true,"feat_type":null,"id":"G13","isRoute":null,"otype":"Line","selected":false,"sid":"S19","group":true,"groupID":"13","gen_id":"g.38.54.116"}},{"type":"Feature","geometry":{"type":"MultiLineString","coordinates":[[[526,314],[522,383]],[[637,315],[635,381]]]},"properties":{"mapType":"Sketch","genType3":"Others","SketchRouteSeqOrder":null,"aligned":true,"feat_type":null,"id":"G14","isRoute":null,"otype":"Line","selected":false,"sid":"S17","group":true,"groupID":"14","gen_id":"g.40.49.51.57.60.114"}},{"type":"Feature","geometry":{"type":"MultiPolygon","coordinates":[[[[335,422.5],[339.5,388.5],[377.5,395.5],[368,429.5],[335,422.5]]],[[[323,371],[324.5,337.5],[360.5,341],[355.5,373.5],[323,371]]],[[[378,338],[373,312],[396,308.375],[403.75,311.875],[401.75,330.125],[391.5,337.125],[378,338]]],[[[318.625,314.875],[315.375,275.625],[355.125,272.25],[359.75,313],[318.625,314.875]]],[[[302.75,346.25],[320.25,322.25],[276.75,312.5],[253,315.5],[254.75,344.5],[302.75,346.25]]],[[[239.5,402.5],[242.5,368],[301.5,376],[298.25,410.75],[239.5,402.5]]],[[[155.5,380.25],[159,347],[214.25,352],[212.25,387.25],[155.5,380.25]]],[[[175,319.25],[186.25,291.5],[231.25,301],[214.25,330.75],[175,319.25]]],[[[193.5,269.5],[203.25,242.75],[234.75,245],[233.75,278.75],[193.5,269.5]]],[[[191.75,225.5],[202.25,191.5],[237.25,198.25],[228.5,224.5],[214.25,227.5],[191.75,225.5]]],[[[259,254.5],[262.25,218.5],[302.25,224.5],[302,258],[259,254.5]]],[[[327.25,247.75],[325,211.25],[363,216.25],[363,226.5],[354.25,248.25],[327.25,247.75]]]]},"properties":{"mapType":"Sketch","id":"G19","sid":"S35","isRoute":null,"feat_type":"Landmark","selected":false,"aligned":true,"otype":"Polygon","group":true,"groupID":"19","gen_id":"g.73.75.77.79.81.83.85.87.89.91.93.95.101.102.103.104.105.106"}},{"id":"0","type":"Feature","properties":{"SketchRouteSeqOrder":1,"aligned":true,"feat_type":null,"group":null,"groupID":null,"id":"0","isRoute":"Yes","otype":"Line","selected":false,"sid":"S0","mapType":"Sketch","gen_id":"g.0"},"geometry":{"type":"LineString","coordinates":[[32,480],[133,410]]}},{"id":"1","type":"Feature","properties":{"SketchRouteSeqOrder":null,"aligned":true,"feat_type":null,"group":null,"groupID":null,"id":"1","isRoute":null,"otype":"Line","selected":false,"sid":"S1","mapType":"Sketch","gen_id":"g.6.19"},"geometry":{"type":"LineString","coordinates":[[133,410],[147,164]]}},{"id":"2","type":"Feature","properties":{"SketchRouteSeqOrder":null,"aligned":true,"feat_type":null,"group":null,"groupID":null,"id":"2","isRoute":null,"otype":"Line","selected":false,"sid":"S2","mapType":"Sketch","gen_id":"g.21"},"geometry":{"type":"LineString","coordinates":[[147,164],[23,75]]}},{"id":"3","type":"Feature","properties":{"SketchRouteSeqOrder":null,"aligned":true,"feat_type":null,"group":null,"groupID":null,"id":"3","isRoute":null,"otype":"Line","selected":false,"sid":"S3","mapType":"Sketch","gen_id":"g.26.36.37.67"},"geometry":{"type":"LineString","coordinates":[[147,164],[574,168],[766,167]]}},{"id":"4","type":"Feature","properties":{"SketchRouteSeqOrder":13,"aligned":true,"feat_type":null,"group":null,"groupID":null,"id":"4","isRoute":"Yes","otype":"Line","selected":false,"sid":"S4","mapType":"Sketch","gen_id":"g.68"},"geometry":{"type":"LineString","coordinates":[[766,167],[775,50]]}},{"id":"5","type":"Feature","properties":{"SketchRouteSeqOrder":12,"aligned":true,"feat_type":null,"group":null,"groupID":null,"id":"5","isRoute":"Yes","otype":"Line","selected":false,"sid":"S5","mapType":"Sketch","gen_id":"g.66"},"geometry":{"type":"LineString","coordinates":[[765,322],[766,167]]}},{"id":"6","type":"Feature","properties":{"SketchRouteSeqOrder":11,"aligned":true,"feat_type":null,"group":null,"groupID":null,"id":"6","isRoute":"Yes","otype":"Line","selected":false,"sid":"S6","mapType":"Sketch","gen_id":"g.63.64"},"geometry":{"type":"LineString","coordinates":[[763,470],[765,322]]}},{"id":"7","type":"Feature","properties":{"SketchRouteSeqOrder":null,"aligned":true,"feat_type":null,"group":null,"groupID":null,"id":"7","isRoute":null,"otype":"Line","selected":false,"sid":"S7","mapType":"Sketch","gen_id":"g.46"},"geometry":{"type":"LineString","coordinates":[[763,470],[765,562]]}},{"id":"8","type":"Feature","properties":{"SketchRouteSeqOrder":9,"aligned":true,"feat_type":null,"group":null,"groupID":null,"id":"8","isRoute":"Yes","otype":"Line","selected":false,"sid":"S8","mapType":"Sketch","gen_id":"g.33.39.41.43.45"},"geometry":{"type":"LineString","coordinates":[[285,438],[525,466],[763,470]]}},{"id":"9","type":"Feature","properties":{"SketchRouteSeqOrder":null,"aligned":true,"feat_type":null,"group":null,"groupID":null,"id":"9","isRoute":null,"otype":"Line","selected":false,"sid":"S9","mapType":"Sketch","gen_id":"g.32"},"geometry":{"type":"LineString","coordinates":[[285,438],[275,565]]}},{"id":"10","type":"Feature","properties":{"SketchRouteSeqOrder":4,"aligned":true,"feat_type":null,"group":null,"groupID":null,"id":"10","isRoute":"Yes","otype":"Line","selected":false,"sid":"S10","mapType":"Sketch","gen_id":"g.4.31"},"geometry":{"type":"LineString","coordinates":[[133,410],[189,425],[285,438]]}},{"type":"Feature","properties":{"id":"20","sid":"S20","isRoute":null,"feat_type":"Landmark","selected":false,"aligned":true,"otype":"Polygon","mapType":"Sketch","gen_id":"g.110"},"geometry":{"type":"Polygon","coordinates":[[[747.5,256.75],[748.5,225],[727.125,220.375],[721.875,253.375],[747.5,256.75]]]}},{"type":"Feature","properties":{"id":"21","sid":"S21","isRoute":null,"feat_type":"Landmark","selected":false,"aligned":true,"otype":"Polygon","mapType":"Sketch","gen_id":"g.109"},"geometry":{"type":"Polygon","coordinates":[[[489.25,235.25],[476.5,223.5],[463.25,221.75],[461,214.5],[474.25,194],[497.5,198],[497.5,229.75],[489.25,235.25]]]}},{"type":"Feature","properties":{"id":"22","sid":"S22","isRoute":null,"feat_type":"Landmark","selected":false,"aligned":true,"otype":"Polygon","mapType":"Sketch","gen_id":"g.108"},"geometry":{"type":"Polygon","coordinates":[[[410.5,306.5],[410,197],[430,191],[442,197.5],[452,219.5],[459.875,226.9375],[470.8125,229.8125],[475.0625,247.5625],[469.5,306.5],[410.5,306.5]]]}},{"type":"Feature","properties":{"id":"23","sid":"S23","isRoute":null,"feat_type":"Landmark","selected":false,"aligned":true,"otype":"Polygon","mapType":"Sketch","gen_id":"g.107"},"geometry":{"type":"Polygon","coordinates":[[[410,322],[399,430.5],[460.5,428.5],[465.5,401],[470,320.5],[410,322]]]}},{"type":"Feature","properties":{"id":"36","sid":"S36","isRoute":null,"feat_type":"Landmark","selected":false,"aligned":true,"otype":"Polygon","mapType":"Sketch","gen_id":"g.71"},"geometry":{"type":"Polygon","coordinates":[[[295,554.25],[304.5,465.5],[365,470.75],[365.75,549.75],[295,554.25]]]}}]}