{"type":"FeatureCollection","features":[{"id":"0","type":"Feature","properties":{"SketchRouteSeqOrder":1,"aligned":true,"feat_type":null,"group":null,"id":"0","isRoute":"Yes","otype":"Line","selected":false,"sid":"S0","mapType":"Sketch","gen_id":"g.0"},"geometry":{"type":"LineString","coordinates":[[29,481],[91,385]]}},{"id":"1","type":"Feature","properties":{"SketchRouteSeqOrder":4,"aligned":true,"feat_type":null,"group":null,"id":"1","isRoute":"Yes","otype":"Line","selected":false,"sid":"S1","mapType":"Sketch","gen_id":"g.4.31"},"geometry":{"type":"LineString","coordinates":[[91,385],[221,413]]}},{"id":"2","type":"Feature","properties":{"SketchRouteSeqOrder":6,"aligned":true,"feat_type":null,"group":null,"id":"2","isRoute":"Yes","otype":"Line","selected":false,"sid":"S2","mapType":"Sketch","gen_id":"g.33.39"},"geometry":{"type":"LineString","coordinates":[[221,413],[416,440]]}},{"id":"3","type":"Feature","properties":{"SketchRouteSeqOrder":7,"aligned":true,"feat_type":null,"group":null,"id":"3","isRoute":"Yes","otype":"Line","selected":false,"sid":"S3","mapType":"Sketch","gen_id":"g.41"},"geometry":{"type":"LineString","coordinates":[[416,440],[446,442]]}},{"id":"4","type":"Feature","properties":{"SketchRouteSeqOrder":8,"aligned":true,"feat_type":null,"group":null,"id":"4","isRoute":"Yes","otype":"Line","selected":false,"sid":"S4","mapType":"Sketch","gen_id":"g.43"},"geometry":{"type":"LineString","coordinates":[[446,442],[619,508],[723,532]]}},{"id":"5","type":"Feature","properties":{"SketchRouteSeqOrder":null,"aligned":true,"feat_type":null,"group":null,"id":"5","isRoute":null,"otype":"Line","selected":false,"sid":"S5","mapType":"Sketch","gen_id":"g.42"},"geometry":{"type":"LineString","coordinates":[[446,442],[449,421],[512,429]]}},{"id":"6","type":"Feature","properties":{"SketchRouteSeqOrder":null,"aligned":true,"feat_type":null,"group":null,"id":"6","isRoute":null,"otype":"Line","selected":false,"sid":"S6","mapType":"Sketch","gen_id":"g.50"},"geometry":{"type":"LineString","coordinates":[[512,429],[582,437]]}},{"id":"7","type":"Feature","properties":{"SketchRouteSeqOrder":null,"aligned":true,"feat_type":null,"group":null,"id":"7","isRoute":null,"otype":"Line","selected":false,"sid":"S7","mapType":"Sketch","gen_id":"g.56"},"geometry":{"type":"LineString","coordinates":[[582,437],[643,444]]}},{"id":"8","type":"Feature","properties":{"SketchRouteSeqOrder":null,"aligned":true,"feat_type":null,"group":null,"id":"8","isRoute":null,"otype":"Line","selected":false,"sid":"S8","mapType":"Sketch","gen_id":"g.58"},"geometry":{"type":"LineString","coordinates":[[643,444],[727,460]]}},{"id":"9","type":"Feature","properties":{"SketchRouteSeqOrder":null,"aligned":true,"feat_type":null,"group":null,"id":"9","isRoute":null,"otype":"Line","selected":false,"sid":"S9","mapType":"Sketch","gen_id":"g.44"},"geometry":{"type":"LineString","coordinates":[[723,532],[727,460]]}},{"id":"10","type":"Feature","properties":{"SketchRouteSeqOrder":null,"aligned":true,"feat_type":null,"group":null,"id":"10","isRoute":null,"otype":"Line","selected":false,"sid":"S10","mapType":"Sketch","gen_id":"g.62"},"geometry":{"type":"LineString","coordinates":[[727,460],[781,467]]}},{"id":"11","type":"Feature","properties":{"SketchRouteSeqOrder":10,"aligned":true,"feat_type":null,"group":null,"id":"11","isRoute":"Yes","otype":"Line","selected":false,"sid":"S11","mapType":"Sketch","gen_id":"g.63"},"geometry":{"type":"LineString","coordinates":[[774,535],[781,467]]}},{"id":"12","type":"Feature","properties":{"SketchRouteSeqOrder":9,"aligned":true,"feat_type":null,"group":null,"id":"12","isRoute":"Yes","otype":"Line","selected":false,"sid":"S12","mapType":"Sketch","gen_id":"g.45"},"geometry":{"type":"LineString","coordinates":[[723,532],[774,535]]}},{"id":"13","type":"Feature","properties":{"SketchRouteSeqOrder":null,"aligned":true,"feat_type":null,"group":null,"id":"13","isRoute":null,"otype":"Line","selected":false,"sid":"S13","mapType":"Sketch","gen_id":"g.46"},"geometry":{"type":"LineString","coordinates":[[774,535],[770,577]]}},{"id":"14","type":"Feature","properties":{"SketchRouteSeqOrder":11,"aligned":true,"feat_type":null,"group":null,"id":"14","isRoute":"Yes","otype":"Line","selected":false,"sid":"S14","mapType":"Sketch","gen_id":"g.64"},"geometry":{"type":"LineString","coordinates":[[781,467],[790,307]]}},{"id":"15","type":"Feature","properties":{"SketchRouteSeqOrder":12,"aligned":true,"feat_type":null,"group":null,"id":"15","isRoute":"Yes","otype":"Line","selected":false,"sid":"S15","mapType":"Sketch","gen_id":"g.66"},"geometry":{"type":"LineString","coordinates":[[790,307],[800,184]]}},{"id":"16","type":"Feature","properties":{"SketchRouteSeqOrder":13,"aligned":true,"feat_type":null,"group":null,"id":"16","isRoute":"Yes","otype":"Line","selected":false,"sid":"S16","mapType":"Sketch","gen_id":"g.68"},"geometry":{"type":"LineString","coordinates":[[800,184],[807,29]]}},{"id":"17","type":"Feature","properties":{"SketchRouteSeqOrder":null,"aligned":true,"feat_type":null,"group":null,"id":"17","isRoute":null,"otype":"Line","selected":false,"sid":"S17","mapType":"Sketch","gen_id":"g.67"},"geometry":{"type":"LineString","coordinates":[[800,184],[441,157]]}},{"id":"18","type":"Feature","properties":{"SketchRouteSeqOrder":null,"aligned":true,"feat_type":null,"group":null,"id":"18","isRoute":null,"otype":"Line","selected":false,"sid":"S18","mapType":"Sketch","gen_id":"g.65"},"geometry":{"type":"LineString","coordinates":[[790,307],[732,310]]}},{"id":"19","type":"Feature","properties":{"SketchRouteSeqOrder":null,"aligned":true,"feat_type":null,"group":null,"id":"19","isRoute":null,"otype":"Line","selected":false,"sid":"S19","mapType":"Sketch","gen_id":"g.59"},"geometry":{"type":"LineString","coordinates":[[732,310],[658,309]]}},{"id":"20","type":"Feature","properties":{"SketchRouteSeqOrder":null,"aligned":true,"feat_type":null,"group":null,"id":"20","isRoute":null,"otype":"Line","selected":false,"sid":"S20","mapType":"Sketch","gen_id":"g.55"},"geometry":{"type":"LineString","coordinates":[[658,309],[635.5,306]]}},{"id":"21","type":"Feature","properties":{"SketchRouteSeqOrder":null,"aligned":true,"feat_type":null,"group":null,"id":"21","isRoute":null,"otype":"Line","selected":false,"sid":"S21","mapType":"Sketch","gen_id":"g.53"},"geometry":{"type":"LineString","coordinates":[[635.5,306],[593,304]]}},{"id":"22","type":"Feature","properties":{"SketchRouteSeqOrder":null,"aligned":true,"feat_type":null,"group":null,"id":"22","isRoute":null,"otype":"Line","selected":false,"sid":"S22","mapType":"Sketch","gen_id":"g.52"},"geometry":{"type":"LineString","coordinates":[[593,304],[523,302.5]]}},{"id":"23","type":"Feature","properties":{"SketchRouteSeqOrder":null,"aligned":true,"feat_type":null,"group":null,"id":"23","isRoute":null,"otype":"Line","selected":false,"sid":"S23","mapType":"Sketch","gen_id":"g.48"},"geometry":{"type":"LineString","coordinates":[[523,302.5],[427,299]]}},{"id":"24","type":"Feature","properties":{"SketchRouteSeqOrder":null,"aligned":true,"feat_type":null,"group":null,"id":"24","isRoute":null,"otype":"Line","selected":false,"sid":"S24","mapType":"Sketch","gen_id":"g.40"},"geometry":{"type":"LineString","coordinates":[[427,299],[416,440]]}},{"id":"25","type":"Feature","properties":{"SketchRouteSeqOrder":null,"aligned":true,"feat_type":null,"group":null,"id":"25","isRoute":null,"otype":"Line","selected":false,"sid":"S25","mapType":"Sketch","gen_id":"g.38"},"geometry":{"type":"LineString","coordinates":[[427,299],[441,157]]}},{"id":"26","type":"Feature","properties":{"SketchRouteSeqOrder":null,"aligned":true,"feat_type":null,"group":null,"id":"27","isRoute":null,"otype":"Line","selected":false,"sid":"S27","mapType":"Sketch","gen_id":"g.113.115"},"geometry":{"type":"LineString","coordinates":[[427,299],[323,288]]}},{"id":"27","type":"Feature","properties":{"SketchRouteSeqOrder":null,"aligned":true,"feat_type":null,"group":null,"id":"28","isRoute":null,"otype":"Line","selected":false,"sid":"S28","mapType":"Sketch","gen_id":"g.26.36.37"},"geometry":{"type":"LineString","coordinates":[[441,157],[318,159],[139,195]]}},{"id":"28","type":"Feature","properties":{"SketchRouteSeqOrder":null,"aligned":true,"feat_type":null,"group":null,"id":"29","isRoute":null,"otype":"Line","selected":false,"sid":"S29","mapType":"Sketch","gen_id":"g.21"},"geometry":{"type":"LineString","coordinates":[[139,195],[30,126]]}},{"id":"29","type":"Feature","properties":{"SketchRouteSeqOrder":null,"aligned":true,"feat_type":null,"group":null,"id":"30","isRoute":null,"otype":"Line","selected":false,"sid":"S30","mapType":"Sketch","gen_id":"g.6.19"},"geometry":{"type":"LineString","coordinates":[[139,195],[91,385]]}},{"id":"30","type":"Feature","properties":{"SketchRouteSeqOrder":null,"aligned":true,"feat_type":null,"group":null,"id":"31","isRoute":null,"otype":"Line","selected":false,"sid":"S31","mapType":"Sketch","gen_id":"g.32"},"geometry":{"type":"LineString","coordinates":[[221,413],[202,548]]}},{"id":"31","type":"Feature","properties":{"SketchRouteSeqOrder":null,"aligned":true,"feat_type":null,"group":null,"id":"32","isRoute":null,"otype":"Line","selected":false,"sid":"S32","mapType":"Sketch","gen_id":"g.60"},"geometry":{"type":"LineString","coordinates":[[727,460],[732,310]]}},{"id":"32","type":"Feature","properties":{"SketchRouteSeqOrder":null,"aligned":true,"feat_type":null,"group":null,"id":"33","isRoute":null,"otype":"Line","selected":false,"sid":"S33","mapType":"Sketch","gen_id":"g.57"},"geometry":{"type":"LineString","coordinates":[[643,444],[658,309]]}},{"id":"33","type":"Feature","properties":{"SketchRouteSeqOrder":null,"aligned":true,"feat_type":null,"group":null,"id":"34","isRoute":null,"otype":"Line","selected":false,"sid":"S34","mapType":"Sketch","gen_id":"g.51"},"geometry":{"type":"LineString","coordinates":[[582,437],[593,304]]}},{"id":"34","type":"Feature","properties":{"SketchRouteSeqOrder":null,"aligned":true,"feat_type":null,"group":null,"id":"35","isRoute":null,"otype":"Line","selected":false,"sid":"S35","mapType":"Sketch","gen_id":"g.49"},"geometry":{"type":"LineString","coordinates":[[512,429],[523,302.5]]}},{"id":"35","type":"Feature","properties":{"SketchRouteSeqOrder":null,"aligned":true,"feat_type":null,"group":null,"id":"36","isRoute":null,"otype":"Line","selected":false,"sid":"S36","mapType":"Sketch","gen_id":"g.54"},"geometry":{"type":"LineString","coordinates":[[635.5,306],[647,204]]}},{"type":"Feature","properties":{"id":"37","sid":"S37","isRoute":null,"feat_type":"Landmark","selected":false,"aligned":true,"otype":"Polygon","mapType":"Sketch","gen_id":"g.71"},"geometry":{"type":"Polygon","coordinates":[[[227,549.5],[230,439.5],[301,444],[299,549],[227,549.5]]]}},{"type":"Feature","properties":{"id":"38","sid":"S38","isRoute":null,"feat_type":"Landmark","selected":false,"aligned":true,"otype":"Polygon","mapType":"Sketch","gen_id":"g.73.75.77.79.81.83.85.87.89.91.93.95.101.102.103.104.105.106"},"geometry":{"type":"Polygon","coordinates":[[[122.5,366],[164.5,211.5],[234.5,190],[317.5,183.5],[287,400],[122.5,366]]]}},{"type":"Feature","properties":{"id":"39","sid":"S39","isRoute":null,"feat_type":"Landmark","selected":false,"aligned":true,"otype":"Polygon","mapType":"Sketch","gen_id":"g.107"},"geometry":{"type":"Polygon","coordinates":[[[305.5,407.5],[320.625,292.625],[376.5,299.75],[373,340.75],[358.25,414.25],[305.5,407.5]]]}},{"type":"Feature","properties":{"id":"40","sid":"S40","isRoute":null,"feat_type":"Landmark","selected":false,"aligned":true,"otype":"Polygon","mapType":"Sketch","gen_id":"g.108"},"geometry":{"type":"Polygon","coordinates":[[[321.25,279.75],[335.75,179.5],[387.75,170],[373.5,287.25],[321.25,279.75]]]}},{"type":"Feature","properties":{"id":"41","sid":"S41","isRoute":null,"feat_type":"Landmark","selected":false,"aligned":true,"otype":"Polygon","mapType":"Sketch","gen_id":"g.109"},"geometry":{"type":"Polygon","coordinates":[[[394.25,206],[394.5,177.25],[421.75,167.5],[421.5,203.25],[394.25,206]]]}},{"type":"Feature","properties":{"id":"42","sid":"S42","isRoute":null,"feat_type":"Landmark","selected":false,"aligned":true,"otype":"Polygon","mapType":"Sketch","gen_id":"g.110"},"geometry":{"type":"Polygon","coordinates":[[[780.25,256.75],[779.25,231.25],[749.25,226.75],[744.75,256.25],[780.25,256.75]]]}}]}