{"type":"FeatureCollection","features":[{"id":"0","type":"Feature","properties":{"SketchRouteSeqOrder":1,"aligned":true,"feat_type":null,"id":"0","isRoute":"Yes","otype":"Line","selected":false,"sid":"S0","mapType":"Sketch","gen_id":"g.0"},"geometry":{"type":"LineString","coordinates":[[20,419],[121,347]]}},{"id":"1","type":"Feature","properties":{"SketchRouteSeqOrder":3,"aligned":true,"feat_type":null,"id":"1","isRoute":"Yes","otype":"Line","selected":false,"sid":"S1","mapType":"Sketch","gen_id":"g.4"},"geometry":{"type":"LineString","coordinates":[[121,347],[228,401]]}},{"id":"2","type":"Feature","properties":{"SketchRouteSeqOrder":6,"aligned":true,"feat_type":null,"id":"2","isRoute":"Yes","otype":"Line","selected":false,"sid":"S2","mapType":"Sketch","gen_id":"g.31.33.39"},"geometry":{"type":"LineString","coordinates":[[228,401],[366,440],[506,448]]}},{"id":"3","type":"Feature","properties":{"SketchRouteSeqOrder":null,"aligned":true,"feat_type":null,"id":"4","isRoute":null,"otype":"Line","selected":false,"sid":"S4","mapType":"Sketch","gen_id":"g.46"},"geometry":{"type":"LineString","coordinates":[[794,458],[806,561]]}},{"id":"4","type":"Feature","properties":{"SketchRouteSeqOrder":11,"aligned":true,"feat_type":null,"id":"5","isRoute":"Yes","otype":"Line","selected":false,"sid":"S5","mapType":"Sketch","gen_id":"g.63.64"},"geometry":{"type":"LineString","coordinates":[[794,458],[795,329]]}},{"id":"5","type":"Feature","properties":{"SketchRouteSeqOrder":12,"aligned":true,"feat_type":null,"id":"6","isRoute":"Yes","otype":"Line","selected":false,"sid":"S6","mapType":"Sketch","gen_id":"g.66"},"geometry":{"type":"LineString","coordinates":[[795,329],[798,175]]}},{"id":"6","type":"Feature","properties":{"SketchRouteSeqOrder":13,"aligned":true,"feat_type":null,"id":"7","isRoute":"Yes","otype":"Line","selected":false,"sid":"S7","mapType":"Sketch","gen_id":"g.68"},"geometry":{"type":"LineString","coordinates":[[798,175],[802,72]]}},{"id":"7","type":"Feature","properties":{"SketchRouteSeqOrder":null,"aligned":true,"feat_type":null,"id":"8","isRoute":null,"otype":"Line","selected":false,"sid":"S8","mapType":"Sketch","gen_id":"g.67"},"geometry":{"type":"LineString","coordinates":[[798,175],[522,155]]}},{"id":"8","type":"Feature","properties":{"SketchRouteSeqOrder":null,"aligned":true,"feat_type":null,"id":"9","isRoute":null,"otype":"Line","selected":false,"sid":"S9","mapType":"Sketch","gen_id":"g.38"},"geometry":{"type":"LineString","coordinates":[[522,155],[512,321]]}},{"id":"9","type":"Feature","properties":{"SketchRouteSeqOrder":null,"aligned":true,"feat_type":null,"id":"10","isRoute":null,"otype":"Line","selected":false,"sid":"S10","mapType":"Sketch","gen_id":"g.48.52.53.55.59.65"},"geometry":{"type":"LineString","coordinates":[[512,321],[795,329]]}},{"id":"10","type":"Feature","properties":{"SketchRouteSeqOrder":9,"aligned":true,"feat_type":null,"id":"11","isRoute":"Yes","otype":"Line","selected":false,"sid":"S11","mapType":"Sketch","gen_id":"g.41.43.45"},"geometry":{"type":"LineString","coordinates":[[506,448],[794,458]]}},{"id":"11","type":"Feature","properties":{"SketchRouteSeqOrder":null,"aligned":true,"feat_type":null,"id":"12","isRoute":null,"otype":"Line","selected":false,"sid":"S12","mapType":"Sketch","gen_id":"g.40"},"geometry":{"type":"LineString","coordinates":[[506,448],[512,321]]}},{"id":"12","type":"Feature","properties":{"SketchRouteSeqOrder":null,"aligned":true,"feat_type":null,"id":"13","isRoute":null,"otype":"Line","selected":false,"sid":"S13","mapType":"Sketch","gen_id":"g.12.14.16.17.113.115"},"geometry":{"type":"LineString","coordinates":[[361,313],[512,321]]}},{"id":"13","type":"Feature","properties":{"SketchRouteSeqOrder":null,"aligned":true,"feat_type":null,"id":"14","isRoute":null,"otype":"Line","selected":false,"sid":"S14","mapType":"Sketch","gen_id":"g.9"},"geometry":{"type":"LineString","coordinates":[[361,313],[308,307]]}},{"id":"14","type":"Feature","properties":{"SketchRouteSeqOrder":null,"aligned":true,"feat_type":null,"id":"15","isRoute":null,"otype":"Line","selected":false,"sid":"S15","mapType":"Sketch","gen_id":"g.111"},"geometry":{"type":"LineString","coordinates":[[308,307],[311,256]]}},{"id":"15","type":"Feature","properties":{"SketchRouteSeqOrder":null,"aligned":true,"feat_type":null,"id":"16","isRoute":null,"otype":"Line","selected":false,"sid":"S16","mapType":"Sketch","gen_id":"g.112"},"geometry":{"type":"LineString","coordinates":[[311,256],[363,265]]}},{"id":"16","type":"Feature","properties":{"SketchRouteSeqOrder":null,"aligned":true,"feat_type":null,"id":"17","isRoute":null,"otype":"Line","selected":false,"sid":"S17","mapType":"Sketch","gen_id":"g.10"},"geometry":{"type":"LineString","coordinates":[[363,265],[361,313]]}},{"id":"17","type":"Feature","properties":{"SketchRouteSeqOrder":null,"aligned":true,"feat_type":null,"id":"19","isRoute":null,"otype":"Line","selected":false,"sid":"S19","mapType":"Sketch","gen_id":"g.36.37"},"geometry":{"type":"LineString","coordinates":[[446,143],[522,155]]}},{"id":"18","type":"Feature","properties":{"SketchRouteSeqOrder":null,"aligned":true,"feat_type":null,"id":"20","isRoute":null,"otype":"Line","selected":false,"sid":"S20","mapType":"Sketch","gen_id":"g.27.28"},"geometry":{"type":"LineString","coordinates":[[363,265],[446,143]]}},{"id":"19","type":"Feature","properties":{"SketchRouteSeqOrder":null,"aligned":true,"feat_type":null,"id":"21","isRoute":null,"otype":"Line","selected":false,"sid":"S21","mapType":"Sketch","gen_id":"g.25"},"geometry":{"type":"LineString","coordinates":[[311,256],[213,174]]}},{"id":"20","type":"Feature","properties":{"SketchRouteSeqOrder":null,"aligned":true,"feat_type":null,"id":"22","isRoute":null,"otype":"Line","selected":false,"sid":"S22","mapType":"Sketch","gen_id":"g.26"},"geometry":{"type":"LineString","coordinates":[[213,174],[349,148],[446,143]]}},{"id":"21","type":"Feature","properties":{"SketchRouteSeqOrder":null,"aligned":true,"feat_type":null,"id":"23","isRoute":null,"otype":"Line","selected":false,"sid":"S23","mapType":"Sketch","gen_id":"g.21"},"geometry":{"type":"LineString","coordinates":[[213,174],[61,40]]}},{"id":"22","type":"Feature","properties":{"SketchRouteSeqOrder":null,"aligned":true,"feat_type":null,"id":"24","isRoute":null,"otype":"Line","selected":false,"sid":"S24","mapType":"Sketch","gen_id":"g.6.19"},"geometry":{"type":"LineString","coordinates":[[213,174],[169,248],[121,347]]}},{"id":"23","type":"Feature","properties":{"SketchRouteSeqOrder":null,"aligned":true,"feat_type":null,"id":"25","isRoute":null,"otype":"Line","selected":false,"sid":"S25","mapType":"Sketch","gen_id":"g.5.8"},"geometry":{"type":"LineString","coordinates":[[228,401],[308,307]]}},{"type":"Feature","properties":{"id":"26","sid":"S26","isRoute":null,"feat_type":"Landmark","selected":false,"aligned":true,"otype":"Polygon","mapType":"Sketch","gen_id":"g.77"},"geometry":{"type":"Polygon","coordinates":[[[289,308.5],[290.5,268],[247.5,254.75],[243.75,293.75],[289,308.5]]]}},{"type":"Feature","properties":{"id":"27","sid":"S27","isRoute":null,"feat_type":"Landmark","selected":false,"aligned":true,"otype":"Polygon","mapType":"Sketch","gen_id":"g.105"},"geometry":{"type":"Polygon","coordinates":[[[382.5,289],[400,242],[447,252.5],[432,298],[382.5,289]]]}}]}