{"type":"FeatureCollection","features":[{"type":"Feature","geometry":{"type":"LineString","coordinates":[[803.607642,305.920038],[704.631813,299.918745],[656.643533,299.918745],[584.661112,295.917883],[539.672099,296.918098],[432.698224,289.916589]]},"properties":{"mapType":"Sketch","genType3":"Multi-MultiOmissionMerge","SketchRouteSeqOrder":null,"aligned":true,"feat_type":null,"id":"G12","isRoute":null,"otype":"Line","selected":false,"sid":"S17","group":true,"groupID":"12","gen_id":"g.48.52.53.55.59.65.113.115"}},{"type":"Feature","geometry":{"type":"MultiLineString","coordinates":[[[656.643533,299.918745],[653.644265,359.931677]],[[539.672099,296.918098],[538.672343,355.930814]]]},"properties":{"mapType":"Sketch","genType3":"Others","SketchRouteSeqOrder":null,"aligned":true,"feat_type":null,"id":"G13","isRoute":null,"otype":"Line","selected":false,"sid":"S19","group":true,"groupID":"13","gen_id":"g.40.49.51.57.60.114"}},{"type":"Feature","geometry":{"type":"MultiLineString","coordinates":[[[704.631813,299.918745],[709.630593,223.902364]],[[584.661112,295.917883],[587.66038,226.903011]]]},"properties":{"mapType":"Sketch","genType3":"Others","SketchRouteSeqOrder":null,"aligned":true,"feat_type":null,"id":"G14","isRoute":null,"otype":"Line","selected":false,"sid":"S20","group":true,"groupID":"14","gen_id":"g.38.54.116"}},{"id":"0","type":"Feature","properties":{"SketchRouteSeqOrder":1,"aligned":true,"feat_type":null,"group":null,"groupID":null,"id":"0","isRoute":"Yes","otype":"Line","selected":false,"sid":"S0","mapType":"Sketch","gen_id":"g.0"},"geometry":{"type":"LineString","coordinates":[[50.791491,495.960989],[93.780992,391.938574]]}},{"id":"1","type":"Feature","properties":{"SketchRouteSeqOrder":null,"aligned":true,"feat_type":null,"group":null,"groupID":null,"id":"1","isRoute":null,"otype":"Line","selected":false,"sid":"S1","mapType":"Sketch","gen_id":"g.6.19"},"geometry":{"type":"LineString","coordinates":[[93.780992,391.938574],[134.770982,203.898054]]}},{"id":"2","type":"Feature","properties":{"SketchRouteSeqOrder":null,"aligned":true,"feat_type":null,"group":null,"groupID":null,"id":"2","isRoute":null,"otype":"Line","selected":false,"sid":"S2","mapType":"Sketch","gen_id":"g.21"},"geometry":{"type":"LineString","coordinates":[[134.770982,203.898054],[26.797351,75.870466]]}},{"id":"3","type":"Feature","properties":{"SketchRouteSeqOrder":null,"aligned":true,"feat_type":null,"group":null,"groupID":null,"id":"3","isRoute":null,"otype":"Line","selected":false,"sid":"S3","mapType":"Sketch","gen_id":"g.26.36.37.67"},"geometry":{"type":"LineString","coordinates":[[134.770982,203.898054],[200.754868,147.885984],[359.716047,116.879302],[531.674052,104.876716],[801.60813,115.879087]]}},{"id":"4","type":"Feature","properties":{"SketchRouteSeqOrder":13,"aligned":true,"feat_type":null,"group":null,"groupID":null,"id":"4","isRoute":"Yes","otype":"Line","selected":false,"sid":"S4","mapType":"Sketch","gen_id":"g.68"},"geometry":{"type":"LineString","coordinates":[[801.60813,115.879087],[803.607642,20.858611]]}},{"id":"5","type":"Feature","properties":{"SketchRouteSeqOrder":12,"aligned":true,"feat_type":null,"group":null,"groupID":null,"id":"5","isRoute":"Yes","otype":"Line","selected":false,"sid":"S5","mapType":"Sketch","gen_id":"g.66"},"geometry":{"type":"LineString","coordinates":[[803.607642,305.920038],[801.60813,115.879087]]}},{"id":"6","type":"Feature","properties":{"SketchRouteSeqOrder":11,"aligned":true,"feat_type":null,"group":null,"groupID":null,"id":"6","isRoute":"Yes","otype":"Line","selected":false,"sid":"S6","mapType":"Sketch","gen_id":"g.63.64"},"geometry":{"type":"LineString","coordinates":[[804.607398,476.956894],[803.607642,305.920038]]}},{"id":"7","type":"Feature","properties":{"SketchRouteSeqOrder":null,"aligned":true,"feat_type":null,"group":null,"groupID":null,"id":"7","isRoute":null,"otype":"Line","selected":false,"sid":"S7","mapType":"Sketch","gen_id":"g.46"},"geometry":{"type":"LineString","coordinates":[[804.607398,476.956894],[811.605689,557.974352]]}},{"id":"8","type":"Feature","properties":{"SketchRouteSeqOrder":9,"aligned":true,"feat_type":null,"group":null,"groupID":null,"id":"8","isRoute":"Yes","otype":"Line","selected":false,"sid":"S8","mapType":"Sketch","gen_id":"g.33.39.41.43.45"},"geometry":{"type":"LineString","coordinates":[[243.744369,408.942238],[582.6616,437.948488],[688.63572,460.953445],[804.607398,476.956894]]}},{"id":"9","type":"Feature","properties":{"SketchRouteSeqOrder":null,"aligned":true,"feat_type":null,"group":null,"groupID":null,"id":"9","isRoute":null,"otype":"Line","selected":false,"sid":"S9","mapType":"Sketch","gen_id":"g.32"},"geometry":{"type":"LineString","coordinates":[[243.744369,408.942238],[225.748764,577.978662]]}},{"id":"10","type":"Feature","properties":{"SketchRouteSeqOrder":4,"aligned":true,"feat_type":null,"group":null,"groupID":null,"id":"10","isRoute":"Yes","otype":"Line","selected":false,"sid":"S10","mapType":"Sketch","gen_id":"g.4.31"},"geometry":{"type":"LineString","coordinates":[[93.780992,391.938574],[243.744369,408.942238]]}},{"type":"Feature","properties":{"id":"21","sid":"S21","isRoute":null,"feat_type":"Landmark","selected":false,"aligned":true,"otype":"Polygon","mapType":"Sketch","gen_id":"g.71"},"geometry":{"type":"Polygon","coordinates":[[[247.94592,558.494342],[261.692562,465.224244],[342.672786,477.976992],[337.674007,572.747414],[247.94592,558.494342]]]}},{"type":"Feature","properties":{"id":"22","sid":"S22","isRoute":null,"feat_type":"Landmark","selected":false,"aligned":true,"otype":"Polygon","mapType":"Sketch","gen_id":"g.73.75.77.79.81.83.85.87.89.91.93.95.101.102.103.104.105.106"},"geometry":{"type":"Polygon","coordinates":[[[122.720686,374.915081],[143.715559,280.894821],[181.706281,201.877794],[225.695538,168.870681],[334.668925,148.866371],[390.655252,155.867879],[379.657938,399.920469],[122.720686,374.915081]]]}},{"type":"Feature","properties":{"id":"23","sid":"S23","isRoute":null,"feat_type":"Landmark","selected":false,"aligned":true,"otype":"Polygon","mapType":"Sketch","gen_id":"g.107"},"geometry":{"type":"Polygon","coordinates":[[[461.658625,406.234859],[460.908808,305.463144],[401.923213,305.21309],[397.174373,404.234428],[461.658625,406.234859]]]}},{"type":"Feature","properties":{"id":"24","sid":"S24","isRoute":null,"feat_type":"Landmark","selected":false,"aligned":true,"otype":"Polygon","mapType":"Sketch","gen_id":"g.108"},"geometry":{"type":"Polygon","coordinates":[[[404.686886,273.988792],[403.937069,141.210181],[462.922664,141.960342],[463.422542,275.239062],[404.686886,273.988792]]]}},{"type":"Feature","properties":{"id":"25","sid":"S25","isRoute":null,"feat_type":"Landmark","selected":false,"aligned":true,"otype":"Polygon","mapType":"Sketch","gen_id":"g.109"},"geometry":{"type":"Polygon","coordinates":[[[469.671016,180.718694],[470.170894,142.960558],[500.413508,131.958187],[515.909723,151.712444],[511.660761,163.965084],[511.660761,185.719772],[491.915583,189.970688],[469.671016,180.718694]]]}},{"type":"Feature","properties":{"id":"26","sid":"S26","isRoute":null,"feat_type":"Landmark","selected":false,"aligned":true,"otype":"Polygon","mapType":"Sketch","gen_id":"g.110"},"geometry":{"type":"Polygon","coordinates":[[[768.451871,219.120797],[761.203641,209.868803],[765.827512,201.241945],[764.077939,181.112607],[785.072812,188.36417],[786.947354,210.869019],[768.451871,219.120797]]]}}]}