{"type":"FeatureCollection","features":[{"id":"0","type":"Feature","properties":{"SketchRouteSeqOrder":null,"aligned":true,"feat_type":null,"id":"0","isRoute":null,"otype":"Line","selected":false,"sid":"S0","mapType":"Sketch","gen_id":"g.2"},"geometry":{"type":"LineString","coordinates":[[269.941423,470.019594],[279.938761,402.026757]]}},{"id":"1","type":"Feature","properties":{"SketchRouteSeqOrder":11,"aligned":true,"feat_type":null,"id":"1","isRoute":"Yes","otype":"Line","selected":false,"sid":"S1","mapType":"Sketch","gen_id":"g.126.127.128"},"geometry":{"type":"LineString","coordinates":[[269.941423,470.019594],[487.883379,476.018962]]}},{"id":"2","type":"Feature","properties":{"SketchRouteSeqOrder":null,"aligned":true,"feat_type":null,"id":"2","isRoute":null,"otype":"Line","selected":false,"sid":"S2","mapType":"Sketch","gen_id":"g.4"},"geometry":{"type":"LineString","coordinates":[[487.883379,476.018962],[491.882314,434.023386],[491.882314,412.025704],[428.899089,404.026546]]}},{"id":"3","type":"Feature","properties":{"SketchRouteSeqOrder":null,"aligned":true,"feat_type":null,"id":"3","isRoute":null,"otype":"Line","selected":false,"sid":"S3","mapType":"Sketch","gen_id":"g.5"},"geometry":{"type":"LineString","coordinates":[[428.899089,404.026546],[425.899887,345.032762]]}},{"id":"4","type":"Feature","properties":{"SketchRouteSeqOrder":null,"aligned":true,"feat_type":null,"id":"4","isRoute":null,"otype":"Line","selected":false,"sid":"S4","mapType":"Sketch","gen_id":"g.6"},"geometry":{"type":"LineString","coordinates":[[428.899089,404.026546],[279.938761,402.026757]]}},{"id":"5","type":"Feature","properties":{"SketchRouteSeqOrder":null,"aligned":true,"feat_type":null,"id":"5","isRoute":null,"otype":"Line","selected":false,"sid":"S5","mapType":"Sketch","gen_id":"g.7"},"geometry":{"type":"LineString","coordinates":[[279.938761,402.026757],[281.938228,350.032235]]}},{"id":"6","type":"Feature","properties":{"SketchRouteSeqOrder":14,"aligned":true,"feat_type":null,"id":"10","isRoute":"Yes","otype":"Line","selected":false,"sid":"S10","mapType":"Sketch","gen_id":"g.130.131.132"},"geometry":{"type":"LineString","coordinates":[[487.883379,476.018962],[640.912268,481.250816],[650.453272,481.754003]]}},{"id":"7","type":"Feature","properties":{"SketchRouteSeqOrder":null,"aligned":true,"feat_type":null,"id":"13","isRoute":null,"otype":"Line","selected":false,"sid":"S13","mapType":"Sketch","gen_id":"g.11"},"geometry":{"type":"LineString","coordinates":[[650.453272,481.754003],[651.203072,561.995549]]}},{"id":"8","type":"Feature","properties":{"SketchRouteSeqOrder":15,"aligned":true,"feat_type":null,"id":"17","isRoute":"Yes","otype":"Line","selected":false,"sid":"S17","mapType":"Sketch","gen_id":"g.12"},"geometry":{"type":"LineString","coordinates":[[650.453272,481.754003],[728.213123,483.011061]]}},{"id":"9","type":"Feature","properties":{"SketchRouteSeqOrder":16,"aligned":true,"feat_type":null,"id":"18","isRoute":"Yes","otype":"Line","selected":false,"sid":"S18","mapType":"Sketch","gen_id":"g.13"},"geometry":{"type":"LineString","coordinates":[[728.213123,483.011061],[814.680574,492.01035]]}},{"id":"10","type":"Feature","properties":{"SketchRouteSeqOrder":null,"aligned":true,"feat_type":null,"id":"22","isRoute":null,"otype":"Line","selected":false,"sid":"S22","mapType":"Sketch","gen_id":"g.114"},"geometry":{"type":"LineString","coordinates":[[760.195085,391.270963],[647.742744,382.512905]]}},{"id":"11","type":"Feature","properties":{"SketchRouteSeqOrder":null,"aligned":true,"feat_type":null,"id":"23","isRoute":null,"otype":"Line","selected":false,"sid":"S23","mapType":"Sketch","gen_id":"g.120.121"},"geometry":{"type":"LineString","coordinates":[[650.453272,481.754003],[647.742744,382.512905]]}},{"id":"12","type":"Feature","properties":{"SketchRouteSeqOrder":null,"aligned":true,"feat_type":null,"id":"24","isRoute":null,"otype":"Line","selected":false,"sid":"S24","mapType":"Sketch","gen_id":"g.142.144"},"geometry":{"type":"LineString","coordinates":[[647.742744,382.512905],[642.994009,351.51617]]}},{"id":"13","type":"Feature","properties":{"SketchRouteSeqOrder":null,"aligned":true,"feat_type":null,"id":"25","isRoute":null,"otype":"Line","selected":false,"sid":"S25","mapType":"Sketch","gen_id":"g.9"},"geometry":{"type":"LineString","coordinates":[[642.994009,351.51617],[425.899887,345.032762]]}},{"id":"14","type":"Feature","properties":{"SketchRouteSeqOrder":null,"aligned":true,"feat_type":null,"id":"26","isRoute":null,"otype":"Line","selected":false,"sid":"S26","mapType":"Sketch","gen_id":"g.8"},"geometry":{"type":"LineString","coordinates":[[425.899887,345.032762],[281.938228,350.032235]]}},{"id":"15","type":"Feature","properties":{"SketchRouteSeqOrder":null,"aligned":true,"feat_type":null,"id":"27","isRoute":null,"otype":"Line","selected":false,"sid":"S27","mapType":"Sketch","gen_id":"g.38"},"geometry":{"type":"LineString","coordinates":[[425.899887,345.032762],[424.064834,266.542032]]}},{"id":"16","type":"Feature","properties":{"SketchRouteSeqOrder":null,"aligned":true,"feat_type":null,"id":"28","isRoute":null,"otype":"Line","selected":false,"sid":"S28","mapType":"Sketch","gen_id":"g.30"},"geometry":{"type":"LineString","coordinates":[[424.064834,266.542032],[252.610497,262.042506]]}},{"id":"17","type":"Feature","properties":{"SketchRouteSeqOrder":null,"aligned":true,"feat_type":null,"id":"29","isRoute":null,"otype":"Line","selected":false,"sid":"S29","mapType":"Sketch","gen_id":"g.32"},"geometry":{"type":"LineString","coordinates":[[243.449677,341.516697],[252.610497,262.042506]]}},{"id":"18","type":"Feature","properties":{"SketchRouteSeqOrder":null,"aligned":true,"feat_type":null,"id":"30","isRoute":null,"otype":"Line","selected":false,"sid":"S30","mapType":"Sketch","gen_id":"g.33"},"geometry":{"type":"LineString","coordinates":[[243.449677,341.516697],[281.938228,350.032235]]}},{"id":"19","type":"Feature","properties":{"SketchRouteSeqOrder":null,"aligned":true,"feat_type":null,"id":"31","isRoute":null,"otype":"Line","selected":false,"sid":"S31","mapType":"Sketch","gen_id":"g.34"},"geometry":{"type":"LineString","coordinates":[[243.449677,341.516697],[98.988152,333.017592]]}},{"id":"20","type":"Feature","properties":{"SketchRouteSeqOrder":8,"aligned":true,"feat_type":null,"id":"32","isRoute":"Yes","otype":"Line","selected":false,"sid":"S32","mapType":"Sketch","gen_id":"g.122.123.124.125"},"geometry":{"type":"LineString","coordinates":[[86.49148,464.003792],[269.941423,470.019594]]}},{"id":"21","type":"Feature","properties":{"SketchRouteSeqOrder":null,"aligned":true,"feat_type":null,"id":"33","isRoute":null,"otype":"Line","selected":false,"sid":"S33","mapType":"Sketch","gen_id":"g.0"},"geometry":{"type":"LineString","coordinates":[[86.49148,464.003792],[87.451807,518.506163]]}},{"id":"22","type":"Feature","properties":{"SketchRouteSeqOrder":4,"aligned":true,"feat_type":null,"id":"34","isRoute":"Yes","otype":"Line","selected":false,"sid":"S34","mapType":"Sketch","gen_id":"g.35"},"geometry":{"type":"LineString","coordinates":[[98.988152,333.017592],[86.49148,464.003792]]}},{"id":"23","type":"Feature","properties":{"SketchRouteSeqOrder":3,"aligned":true,"feat_type":null,"id":"36","isRoute":"Yes","otype":"Line","selected":false,"sid":"S36","mapType":"Sketch","gen_id":"g.42"},"geometry":{"type":"LineString","coordinates":[[111.445417,170.542822],[98.988152,333.017592]]}},{"id":"24","type":"Feature","properties":{"SketchRouteSeqOrder":null,"aligned":true,"feat_type":null,"id":"37","isRoute":null,"otype":"Line","selected":false,"sid":"S37","mapType":"Sketch","gen_id":"g.43"},"geometry":{"type":"LineString","coordinates":[[111.445417,170.542822],[258.906144,178.042032]]}},{"id":"25","type":"Feature","properties":{"SketchRouteSeqOrder":2,"aligned":true,"feat_type":null,"id":"38","isRoute":"Yes","otype":"Line","selected":false,"sid":"S38","mapType":"Sketch","gen_id":"g.44"},"geometry":{"type":"LineString","coordinates":[[116.943953,124.04772],[111.445417,170.542822]]}},{"id":"26","type":"Feature","properties":{"SketchRouteSeqOrder":null,"aligned":true,"feat_type":null,"id":"39","isRoute":null,"otype":"Line","selected":false,"sid":"S39","mapType":"Sketch","gen_id":"g.45"},"geometry":{"type":"LineString","coordinates":[[116.943953,124.04772],[268.903482,137.546298]]}},{"id":"27","type":"Feature","properties":{"SketchRouteSeqOrder":null,"aligned":true,"feat_type":null,"id":"40","isRoute":null,"otype":"Line","selected":false,"sid":"S40","mapType":"Sketch","gen_id":"g.28"},"geometry":{"type":"LineString","coordinates":[[258.906144,178.042032],[268.903482,137.546298]]}},{"id":"28","type":"Feature","properties":{"SketchRouteSeqOrder":null,"aligned":true,"feat_type":null,"id":"41","isRoute":null,"otype":"Line","selected":false,"sid":"S41","mapType":"Sketch","gen_id":"g.29"},"geometry":{"type":"LineString","coordinates":[[258.906144,178.042032],[252.610497,262.042506]]}},{"id":"29","type":"Feature","properties":{"SketchRouteSeqOrder":1,"aligned":true,"feat_type":null,"id":"42","isRoute":"Yes","otype":"Line","selected":false,"sid":"S42","mapType":"Sketch","gen_id":"g.46"},"geometry":{"type":"LineString","coordinates":[[120.942888,71.553251],[116.943953,124.04772]]}},{"id":"30","type":"Feature","properties":{"SketchRouteSeqOrder":null,"aligned":true,"feat_type":null,"id":"47","isRoute":null,"otype":"Line","selected":false,"sid":"S47","mapType":"Sketch","gen_id":"g.27"},"geometry":{"type":"LineString","coordinates":[[268.903482,137.546298],[489.42172,140.018698]]}},{"id":"31","type":"Feature","properties":{"SketchRouteSeqOrder":null,"aligned":true,"feat_type":null,"id":"48","isRoute":null,"otype":"Line","selected":false,"sid":"S48","mapType":"Sketch","gen_id":"g.21"},"geometry":{"type":"LineString","coordinates":[[424.064834,266.542032],[426.438495,238.508322],[489.42172,140.018698]]}},{"id":"32","type":"Feature","properties":{"SketchRouteSeqOrder":null,"aligned":true,"feat_type":null,"id":"49","isRoute":null,"otype":"Line","selected":false,"sid":"S49","mapType":"Sketch","gen_id":"g.23"},"geometry":{"type":"LineString","coordinates":[[489.42172,140.018698],[652.910138,147.517908]]}},{"id":"33","type":"Feature","properties":{"SketchRouteSeqOrder":null,"aligned":true,"feat_type":null,"id":"50","isRoute":null,"otype":"Line","selected":false,"sid":"S50","mapType":"Sketch","gen_id":"g.24"},"geometry":{"type":"LineString","coordinates":[[652.910138,147.517908],[656.409206,61.027021]]}},{"id":"34","type":"Feature","properties":{"SketchRouteSeqOrder":null,"aligned":true,"feat_type":null,"id":"52","isRoute":null,"otype":"Line","selected":false,"sid":"S52","mapType":"Sketch","gen_id":"g.20"},"geometry":{"type":"LineString","coordinates":[[424.064834,266.542032],[646.411869,277.004266]]}},{"id":"35","type":"Feature","properties":{"SketchRouteSeqOrder":null,"aligned":true,"feat_type":null,"id":"53","isRoute":null,"otype":"Line","selected":false,"sid":"S53","mapType":"Sketch","gen_id":"g.25"},"geometry":{"type":"LineString","coordinates":[[652.910138,147.517908],[646.411869,277.004266]]}},{"id":"36","type":"Feature","properties":{"SketchRouteSeqOrder":null,"aligned":true,"feat_type":null,"id":"54","isRoute":null,"otype":"Line","selected":false,"sid":"S54","mapType":"Sketch","gen_id":"g.26"},"geometry":{"type":"LineString","coordinates":[[652.910138,147.517908],[850,171.51538]]}},{"id":"37","type":"Feature","properties":{"SketchRouteSeqOrder":null,"aligned":true,"feat_type":null,"id":"57","isRoute":null,"otype":"Line","selected":false,"sid":"S57","mapType":"Sketch","gen_id":"g.14"},"geometry":{"type":"LineString","coordinates":[[728.213123,483.011061],[724.370333,446.303339],[760.195085,391.270963]]}},{"id":"38","type":"Feature","properties":{"SketchRouteSeqOrder":null,"aligned":true,"feat_type":null,"id":"58","isRoute":null,"otype":"Line","selected":false,"sid":"S58","mapType":"Sketch","gen_id":"g.15"},"geometry":{"type":"LineString","coordinates":[[760.195085,391.270963],[807.8481,334.315137],[811.938894,249.325461],[799.442222,190.831623],[816.437696,131.833625]]}},{"id":"39","type":"Feature","properties":{"SketchRouteSeqOrder":null,"aligned":true,"feat_type":null,"id":"59","isRoute":null,"otype":"Line","selected":false,"sid":"S59","mapType":"Sketch","gen_id":"g.109.110"},"geometry":{"type":"LineString","coordinates":[[642.994009,351.51617],[646.411869,277.004266]]}},{"type":"Feature","properties":{"id":"6","sid":"S6","isRoute":null,"feat_type":"Landmark","selected":false,"aligned":true,"otype":"Polygon","mapType":"Sketch","gen_id":"g.54"},"geometry":{"type":"Polygon","coordinates":[[[342.975637,442.504898],[422.704404,445.504582],[422.704404,439.005267],[349.973774,434.755715],[343.975371,435.255662],[342.975637,442.504898]]]}},{"type":"Feature","properties":{"id":"7","sid":"S7","isRoute":null,"feat_type":"Landmark","selected":false,"aligned":true,"otype":"Polygon","mapType":"Sketch","gen_id":"g.53"},"geometry":{"type":"Polygon","coordinates":[[[346.224772,429.006321],[421.70467,431.00611],[419.455269,413.25798],[345.225038,411.25819],[346.224772,429.006321]]]}},{"type":"Feature","properties":{"id":"8","sid":"S8","isRoute":null,"feat_type":"Landmark","selected":false,"aligned":true,"otype":"Polygon","mapType":"Sketch","gen_id":"g.55"},"geometry":{"type":"Polygon","coordinates":[[[432.451807,413.008006],[457.461126,415.007795],[455.711592,429.756242],[433.217583,429.756242],[432.451807,413.008006]]]}},{"type":"Feature","properties":{"id":"9","sid":"S9","isRoute":null,"feat_type":"Landmark","selected":false,"aligned":true,"otype":"Polygon","mapType":"Sketch","gen_id":"g.56"},"geometry":{"type":"Polygon","coordinates":[[[431.468049,443.504793],[477.455801,445.004635],[474.706534,437.505425],[430.468315,434.505741],[431.468049,443.504793]]]}},{"type":"Feature","properties":{"id":"11","sid":"S11","isRoute":null,"feat_type":"Landmark","selected":false,"aligned":true,"otype":"Polygon","mapType":"Sketch","gen_id":"g.84.85.86.88.89.90.91.92.93.94.95.96.97.98.99.100.101.102.103.104.105.106.107.108"},"geometry":{"type":"Polygon","coordinates":[[[505.491879,464.50582],[624.960061,471.755056],[623.210527,363.266486],[518.738351,361.516671],[505.491879,464.50582]]]}},{"type":"Feature","properties":{"id":"12","sid":"S12","isRoute":null,"feat_type":"Landmark","selected":false,"aligned":true,"otype":"Polygon","mapType":"Sketch","gen_id":"g.59"},"geometry":{"type":"Polygon","coordinates":[[[560.477235,534.998394],[626.209729,542.497603],[629.458863,509.001132],[624.210261,496.502449],[565.475904,492.252897],[558.477768,495.252581],[560.477235,534.998394]]]}},{"type":"Feature","properties":{"id":"14","sid":"S14","isRoute":null,"feat_type":"Landmark","selected":false,"aligned":true,"otype":"Polygon","mapType":"Sketch","gen_id":"g.72"},"geometry":{"type":"Polygon","coordinates":[[[683.444485,519.75],[728.71299,521.507005],[729.462791,507.008533],[686.47424,504.008849],[683.444485,519.75]]]}},{"type":"Feature","properties":{"id":"15","sid":"S15","isRoute":null,"feat_type":"Landmark","selected":false,"aligned":true,"otype":"Polygon","mapType":"Sketch","gen_id":"g.70"},"geometry":{"type":"Polygon","coordinates":[[[728.71299,521.507005],[768.952273,523.256821],[769.702074,506.508585],[729.462791,507.008533],[728.71299,521.507005]]]}},{"type":"Feature","properties":{"id":"16","sid":"S16","isRoute":null,"feat_type":"Landmark","selected":false,"aligned":true,"otype":"Polygon","mapType":"Sketch","gen_id":"g.71"},"geometry":{"type":"Polygon","coordinates":[[[686.47424,504.008849],[688.473707,490.510271],[730.462524,492.260087],[729.462791,507.008533],[686.47424,504.008849]]]}},{"type":"Feature","properties":{"id":"19","sid":"S19","isRoute":null,"feat_type":"Landmark","selected":false,"aligned":true,"otype":"Polygon","mapType":"Sketch","gen_id":"g.60"},"geometry":{"type":"Polygon","coordinates":[[[737.951009,473.512299],[767.943021,478.011825],[769.692555,462.01351],[738.200942,461.513563],[737.951009,473.512299]]]}},{"type":"Feature","properties":{"id":"20","sid":"S20","isRoute":null,"feat_type":"Landmark","selected":false,"aligned":true,"otype":"Polygon","mapType":"Sketch","gen_id":"g.61"},"geometry":{"type":"Polygon","coordinates":[[[769.692555,462.01351],[769.192688,445.515248],[737.951009,445.265275],[738.200942,461.513563],[769.692555,462.01351]]]}},{"type":"Feature","properties":{"id":"35","sid":"S35","isRoute":null,"feat_type":"Landmark","selected":false,"aligned":false,"otype":"Polygon","mapType":"Sketch"},"geometry":{"type":"Polygon","coordinates":[[[29.967117,419.016644],[39.964455,416.01696],[55.960195,354.523439],[62.958331,269.032446],[73.455535,155.044455],[63.958065,151.044876],[26.967916,158.544086],[18.470179,195.540188],[10.472309,268.032551],[14.471244,320.527021],[9.972442,375.521227],[17.970312,405.018119],[29.967117,419.016644]]]}},{"type":"Feature","properties":{"id":"43","sid":"S43","isRoute":null,"feat_type":"Landmark","selected":false,"aligned":true,"otype":"Polygon","mapType":"Sketch","gen_id":"g.48"},"geometry":{"type":"Polygon","coordinates":[[[142.437163,82.052145],[177.427844,84.051934],[182.426513,103.049933],[145.436365,97.550512],[142.437163,82.052145]]]}},{"type":"Feature","properties":{"id":"44","sid":"S44","isRoute":null,"feat_type":"Landmark","selected":false,"aligned":true,"otype":"Polygon","mapType":"Sketch","gen_id":"g.49"},"geometry":{"type":"Polygon","coordinates":[[[140.728034,114.260561],[179.967583,123.009639],[185.965986,116.26035],[147.976103,103.011746],[140.728034,114.260561]]]}},{"type":"Feature","properties":{"id":"45","sid":"S45","isRoute":null,"feat_type":"Landmark","selected":false,"aligned":true,"otype":"Polygon","mapType":"Sketch","gen_id":"g.51"},"geometry":{"type":"Polygon","coordinates":[[[197.962791,122.009744],[229.20447,125.759349],[237.95214,108.76114],[214.708331,104.261614],[205.21086,106.261403],[197.962791,122.009744]]]}},{"type":"Feature","properties":{"id":"46","sid":"S46","isRoute":null,"feat_type":"Landmark","selected":false,"aligned":true,"otype":"Polygon","mapType":"Sketch","gen_id":"g.50"},"geometry":{"type":"Polygon","coordinates":[[[198.462657,98.262246],[231.203938,101.761877],[240.451475,85.513589],[208.709928,81.264037],[198.462657,98.262246]]]}},{"type":"Feature","properties":{"id":"51","sid":"S51","isRoute":null,"feat_type":"Landmark","selected":false,"aligned":true,"otype":"Polygon","mapType":"Sketch","gen_id":"g.47"},"geometry":{"type":"Polygon","coordinates":[[[528.443287,161.516434],[552.936764,163.516223],[553.936498,156.51696],[534.44169,152.017434],[528.443287,161.516434]]]}},{"type":"Feature","properties":{"id":"55","sid":"S55","isRoute":null,"feat_type":"Landmark","selected":false,"aligned":true,"otype":"Polygon","mapType":"Sketch","gen_id":"g.57"},"geometry":{"type":"Polygon","coordinates":[[[248.996938,456.802233],[249.496805,443.303655],[228.502396,443.803602],[227.002796,454.802443],[248.996938,456.802233]]]}}]}