{"type":"FeatureCollection","features":[{"type":"Feature","geometry":{"type":"MultiLineString","coordinates":[[[627.463523,229.021227],[682.948746,232.520858]],[[625.846636,396.027389],[624.464322,317.511904]],[[624.464322,317.511904],[627.463523,229.021227]],[[624.464322,317.511904],[677.45021,317.011956]],[[627.463523,229.021227],[633.844506,176.050565]]]},"properties":{"mapType":"Sketch","genType3":"Others","SketchRouteSeqOrder":null,"aligned":true,"feat_type":null,"id":"G16","isRoute":null,"otype":"Line","selected":false,"sid":"S21","group":true,"groupID":"16","gen_id":"g.25.109.110.111.114.119.120.121.142.144.146"}},{"id":"0","type":"Feature","properties":{"SketchRouteSeqOrder":null,"aligned":true,"feat_type":null,"group":null,"groupID":null,"id":"0","isRoute":null,"otype":"Line","selected":false,"sid":"S0","mapType":"Sketch","gen_id":"g.0"},"geometry":{"type":"LineString","coordinates":[[126.979498,440.022754],[134.977368,373.029812]]}},{"id":"1","type":"Feature","properties":{"SketchRouteSeqOrder":2,"aligned":true,"feat_type":null,"group":null,"groupID":null,"id":"1","isRoute":"Yes","otype":"Line","selected":false,"sid":"S1","mapType":"Sketch","gen_id":"g.35.42.44"},"geometry":{"type":"LineString","coordinates":[[136.976836,163.051934],[134.977368,373.029812]]}},{"id":"2","type":"Feature","properties":{"SketchRouteSeqOrder":14,"aligned":true,"feat_type":null,"group":null,"groupID":null,"id":"2","isRoute":"Yes","otype":"Line","selected":false,"sid":"S2","mapType":"Sketch","gen_id":"g.122.123.124.125.126.127.128.130.131.132"},"geometry":{"type":"LineString","coordinates":[[134.977368,373.029812],[625.846636,396.027389]]}},{"id":"3","type":"Feature","properties":{"SketchRouteSeqOrder":null,"aligned":true,"feat_type":null,"group":null,"groupID":null,"id":"3","isRoute":null,"otype":"Line","selected":false,"sid":"S3","mapType":"Sketch","gen_id":"g.23.27.45"},"geometry":{"type":"LineString","coordinates":[[136.976836,163.051934],[633.844506,176.050565]]}},{"id":"4","type":"Feature","properties":{"SketchRouteSeqOrder":1,"aligned":true,"feat_type":null,"group":null,"groupID":null,"id":"4","isRoute":"Yes","otype":"Line","selected":false,"sid":"S4","mapType":"Sketch","gen_id":"g.46"},"geometry":{"type":"LineString","coordinates":[[140.975771,72.06152],[136.976836,163.051934]]}},{"id":"5","type":"Feature","properties":{"SketchRouteSeqOrder":null,"aligned":true,"feat_type":null,"group":null,"groupID":null,"id":"13","isRoute":null,"otype":"Line","selected":false,"sid":"S13","mapType":"Sketch","gen_id":"g.11"},"geometry":{"type":"LineString","coordinates":[[625.846636,396.027389],[627.904813,484.500158]]}},{"id":"6","type":"Feature","properties":{"SketchRouteSeqOrder":15,"aligned":true,"feat_type":null,"group":null,"groupID":null,"id":"14","isRoute":"Yes","otype":"Line","selected":false,"sid":"S14","mapType":"Sketch","gen_id":"g.12"},"geometry":{"type":"LineString","coordinates":[[625.846636,396.027389],[707.883513,401.508901]]}},{"id":"7","type":"Feature","properties":{"SketchRouteSeqOrder":16,"aligned":true,"feat_type":null,"group":null,"groupID":null,"id":"15","isRoute":"Yes","otype":"Line","selected":false,"sid":"S15","mapType":"Sketch","gen_id":"g.13"},"geometry":{"type":"LineString","coordinates":[[707.883513,401.508901],[795.918659,412.518751]]}},{"id":"8","type":"Feature","properties":{"SketchRouteSeqOrder":null,"aligned":true,"feat_type":null,"group":null,"groupID":null,"id":"16","isRoute":null,"otype":"Line","selected":false,"sid":"S16","mapType":"Sketch","gen_id":"g.14.15"},"geometry":{"type":"LineString","coordinates":[[707.883513,401.508901],[708.441956,247.036185],[714.440358,169.535922],[714.940225,149.029654]]}},{"id":"14","type":"Feature","properties":{"SketchRouteSeqOrder":null,"aligned":true,"feat_type":null,"group":null,"groupID":null,"id":"22","isRoute":null,"otype":"Line","selected":false,"sid":"S22","mapType":"Sketch","gen_id":"g.26"},"geometry":{"type":"LineString","coordinates":[[633.844506,176.050565],[677.950077,181.52623],[799.917593,215.522649]]}},{"id":"15","type":"Feature","properties":{"SketchRouteSeqOrder":null,"aligned":true,"feat_type":null,"group":null,"groupID":null,"id":"23","isRoute":null,"otype":"Line","selected":false,"sid":"S23","mapType":"Sketch","gen_id":"g.24"},"geometry":{"type":"LineString","coordinates":[[633.844506,176.050565],[630.462724,118.532867]]}},{"type":"Feature","properties":{"id":"5","sid":"S5","isRoute":null,"feat_type":"Landmark","selected":false,"aligned":true,"otype":"Polygon","mapType":"Sketch","gen_id":"g.49"},"geometry":{"type":"Polygon","coordinates":[[[163.969647,143.054041],[163.466452,127.524282],[213.453139,133.023702],[215.952473,149.022017],[164.480563,150.012536],[163.969647,143.054041]]]}},{"type":"Feature","properties":{"id":"6","sid":"S6","isRoute":null,"feat_type":"Landmark","selected":false,"aligned":true,"otype":"Polygon","mapType":"Sketch","gen_id":"g.48"},"geometry":{"type":"Polygon","coordinates":[[[219.960061,110.019963],[218.485489,126.758822],[171.498003,123.009218],[169.748469,109.010692],[173.997337,106.760929],[219.960061,110.019963]]]}},{"type":"Feature","properties":{"id":"7","sid":"S7","isRoute":null,"feat_type":"Landmark","selected":false,"aligned":false,"otype":"Polygon","mapType":"Sketch"},"geometry":{"type":"Polygon","coordinates":[[[380.192422,151.006268],[437.927046,151.756189],[431.928643,137.757664],[378.692821,137.257716],[380.192422,151.006268]]]}},{"type":"Feature","properties":{"id":"8","sid":"S8","isRoute":null,"feat_type":"Landmark","selected":false,"aligned":true,"otype":"Polygon","mapType":"Sketch","gen_id":"g.84.85.86.87.88.89.90.91.92.93.94.95.96.97.98.99.100.101.102.103.104.105.106.107.108"},"geometry":{"type":"Polygon","coordinates":[[[491.723625,362.008533],[489.724158,308.014221],[593.696467,315.013484],[594.413733,382.510903],[493.940492,375.51164],[491.723625,362.008533]]]}},{"type":"Feature","properties":{"id":"9","sid":"S9","isRoute":null,"feat_type":"Landmark","selected":false,"aligned":false,"otype":"Polygon","mapType":"Sketch"},"geometry":{"type":"Polygon","coordinates":[[[308.989749,369.012325],[375.472043,371.012114],[369.973507,349.014432],[313.488551,346.514695],[308.989749,369.012325]]]}},{"type":"Feature","properties":{"id":"10","sid":"S10","isRoute":null,"feat_type":"Landmark","selected":false,"aligned":true,"otype":"Polygon","mapType":"Sketch","gen_id":"g.53.54.55.56"},"geometry":{"type":"Polygon","coordinates":[[[300.492012,337.515643],[401.964987,342.515117],[398.965786,318.017698],[303.99108,310.01854],[300.492012,337.515643]]]}},{"type":"Feature","properties":{"id":"11","sid":"S11","isRoute":null,"feat_type":"Landmark","selected":false,"aligned":true,"otype":"Polygon","mapType":"Sketch","gen_id":"g.59"},"geometry":{"type":"Polygon","coordinates":[[[505.937296,451.503634],[596.4132,455.503213],[586.91573,409.508059],[514.9349,408.508164],[502.938095,421.006847],[505.937296,451.503634]]]}},{"type":"Feature","properties":{"id":"12","sid":"S12","isRoute":null,"feat_type":"Landmark","selected":false,"aligned":true,"otype":"Polygon","mapType":"Sketch","gen_id":"g.70.71.72"},"geometry":{"type":"Polygon","coordinates":[[[656.397225,436.505214],[724.379119,446.004214],[723.379386,420.5069],[659.396426,413.00769],[656.397225,436.505214]]]}},{"type":"Feature","properties":{"id":"24","sid":"S24","isRoute":null,"feat_type":"Landmark","selected":false,"aligned":true,"otype":"Polygon","mapType":"Sketch","gen_id":"g.69"},"geometry":{"type":"Polygon","coordinates":[[[651.907076,369.025177],[693.427711,375.004108],[691.428244,360.005689],[651.438894,355.006215],[651.907076,369.025177]]]}}]}