{"type":"FeatureCollection","features":[{"type":"Feature","geometry":{"type":"LineString","coordinates":[[113.98296,441.422608],[238.138187,449.41102],[367.10384,454.410494],[493.033682,455.200928],[658.002663,461.576841]]},"properties":{"mapType":"Sketch","genType3":"Multi-MultiOmissionMerge","SketchRouteSeqOrder":14,"aligned":true,"feat_type":null,"id":"G23","isRoute":"Yes","otype":"Line","selected":false,"sid":"S36","group":true,"groupID":"23","gen_id":"g.122.123.124.125.126.127.128.130.131.132"}},{"type":"Feature","geometry":{"type":"MultiLineString","coordinates":[[[238.138187,449.41102],[230.140317,504.405227]],[[493.033682,455.200928],[492.070558,517.403857]],[[367.10384,454.410494],[370.103041,521.403436]]]},"properties":{"mapType":"Sketch","genType3":"Others","SketchRouteSeqOrder":null,"aligned":true,"feat_type":null,"id":"G24","isRoute":null,"otype":"Line","selected":false,"sid":"S35","group":true,"groupID":"24","gen_id":"g.133.134.135.136.137.138.140"}},{"type":"Feature","geometry":{"type":"MultiPolygon","coordinates":[[[[764.423717,455.218151],[782.418925,453.718309],[782.418925,444.719257],[762.924117,442.719468],[764.423717,455.218151]]],[[[762.212125,428.110893],[780.737852,431.304077],[781.112752,440.553103],[763.492445,440.178142],[762.212125,428.110893]]],[[[765.117012,424.429801],[772.989916,427.054525],[782.987253,428.179406],[785.486587,419.055367],[765.866813,417.055578],[765.117012,424.429801]]],[[[770.490581,411.806131],[788.360822,415.055789],[791.734923,404.681882],[774.989383,401.557211],[770.490581,411.806131]]],[[[784.861754,397.557632],[808.105563,401.057264],[810.729864,391.433278],[789.860422,387.933646],[784.861754,397.557632]]]]},"properties":{"mapType":"Sketch","id":"G20","sid":"S24","isRoute":null,"feat_type":"Landmark","selected":false,"aligned":true,"otype":"Polygon","group":true,"groupID":"20","gen_id":"g.60.61.62.63.64.65.66.67.68"}},{"type":"Feature","geometry":{"type":"MultiPolygon","coordinates":[[[[719.50416,383.809081],[734.875067,386.558791],[748.496439,370.185516],[731.251032,368.06074],[719.50416,383.809081]]],[[[736.749567,362.93628],[753.245174,366.810872],[767.49138,347.437913],[748.371472,346.188044],[736.749567,362.93628]]],[[[757.993909,338.313874],[778.738385,341.188571],[787.361088,327.315033],[769.490847,324.690309],[757.993909,338.313874]]],[[[778.238518,316.441178],[797.10746,317.80596],[806.479964,301.432685],[788.109857,298.932948],[778.238518,316.441178]]]]},"properties":{"mapType":"Sketch","id":"G21","sid":"S28","isRoute":null,"feat_type":"Landmark","selected":false,"aligned":true,"otype":"Polygon","group":true,"groupID":"21","gen_id":"g.73.74.76.77.78.79.80"}},{"id":"0","type":"Feature","properties":{"SketchRouteSeqOrder":null,"aligned":true,"feat_type":null,"id":"0","isRoute":null,"otype":"Line","selected":false,"sid":"S0","mapType":"Sketch","gen_id":"g.0"},"geometry":{"type":"LineString","coordinates":[[105.98509,507.415656],[113.98296,441.422608]]}},{"id":"1","type":"Feature","properties":{"SketchRouteSeqOrder":2,"aligned":true,"feat_type":null,"id":"1","isRoute":"Yes","otype":"Line","selected":false,"sid":"S1","mapType":"Sketch","gen_id":"g.35.42.44"},"geometry":{"type":"LineString","coordinates":[[117.981895,138.454527],[103.985622,270.440622],[113.98296,441.422608]]}},{"id":"2","type":"Feature","properties":{"SketchRouteSeqOrder":1,"aligned":true,"feat_type":null,"id":"2","isRoute":"Yes","otype":"Line","selected":false,"sid":"S2","mapType":"Sketch","gen_id":"g.46"},"geometry":{"type":"LineString","coordinates":[[119.981362,68.461901],[117.981895,138.454527]]}},{"id":"3","type":"Feature","properties":{"SketchRouteSeqOrder":null,"aligned":true,"feat_type":null,"id":"3","isRoute":null,"otype":"Line","selected":false,"sid":"S3","mapType":"Sketch","gen_id":"g.23.27.45"},"geometry":{"type":"LineString","coordinates":[[117.981895,138.454527],[409.904148,150.453263],[667.835453,156.452631]]}},{"id":"4","type":"Feature","properties":{"SketchRouteSeqOrder":null,"aligned":true,"feat_type":null,"id":"10","isRoute":null,"otype":"Line","selected":false,"sid":"S10","mapType":"Sketch","gen_id":"g.9"},"geometry":{"type":"LineString","coordinates":[[564.441623,342.602123],[666.164532,347.351623]]}},{"id":"5","type":"Feature","properties":{"SketchRouteSeqOrder":null,"aligned":true,"feat_type":null,"id":"11","isRoute":null,"otype":"Line","selected":false,"sid":"S11","mapType":"Sketch","gen_id":"g.25.109.110"},"geometry":{"type":"LineString","coordinates":[[666.164532,347.351623],[661.915663,257.11113],[667.835453,156.452631]]}},{"id":"6","type":"Feature","properties":{"SketchRouteSeqOrder":null,"aligned":true,"feat_type":null,"id":"12","isRoute":null,"otype":"Line","selected":false,"sid":"S12","mapType":"Sketch","gen_id":"g.24"},"geometry":{"type":"LineString","coordinates":[[667.835453,156.452631],[661.966052,111.370347]]}},{"id":"7","type":"Feature","properties":{"SketchRouteSeqOrder":null,"aligned":true,"feat_type":null,"id":"13","isRoute":null,"otype":"Line","selected":false,"sid":"S13","mapType":"Sketch","gen_id":"g.26"},"geometry":{"type":"LineString","coordinates":[[667.835453,156.452631],[796.715719,162.358365]]}},{"id":"8","type":"Feature","properties":{"SketchRouteSeqOrder":null,"aligned":true,"feat_type":null,"id":"14","isRoute":null,"otype":"Line","selected":false,"sid":"S14","mapType":"Sketch","gen_id":"g.120.121.142.144"},"geometry":{"type":"LineString","coordinates":[[666.164532,347.351623],[658.002663,461.576841]]}},{"id":"9","type":"Feature","properties":{"SketchRouteSeqOrder":15,"aligned":true,"feat_type":null,"id":"16","isRoute":"Yes","otype":"Line","selected":false,"sid":"S16","mapType":"Sketch","gen_id":"g.12"},"geometry":{"type":"LineString","coordinates":[[658.002663,461.576841],[742.23023,465.076472]]}},{"id":"10","type":"Feature","properties":{"SketchRouteSeqOrder":16,"aligned":true,"feat_type":null,"id":"17","isRoute":"Yes","otype":"Line","selected":false,"sid":"S17","mapType":"Sketch","gen_id":"g.13"},"geometry":{"type":"LineString","coordinates":[[742.23023,465.076472],[850,474.716097]]}},{"id":"11","type":"Feature","properties":{"SketchRouteSeqOrder":null,"aligned":true,"feat_type":null,"id":"19","isRoute":null,"otype":"Line","selected":false,"sid":"S19","mapType":"Sketch","gen_id":"g.14"},"geometry":{"type":"LineString","coordinates":[[742.23023,465.076472],[737.430906,411.222786],[839.403748,289.735586]]}},{"type":"Feature","properties":{"id":"4","sid":"S4","isRoute":null,"feat_type":"Landmark","selected":false,"aligned":true,"otype":"Polygon","mapType":"Sketch","gen_id":"g.48.49.50.51"},"geometry":{"type":"Polygon","coordinates":[[[157.971244,95.459057],[242.948612,99.458636],[254.945417,122.456213],[250.453938,130.228212],[158.478433,125.728686],[157.971244,95.459057]]]}},{"type":"Feature","properties":{"id":"5","sid":"S5","isRoute":null,"feat_type":"Landmark","selected":false,"aligned":true,"otype":"Polygon","mapType":"Sketch","gen_id":"g.47"},"geometry":{"type":"Polygon","coordinates":[[[539.376989,173.723629],[571.368469,176.223366],[569.868868,165.224525],[542.376191,162.724788],[539.376989,173.723629]]]}},{"type":"Feature","properties":{"id":"6","sid":"S6","isRoute":null,"feat_type":"Landmark","selected":false,"aligned":true,"otype":"Polygon","mapType":"Sketch","gen_id":"g.83"},"geometry":{"type":"Polygon","coordinates":[[[610.857952,280.712358],[639.350364,282.212199],[631.852361,265.713938],[608.858484,267.713727],[610.857952,280.712358]]]}},{"type":"Feature","properties":{"id":"7","sid":"S7","isRoute":null,"feat_type":"Landmark","selected":false,"aligned":true,"otype":"Polygon","mapType":"Sketch","gen_id":"g.82"},"geometry":{"type":"Polygon","coordinates":[[[594.862212,302.210093],[643.849165,304.209882],[637.350896,292.711093],[595.362079,291.211251],[594.862212,302.210093]]]}},{"type":"Feature","properties":{"id":"9","sid":"S9","isRoute":null,"feat_type":"Landmark","selected":false,"aligned":true,"otype":"Polygon","mapType":"Sketch","gen_id":"g.81"},"geometry":{"type":"Polygon","coordinates":[[[602.931372,334.103018],[623.175981,335.60286],[623.425914,329.603493],[602.431505,326.853782],[602.931372,334.103018]]]}},{"type":"Feature","properties":{"id":"15","sid":"S15","isRoute":null,"feat_type":"Landmark","selected":false,"aligned":true,"otype":"Polygon","mapType":"Sketch","gen_id":"g.69"},"geometry":{"type":"Polygon","coordinates":[[[682.746073,439.829132],[719.486288,444.828605],[718.736487,413.831871],[687.244875,411.332134],[682.746073,439.829132]]]}},{"type":"Feature","properties":{"id":"18","sid":"S18","isRoute":null,"feat_type":"Landmark","selected":false,"aligned":true,"otype":"Polygon","mapType":"Sketch","gen_id":"g.70.71.72"},"geometry":{"type":"Polygon","coordinates":[[[690.943287,504.712937],[757.425581,507.712621],[752.426912,480.715465],[687.444219,476.215939],[690.943287,504.712937]]]}},{"type":"Feature","properties":{"id":"29","sid":"S29","isRoute":null,"feat_type":"Landmark","selected":false,"aligned":true,"otype":"Polygon","mapType":"Sketch","gen_id":"g.84.85.86.87.88.89.90.91.92.93.94.95.96.97.98.99.100.101.102.103.104.105.106.107.108"},"geometry":{"type":"Polygon","coordinates":[[[533.023031,438.202719],[633.996139,443.202192],[620.999601,381.708671],[528.024363,374.209461],[533.023031,438.202719]]]}},{"type":"Feature","properties":{"id":"37","sid":"S37","isRoute":null,"feat_type":"Landmark","selected":false,"aligned":true,"otype":"Polygon","mapType":"Sketch","gen_id":"g.59"},"geometry":{"type":"Polygon","coordinates":[[[533.059642,520.403541],[631.033548,526.402909],[625.420789,474.214096],[535.944619,470.714464],[533.059642,520.403541]]]}},{"type":"Feature","properties":{"id":"38","sid":"S38","isRoute":null,"feat_type":"Landmark","selected":false,"aligned":true,"otype":"CircleMarker","mapType":"Sketch","gen_id":"g.57"},"geometry":{"type":"Polygon","coordinates":[[[253.5,434.929725],[253.495185,434.831708],[253.480785,434.734635],[253.45694,434.63944],[253.42388,434.547042],[253.381921,434.458328],[253.33147,434.374155],[253.27301,434.295332],[253.207107,434.222618],[253.134393,434.156715],[253.05557,434.098255],[252.971397,434.047804],[252.882683,434.005845],[252.790285,433.972785],[252.69509,433.94894],[252.598017,433.93454],[252.5,433.929725],[252.401983,433.93454],[252.30491,433.94894],[252.209715,433.972785],[252.117317,434.005845],[252.028603,434.047804],[251.94443,434.098255],[251.865607,434.156715],[251.792893,434.222618],[251.72699,434.295332],[251.66853,434.374155],[251.618079,434.458328],[251.57612,434.547042],[251.54306,434.63944],[251.519215,434.734635],[251.504815,434.831708],[251.5,434.929725],[251.504815,435.027742],[251.519215,435.124815],[251.54306,435.22001],[251.57612,435.312408],[251.618079,435.401122],[251.66853,435.485295],[251.72699,435.564118],[251.792893,435.636832],[251.865607,435.702735],[251.94443,435.761195],[252.028603,435.811646],[252.117317,435.853605],[252.209715,435.886665],[252.30491,435.91051],[252.401983,435.92491],[252.5,435.929725],[252.598017,435.92491],[252.69509,435.91051],[252.790285,435.886665],[252.882683,435.853605],[252.971397,435.811646],[253.05557,435.761195],[253.134393,435.702735],[253.207107,435.636832],[253.27301,435.564118],[253.33147,435.485295],[253.381921,435.401122],[253.42388,435.312408],[253.45694,435.22001],[253.480785,435.124815],[253.495185,435.027742],[253.5,434.929725]]]}}]}