{"type":"FeatureCollection","features":[{"type":"Feature","geometry":{"type":"LineString","coordinates":[[115.887928,444.537041],[237.5,449.443495],[370.5,453.725783],[496,455.727683],[659.393721,461.26852]]},"properties":{"mapType":"Sketch","genType3":"Multi-MultiOmissionMerge","SketchRouteSeqOrder":14,"aligned":true,"feat_type":null,"id":"G1","isRoute":"Yes","otype":"Line","selected":false,"sid":"S52","group":true,"groupID":"1","gen_id":"g.122.123.124.125.126.127.128.130.131.132"}},{"type":"Feature","geometry":{"type":"MultiLineString","coordinates":[[[234.5,497.489079],[237.5,449.443495]],[[366.75,497.517331],[370.5,453.725783]],[[493.5,507.526828],[496,455.727683]]]},"properties":{"mapType":"Sketch","genType3":"Others","SketchRouteSeqOrder":null,"aligned":true,"feat_type":null,"id":"G2","isRoute":null,"otype":"Line","selected":false,"sid":"S51","group":true,"groupID":"2","gen_id":"g.133.134.135.136.137.138.140"}},{"type":"Feature","geometry":{"type":"MultiPolygon","coordinates":[[[[718.916121,382.88426],[725.414035,372.63426],[733.161547,366.63426],[748.90649,370.88426],[749.203165,373.19213],[740.455974,382.69213],[735.207659,386.56713],[722.293376,384.658565],[719.481779,384.158565],[718.916121,382.88426]]],[[[751.98499,367.033565],[738.051964,364.596065],[737.177245,363.221065],[740.238762,358.221065],[743.362759,354.408565],[745.112197,350.658565],[747.673874,348.346065],[751.17275,347.346065],[757.608184,347.283565],[763.731217,348.283565],[767.105134,348.783565],[767.105134,350.408565],[763.731217,352.533565],[762.481619,357.908565],[760.232341,359.908565],[756.795945,361.596065],[754.609147,365.783565],[751.98499,367.033565]]],[[[778.586271,340.31713],[769.089321,340.44213],[761.341809,339.94213],[757.593013,338.31713],[758.467732,335.94213],[765.715404,329.69213],[768.964361,325.44213],[771.963398,325.19213],[780.585629,325.94213],[788.208181,328.19213],[782.210107,337.44213],[780.418136,339.783565],[778.586271,340.31713]]],[[[778.72941,316.44213],[778.72941,311.69213],[784.477564,304.69213],[786.976761,301.31713],[788.976119,298.44213],[796.098832,298.44213],[807.47018,301.06713],[804.221223,305.94213],[802.471785,309.19213],[796.924195,316.283565],[796.424356,317.533565],[782.739825,317.346065],[778.72941,316.44213]]]]},"properties":{"mapType":"Sketch","id":"G6","sid":"S34","isRoute":null,"feat_type":"Landmark","selected":false,"aligned":true,"otype":"Polygon","group":true,"groupID":"6","gen_id":"g.73.74.76.77.78.79.80"}},{"type":"Feature","geometry":{"type":"MultiPolygon","coordinates":[[[[763.361874,453.69213],[762.112275,443.19213],[774.983142,443.31713],[782.355774,443.56713],[783.480413,452.06713],[782.230814,454.31713],[772.858824,454.19213],[763.361874,453.69213]]],[[[763.236914,439.31713],[761.737395,429.06713],[770.984426,429.19213],[778.606978,430.31713],[780.981216,433.56713],[780.981216,440.31713],[769.359948,440.31713],[763.236914,439.31713]]],[[[783.612337,428.658565],[773.553068,427.783565],[765.180756,426.158565],[765.118276,421.846065],[765.368196,419.596065],[768.242273,416.721065],[785.049376,418.596065],[786.298974,421.783565],[784.799456,426.533565],[783.612337,428.658565]]],[[[787.798493,415.783565],[779.926021,415.471065],[770.99139,413.346065],[771.61619,405.658565],[774.865146,402.096065],[778.239063,401.471065],[783.862257,402.596065],[792.172088,404.471065],[791.359849,409.096065],[789.173051,414.908565],[787.798493,415.783565]]],[[[807.106197,401.158565],[785.3007,398.033565],[784.738381,394.721065],[788.237257,388.471065],[790.673974,387.908565],[803.294921,389.033565],[811.104913,390.908565],[809.542915,395.658565],[808.230836,398.658565],[808.480756,400.596065],[807.106197,401.158565]]]]},"properties":{"mapType":"Sketch","id":"G7","sid":"S39","isRoute":null,"feat_type":"Landmark","selected":false,"aligned":true,"otype":"Polygon","group":true,"groupID":"7","gen_id":"g.60.61.62.63.64.65.66.67.68"}},{"id":"0","type":"Feature","properties":{"SketchRouteSeqOrder":null,"aligned":true,"feat_type":null,"group":null,"groupID":null,"id":"12","isRoute":null,"otype":"Line","selected":false,"sid":"S12","mapType":"Sketch","gen_id":"g.11"},"geometry":{"type":"LineString","coordinates":[[659.393079,508.76852],[659.393721,461.26852]]}},{"id":"1","type":"Feature","properties":{"SketchRouteSeqOrder":15,"aligned":true,"feat_type":null,"group":null,"groupID":null,"id":"13","isRoute":"Yes","otype":"Line","selected":false,"sid":"S13","mapType":"Sketch","gen_id":"g.12"},"geometry":{"type":"LineString","coordinates":[[659.393721,461.26852],[738.891956,465.76852]]}},{"id":"2","type":"Feature","properties":{"SketchRouteSeqOrder":null,"aligned":true,"feat_type":null,"group":null,"groupID":null,"id":"14","isRoute":null,"otype":"Line","selected":false,"sid":"S14","mapType":"Sketch","gen_id":"g.14"},"geometry":{"type":"LineString","coordinates":[[738.891956,465.76852],[736.392758,413.76852],[837.860173,291.76852]]}},{"id":"3","type":"Feature","properties":{"SketchRouteSeqOrder":16,"aligned":true,"feat_type":null,"group":null,"groupID":null,"id":"15","isRoute":"Yes","otype":"Line","selected":false,"sid":"S15","mapType":"Sketch","gen_id":"g.13"},"geometry":{"type":"LineString","coordinates":[[738.891956,465.76852],[850,475.26852]]}},{"id":"4","type":"Feature","properties":{"SketchRouteSeqOrder":null,"aligned":true,"feat_type":null,"group":null,"groupID":null,"id":"16","isRoute":null,"otype":"Line","selected":false,"sid":"S16","mapType":"Sketch","gen_id":"g.120.121.142.144"},"geometry":{"type":"LineString","coordinates":[[659.393721,461.26852],[665.5,345.5]]}},{"id":"5","type":"Feature","properties":{"SketchRouteSeqOrder":null,"aligned":true,"feat_type":null,"group":null,"groupID":null,"id":"17","isRoute":null,"otype":"Line","selected":false,"sid":"S17","mapType":"Sketch","gen_id":"g.25.109.110"},"geometry":{"type":"LineString","coordinates":[[665.5,345.5],[662.401105,156.76852]]}},{"id":"6","type":"Feature","properties":{"SketchRouteSeqOrder":null,"aligned":true,"feat_type":null,"group":null,"groupID":null,"id":"18","isRoute":null,"otype":"Line","selected":false,"sid":"S18","mapType":"Sketch","gen_id":"g.9"},"geometry":{"type":"LineString","coordinates":[[665.5,345.5],[573.429678,342.76852]]}},{"id":"7","type":"Feature","properties":{"SketchRouteSeqOrder":null,"aligned":true,"feat_type":null,"group":null,"groupID":null,"id":"19","isRoute":null,"otype":"Line","selected":false,"sid":"S19","mapType":"Sketch","gen_id":"g.26"},"geometry":{"type":"LineString","coordinates":[[662.401105,156.76852],[796.857926,160.76852]]}},{"id":"8","type":"Feature","properties":{"SketchRouteSeqOrder":null,"aligned":true,"feat_type":null,"group":null,"groupID":null,"id":"20","isRoute":null,"otype":"Line","selected":false,"sid":"S20","mapType":"Sketch","gen_id":"g.24"},"geometry":{"type":"LineString","coordinates":[[662.401105,156.76852],[658.402389,114.26852]]}},{"id":"9","type":"Feature","properties":{"SketchRouteSeqOrder":1,"aligned":true,"feat_type":null,"group":null,"groupID":null,"id":"23","isRoute":"Yes","otype":"Line","selected":false,"sid":"S23","mapType":"Sketch","gen_id":"g.46"},"geometry":{"type":"LineString","coordinates":[[116.498701,97.76852],[115.998861,138.76852]]}},{"id":"10","type":"Feature","properties":{"SketchRouteSeqOrder":2,"aligned":true,"feat_type":null,"group":null,"groupID":null,"id":"24","isRoute":"Yes","otype":"Line","selected":false,"sid":"S24","mapType":"Sketch","gen_id":"g.35.42.44"},"geometry":{"type":"LineString","coordinates":[[115.998861,138.76852],[103.978781,292.537041],[115.887928,444.537041]]}},{"id":"11","type":"Feature","properties":{"SketchRouteSeqOrder":null,"aligned":true,"feat_type":null,"group":null,"groupID":null,"id":"25","isRoute":null,"otype":"Line","selected":false,"sid":"S25","mapType":"Sketch","gen_id":"g.23.27.45"},"geometry":{"type":"LineString","coordinates":[[115.998861,138.76852],[316,147.605888],[483,151.609687],[662.401105,156.76852]]}},{"id":"12","type":"Feature","properties":{"SketchRouteSeqOrder":null,"aligned":true,"feat_type":null,"group":null,"groupID":null,"id":"45","isRoute":null,"otype":"Line","selected":false,"sid":"S45","mapType":"Sketch","gen_id":"g.0"},"geometry":{"type":"LineString","coordinates":[[113,496.940171],[115.887928,444.537041]]}},{"type":"Feature","properties":{"id":"27","sid":"S27","isRoute":null,"feat_type":"Landmark","selected":false,"aligned":true,"otype":"Polygon","mapType":"Sketch","gen_id":"g.84.85.86.87.88.89.90.91.92.93.94.95.96.97.98.99.100.101.102.103.104.105.106.107.108"},"geometry":{"type":"Polygon","coordinates":[[[533.967808,439.13426],[524.720778,415.38426],[523.971019,387.13426],[528.969414,373.88426],[570.206171,374.63426],[618.690601,378.13426],[624.188835,384.63426],[634.185624,440.38426],[628.93731,444.63426],[588.200392,443.63426],[561.45898,442.13426],[533.967808,439.13426]]]}},{"type":"Feature","properties":{"id":"28","sid":"S28","isRoute":null,"feat_type":"Landmark","selected":false,"aligned":true,"otype":"Polygon","mapType":"Sketch","gen_id":"g.59"},"geometry":{"type":"Polygon","coordinates":[[[632.436186,524.88426],[576.454164,524.63426],[534.717568,520.88426],[532.21837,515.38426],[533.218049,509.63426],[530.219012,499.88426],[532.71821,471.63426],[538.216444,467.63426],[575.454485,468.38426],[614.192045,469.63426],[625.938273,472.38426],[629.936989,483.88426],[632.186267,509.38426],[633.435865,516.63426],[632.436186,524.88426]]]}},{"type":"Feature","properties":{"id":"29","sid":"S29","isRoute":null,"feat_type":"Landmark","selected":false,"aligned":true,"otype":"Polygon","mapType":"Sketch","gen_id":"g.70.71.72"},"geometry":{"type":"Polygon","coordinates":[[[691.417245,504.63426],[685.419171,480.88426],[688.918048,477.13426],[753.397341,479.13426],[757.895896,505.88426],[751.647903,508.13426],[691.417245,504.63426]]]}},{"type":"Feature","properties":{"id":"30","sid":"S30","isRoute":null,"feat_type":"Landmark","selected":false,"aligned":true,"otype":"Polygon","mapType":"Sketch","gen_id":"g.69"},"geometry":{"type":"Polygon","coordinates":[[[719.9158,443.88426],[704.170857,444.38426],[682.927679,440.88426],[680.928321,431.63426],[685.426876,412.13426],[693.174388,410.63426],[719.9158,415.13426],[721.915158,433.63426],[719.9158,443.88426]]]}},{"type":"Feature","properties":{"id":"40","sid":"S40","isRoute":null,"feat_type":"Landmark","selected":false,"aligned":true,"otype":"Polygon","mapType":"Sketch","gen_id":"g.81"},"geometry":{"type":"Polygon","coordinates":[[[623.718414,335.81713],[615.720982,335.94213],[602.975076,334.31713],[602.100357,328.81713],[604.474594,326.69213],[622.968655,328.19213],[622.843695,330.94213],[624.983886,333.846065],[623.718414,335.81713]]]}},{"type":"Feature","properties":{"id":"41","sid":"S41","isRoute":null,"feat_type":"Landmark","selected":false,"aligned":true,"otype":"Polygon","mapType":"Sketch","gen_id":"g.82"},"geometry":{"type":"Polygon","coordinates":[[[643.459586,304.56713],[632.213197,304.56713],[594.725236,302.81713],[592.725878,295.94213],[592.725878,291.69213],[597.099474,290.19213],[631.213518,290.06713],[639.21095,291.31713],[641.335268,295.31713],[642.334947,299.69213],[643.459586,304.56713]]]}},{"type":"Feature","properties":{"id":"42","sid":"S42","isRoute":null,"feat_type":"Landmark","selected":false,"aligned":true,"otype":"Polygon","mapType":"Sketch","gen_id":"g.83"},"geometry":{"type":"Polygon","coordinates":[[[637.586472,283.19213],[610.59514,281.19213],[607.846023,269.06713],[610.970019,267.94213],[632.213197,268.19213],[637.961351,277.94213],[637.586472,283.19213]]]}},{"type":"Feature","properties":{"id":"43","sid":"S43","isRoute":null,"feat_type":"Landmark","selected":false,"aligned":true,"otype":"Polygon","mapType":"Sketch","gen_id":"g.47"},"geometry":{"type":"Polygon","coordinates":[[[571.671659,175.13426],[538.432334,175.13426],[540.715645,164.81713],[545.46412,164.69213],[569.456415,164.94213],[572.080573,171.94213],[571.671659,175.13426]]]}},{"type":"Feature","properties":{"id":"44","sid":"S44","isRoute":null,"feat_type":"Landmark","selected":false,"aligned":true,"otype":"Polygon","mapType":"Sketch","gen_id":"g.48.49.50.51"},"geometry":{"type":"Polygon","coordinates":[[[156.946861,126.13426],[153.198065,109.88426],[156.946861,97.88426],[175.191002,97.13426],[223.425512,100.63426],[244.66869,103.63426],[250.916683,117.38426],[253.415881,126.63426],[247.167887,132.63426],[178.939798,130.13426],[162.445095,129.13426],[156.946861,126.13426]]]}},{"type":"Feature","properties":{"id":"53","sid":"S53","isRoute":null,"feat_type":"Landmark","selected":false,"aligned":true,"otype":"CircleMarker","mapType":"Sketch","gen_id":"g.57"},"geometry":{"type":"Polygon","coordinates":[[[252.5,435.711776],[252.495185,435.613759],[252.480785,435.516686],[252.45694,435.421491],[252.42388,435.329093],[252.381921,435.240379],[252.33147,435.156206],[252.27301,435.077383],[252.207107,435.004669],[252.134393,434.938766],[252.05557,434.880306],[251.971397,434.829855],[251.882683,434.787896],[251.790285,434.754836],[251.69509,434.730991],[251.598017,434.716591],[251.5,434.711776],[251.401983,434.716591],[251.30491,434.730991],[251.209715,434.754836],[251.117317,434.787896],[251.028603,434.829855],[250.94443,434.880306],[250.865607,434.938766],[250.792893,435.004669],[250.72699,435.077383],[250.66853,435.156206],[250.618079,435.240379],[250.57612,435.329093],[250.54306,435.421491],[250.519215,435.516686],[250.504815,435.613759],[250.5,435.711776],[250.504815,435.809793],[250.519215,435.906866],[250.54306,436.002061],[250.57612,436.094459],[250.618079,436.183173],[250.66853,436.267346],[250.72699,436.346169],[250.792893,436.418883],[250.865607,436.484786],[250.94443,436.543246],[251.028603,436.593697],[251.117317,436.635656],[251.209715,436.668716],[251.30491,436.692561],[251.401983,436.706961],[251.5,436.711776],[251.598017,436.706961],[251.69509,436.692561],[251.790285,436.668716],[251.882683,436.635656],[251.971397,436.593697],[252.05557,436.543246],[252.134393,436.484786],[252.207107,436.418883],[252.27301,436.346169],[252.33147,436.267346],[252.381921,436.183173],[252.42388,436.094459],[252.45694,436.002061],[252.480785,435.906866],[252.495185,435.809793],[252.5,435.711776]]]}}]}