{"type":"FeatureCollection","features":[{"type":"Feature","geometry":{"type":"LineString","coordinates":[[621.714568,398.537041],[624.900551,317.13426],[627.399749,230.13426],[630.432735,175.13426]]},"properties":{"mapType":"Sketch","genType3":"Multi-MultiOmissionMerge","SketchRouteSeqOrder":null,"aligned":true,"feat_type":null,"id":"G17","isRoute":null,"otype":"Line","selected":false,"sid":"S22","group":true,"groupID":"17","gen_id":"g.25.109.110.120.121.142.144"}},{"type":"Feature","geometry":{"type":"MultiLineString","coordinates":[[[627.399749,230.13426],[680.882573,232.88426]],[[624.900551,317.13426],[669.922943,317.88426]]]},"properties":{"mapType":"Sketch","genType3":"Others","SketchRouteSeqOrder":null,"aligned":true,"feat_type":null,"id":"G18","isRoute":null,"otype":"Line","selected":false,"sid":"S27","group":true,"groupID":"18","gen_id":"g.111.114.119.146"}},{"type":"Feature","geometry":{"type":"MultiPolygon","coordinates":[[[[163.438835,147.63426],[163.188915,131.88426],[169.436909,127.88426],[205.425351,130.88426],[214.922301,135.88426],[214.922301,148.88426],[208.924228,150.63426],[190.930006,151.13426],[163.438835,147.63426]]],[[[217.831857,126.81713],[220.705934,117.44213],[218.206736,109.56713],[175.345501,105.81713],[168.722628,108.19213],[168.847588,119.56713],[170.347106,124.19213],[217.831857,126.81713]]]]},"properties":{"mapType":"Sketch","id":"G12","sid":"S14","isRoute":null,"feat_type":"Landmark","selected":false,"aligned":true,"otype":"Polygon","group":true,"groupID":"12","gen_id":"g.48.49.50.51"}},{"id":"0","type":"Feature","properties":{"SketchRouteSeqOrder":null,"aligned":true,"feat_type":null,"id":"0","isRoute":null,"otype":"Line","selected":false,"sid":"S0","mapType":"Sketch","gen_id":"g.0"},"geometry":{"type":"LineString","coordinates":[[133.871234,427.537041],[134.870913,377.537041]]}},{"id":"1","type":"Feature","properties":{"SketchRouteSeqOrder":14,"aligned":true,"feat_type":null,"id":"1","isRoute":"Yes","otype":"Line","selected":false,"sid":"S1","mapType":"Sketch","gen_id":"g.122.123.124.125.126.127.128.130.131.132"},"geometry":{"type":"LineString","coordinates":[[134.870913,377.537041],[408.782948,387.537041],[621.714568,398.537041]]}},{"id":"2","type":"Feature","properties":{"SketchRouteSeqOrder":null,"aligned":true,"feat_type":null,"id":"2","isRoute":null,"otype":"Line","selected":false,"sid":"S2","mapType":"Sketch","gen_id":"g.11"},"geometry":{"type":"LineString","coordinates":[[625.713283,457.537041],[621.714568,398.537041]]}},{"id":"3","type":"Feature","properties":{"SketchRouteSeqOrder":15,"aligned":true,"feat_type":null,"id":"3","isRoute":"Yes","otype":"Line","selected":false,"sid":"S3","mapType":"Sketch","gen_id":"g.12"},"geometry":{"type":"LineString","coordinates":[[621.714568,398.537041],[707.842195,402.76852]]}},{"id":"4","type":"Feature","properties":{"SketchRouteSeqOrder":16,"aligned":true,"feat_type":null,"id":"4","isRoute":"Yes","otype":"Line","selected":false,"sid":"S4","mapType":"Sketch","gen_id":"g.13"},"geometry":{"type":"LineString","coordinates":[[707.842195,402.76852],[785.817154,410.26852]]}},{"id":"5","type":"Feature","properties":{"SketchRouteSeqOrder":null,"aligned":true,"feat_type":null,"id":"5","isRoute":null,"otype":"Line","selected":false,"sid":"S5","mapType":"Sketch","gen_id":"g.14.15"},"geometry":{"type":"LineString","coordinates":[[707.842195,402.76852],[707.842195,287.26852],[711.683106,162.537041]]}},{"id":"6","type":"Feature","properties":{"SketchRouteSeqOrder":null,"aligned":true,"feat_type":null,"id":"7","isRoute":null,"otype":"Line","selected":false,"sid":"S7","mapType":"Sketch","gen_id":"g.24"},"geometry":{"type":"LineString","coordinates":[[630.432735,175.13426],[633.181852,130.88426]]}},{"id":"7","type":"Feature","properties":{"SketchRouteSeqOrder":null,"aligned":true,"feat_type":null,"id":"8","isRoute":null,"otype":"Line","selected":false,"sid":"S8","mapType":"Sketch","gen_id":"g.26"},"geometry":{"type":"LineString","coordinates":[[630.432735,175.13426],[773.818599,209.76852]]}},{"id":"8","type":"Feature","properties":{"SketchRouteSeqOrder":2,"aligned":true,"feat_type":null,"id":"9","isRoute":"Yes","otype":"Line","selected":false,"sid":"S9","mapType":"Sketch","gen_id":"g.35.42.44"},"geometry":{"type":"LineString","coordinates":[[136.000642,165],[129.882149,270.537041],[134.870913,377.537041]]}},{"id":"9","type":"Feature","properties":{"SketchRouteSeqOrder":1,"aligned":true,"feat_type":null,"id":"11","isRoute":"Yes","otype":"Line","selected":false,"sid":"S11","mapType":"Sketch","gen_id":"g.46"},"geometry":{"type":"LineString","coordinates":[[138.971179,109.38426],[136.000642,165]]}},{"id":"10","type":"Feature","properties":{"SketchRouteSeqOrder":null,"aligned":true,"feat_type":null,"id":"12","isRoute":null,"otype":"Line","selected":false,"sid":"S12","mapType":"Sketch","gen_id":"g.23.27.45"},"geometry":{"type":"LineString","coordinates":[[136.000642,165],[234.402229,163.26852],[359.861939,164.76852],[472.825662,168.76852],[572.793558,172.76852],[630.432735,175.13426]]}},{"type":"Feature","properties":{"id":"15","sid":"S15","isRoute":null,"feat_type":"Landmark","selected":false,"aligned":false,"otype":"Polygon","mapType":"Sketch"},"geometry":{"type":"Polygon","coordinates":[[[380.425833,150.38426],[378.676395,136.38426],[433.158898,137.13426],[437.657453,152.13426],[383.087555,152.31713],[380.425833,150.38426]]]}},{"type":"Feature","properties":{"id":"28","sid":"S28","isRoute":null,"feat_type":"Landmark","selected":false,"aligned":true,"otype":"Polygon","mapType":"Sketch","gen_id":"g.53.54.55.56"},"geometry":{"type":"Polygon","coordinates":[[[304.396129,335.76852],[303.697583,319.38426],[306.4467,312.13426],[311.695015,310.13426],[368.426796,313.38426],[391.169492,316.38426],[398.417165,317.38426],[400.416523,324.38426],[400.166603,344.13426],[377.673826,341.63426],[368.176876,341.13426],[349.932735,340.13426],[321.441885,338.63426],[307.598109,338.69213],[303.724353,338.69213],[304.396129,335.76852]]]}},{"type":"Feature","properties":{"id":"29","sid":"S29","isRoute":null,"feat_type":"Landmark","selected":false,"aligned":false,"otype":"Polygon","mapType":"Sketch"},"geometry":{"type":"Polygon","coordinates":[[[311.950553,370.38426],[310.201114,359.38426],[310.950874,351.63426],[314.94959,346.88426],[331.694212,344.38426],[362.184421,347.63426],[369.432093,349.38426],[372.68105,361.88426],[373.930648,369.63426],[370.681692,372.63426],[337.942206,370.88426],[311.950553,370.38426]]]}},{"type":"Feature","properties":{"id":"30","sid":"S30","isRoute":null,"feat_type":"Landmark","selected":false,"aligned":true,"otype":"Polygon","mapType":"Sketch","gen_id":"g.59"},"geometry":{"type":"Polygon","coordinates":[[[506.87478,450.76852],[502.376225,427.76852],[507.874459,406.76852],[587.848776,412.26852],[593.347011,453.76852],[589.348295,457.26852],[506.87478,450.76852]]]}},{"type":"Feature","properties":{"id":"31","sid":"S31","isRoute":null,"feat_type":"Landmark","selected":false,"aligned":true,"otype":"Polygon","mapType":"Sketch","gen_id":"g.84.85.86.87.88.89.90.91.92.93.94.95.96.97.98.99.100.101.102.103.104.105.106.107.108"},"geometry":{"type":"Polygon","coordinates":[[[592.847171,382.26852],[489.380398,377.26852],[489.380398,338.76852],[489.380398,329.76852],[492.879275,308.76852],[546.861939,310.76852],[582.350542,314.76852],[590.924228,317.88426],[593.673345,325.13426],[592.173826,351.63426],[592.847171,382.26852]]]}},{"type":"Feature","properties":{"id":"32","sid":"S32","isRoute":null,"feat_type":"Landmark","selected":false,"aligned":true,"otype":"Polygon","mapType":"Sketch","gen_id":"g.69"},"geometry":{"type":"Polygon","coordinates":[[[647.832258,373.06713],[648.914195,360.13426],[652.163152,356.13426],[691.900391,358.88426],[692.65015,375.88426],[647.832258,373.06713]]]}},{"type":"Feature","properties":{"id":"33","sid":"S33","isRoute":null,"feat_type":"Landmark","selected":false,"aligned":true,"otype":"Polygon","mapType":"Sketch","gen_id":"g.70.71.72"},"geometry":{"type":"Polygon","coordinates":[[[725.139636,444.63426],[684.652638,441.13426],[675.155688,441.13426],[656.911547,437.63426],[655.162108,423.88426],[658.910905,412.13426],[688.901273,414.38426],[722.140599,417.38426],[722.140599,431.13426],[724.389877,436.88426],[725.139636,444.63426]]]}}]}