{"type":"FeatureCollection","features":[{"id":"0","type":"Feature","properties":{"SketchRouteSeqOrder":null,"aligned":true,"feat_type":null,"id":"0","isRoute":null,"otype":"Line","selected":false,"sid":"S0","mapType":"Sketch","gen_id":"g.0"},"geometry":{"type":"LineString","coordinates":[[81.783922,506],[82.783678,465]]}},{"id":"1","type":"Feature","properties":{"SketchRouteSeqOrder":4,"aligned":true,"feat_type":null,"id":"1","isRoute":"Yes","otype":"Line","selected":false,"sid":"S1","mapType":"Sketch","gen_id":"g.35"},"geometry":{"type":"LineString","coordinates":[[97.780016,335],[82.783678,465]]}},{"id":"2","type":"Feature","properties":{"SketchRouteSeqOrder":3,"aligned":true,"feat_type":null,"id":"2","isRoute":"Yes","otype":"Line","selected":false,"sid":"S2","mapType":"Sketch","gen_id":"g.42"},"geometry":{"type":"LineString","coordinates":[[111.776598,173],[97.780016,335]]}},{"id":"3","type":"Feature","properties":{"SketchRouteSeqOrder":2,"aligned":true,"feat_type":null,"id":"3","isRoute":"Yes","otype":"Line","selected":false,"sid":"S3","mapType":"Sketch","gen_id":"g.44"},"geometry":{"type":"LineString","coordinates":[[117.775133,126],[111.776598,173]]}},{"id":"4","type":"Feature","properties":{"SketchRouteSeqOrder":1,"aligned":true,"feat_type":null,"id":"4","isRoute":"Yes","otype":"Line","selected":false,"sid":"S4","mapType":"Sketch","gen_id":"g.46"},"geometry":{"type":"LineString","coordinates":[[121.774156,74],[117.775133,126]]}},{"id":"5","type":"Feature","properties":{"SketchRouteSeqOrder":null,"aligned":true,"feat_type":null,"id":"5","isRoute":null,"otype":"Line","selected":false,"sid":"S5","mapType":"Sketch","gen_id":"g.45"},"geometry":{"type":"LineString","coordinates":[[117.775133,126],[269.738021,136]]}},{"id":"6","type":"Feature","properties":{"SketchRouteSeqOrder":null,"aligned":true,"feat_type":null,"id":"6","isRoute":null,"otype":"Line","selected":false,"sid":"S6","mapType":"Sketch","gen_id":"g.27"},"geometry":{"type":"LineString","coordinates":[[269.738021,136],[484.685528,142]]}},{"id":"7","type":"Feature","properties":{"SketchRouteSeqOrder":null,"aligned":true,"feat_type":null,"id":"7","isRoute":null,"otype":"Line","selected":false,"sid":"S7","mapType":"Sketch","gen_id":"g.23"},"geometry":{"type":"LineString","coordinates":[[484.685528,142],[645.646219,148]]}},{"id":"8","type":"Feature","properties":{"SketchRouteSeqOrder":null,"aligned":true,"feat_type":null,"id":"8","isRoute":null,"otype":"Line","selected":false,"sid":"S8","mapType":"Sketch","gen_id":"g.26"},"geometry":{"type":"LineString","coordinates":[[645.646219,148],[841.398614,171.75]]}},{"id":"9","type":"Feature","properties":{"SketchRouteSeqOrder":null,"aligned":true,"feat_type":null,"id":"9","isRoute":null,"otype":"Line","selected":false,"sid":"S9","mapType":"Sketch","gen_id":"g.28"},"geometry":{"type":"LineString","coordinates":[[269.738021,136],[258.730941,178]]}},{"id":"10","type":"Feature","properties":{"SketchRouteSeqOrder":null,"aligned":true,"feat_type":null,"id":"10","isRoute":null,"otype":"Line","selected":false,"sid":"S10","mapType":"Sketch","gen_id":"g.29"},"geometry":{"type":"LineString","coordinates":[[258.730941,178],[252.732406,264]]}},{"id":"11","type":"Feature","properties":{"SketchRouteSeqOrder":null,"aligned":true,"feat_type":null,"id":"11","isRoute":null,"otype":"Line","selected":false,"sid":"S11","mapType":"Sketch","gen_id":"g.32"},"geometry":{"type":"LineString","coordinates":[[252.732406,264],[244.734359,341]]}},{"id":"12","type":"Feature","properties":{"SketchRouteSeqOrder":null,"aligned":true,"feat_type":null,"id":"12","isRoute":null,"otype":"Line","selected":false,"sid":"S12","mapType":"Sketch","gen_id":"g.34"},"geometry":{"type":"LineString","coordinates":[[244.734359,341],[97.780016,335]]}},{"id":"13","type":"Feature","properties":{"SketchRouteSeqOrder":null,"aligned":true,"feat_type":null,"id":"13","isRoute":null,"otype":"Line","selected":false,"sid":"S13","mapType":"Sketch","gen_id":"g.43"},"geometry":{"type":"LineString","coordinates":[[258.730941,178],[111.776598,173]]}},{"id":"14","type":"Feature","properties":{"SketchRouteSeqOrder":null,"aligned":true,"feat_type":null,"id":"14","isRoute":null,"otype":"Line","selected":false,"sid":"S14","mapType":"Sketch","gen_id":"g.24"},"geometry":{"type":"LineString","coordinates":[[645.646219,148],[651.297717,85]]}},{"id":"15","type":"Feature","properties":{"SketchRouteSeqOrder":null,"aligned":true,"feat_type":null,"id":"15","isRoute":null,"otype":"Line","selected":false,"sid":"S15","mapType":"Sketch","gen_id":"g.21"},"geometry":{"type":"LineString","coordinates":[[484.685528,142],[426.85253,232.5],[423.853263,267.5]]}},{"id":"16","type":"Feature","properties":{"SketchRouteSeqOrder":null,"aligned":true,"feat_type":null,"id":"16","isRoute":null,"otype":"Line","selected":false,"sid":"S16","mapType":"Sketch","gen_id":"g.38"},"geometry":{"type":"LineString","coordinates":[[423.853263,267.5],[421.853751,350]]}},{"id":"17","type":"Feature","properties":{"SketchRouteSeqOrder":null,"aligned":true,"feat_type":null,"id":"17","isRoute":null,"otype":"Line","selected":false,"sid":"S17","mapType":"Sketch","gen_id":"g.5"},"geometry":{"type":"LineString","coordinates":[[421.853751,350],[423.353385,404.5]]}},{"id":"18","type":"Feature","properties":{"SketchRouteSeqOrder":null,"aligned":true,"feat_type":null,"id":"18","isRoute":null,"otype":"Line","selected":false,"sid":"S18","mapType":"Sketch","gen_id":"g.2"},"geometry":{"type":"LineString","coordinates":[[268.891107,472],[278.888665,400.5]]}},{"id":"19","type":"Feature","properties":{"SketchRouteSeqOrder":null,"aligned":true,"feat_type":null,"id":"19","isRoute":null,"otype":"Line","selected":false,"sid":"S19","mapType":"Sketch","gen_id":"g.7"},"geometry":{"type":"LineString","coordinates":[[278.888665,400.5],[282.387811,347]]}},{"id":"20","type":"Feature","properties":{"SketchRouteSeqOrder":null,"aligned":true,"feat_type":null,"id":"20","isRoute":null,"otype":"Line","selected":false,"sid":"S20","mapType":"Sketch","gen_id":"g.33"},"geometry":{"type":"LineString","coordinates":[[282.387811,347],[244.734359,341]]}},{"id":"21","type":"Feature","properties":{"SketchRouteSeqOrder":null,"aligned":true,"feat_type":null,"id":"21","isRoute":null,"otype":"Line","selected":false,"sid":"S21","mapType":"Sketch","gen_id":"g.8"},"geometry":{"type":"LineString","coordinates":[[282.387811,347],[421.853751,350]]}},{"id":"22","type":"Feature","properties":{"SketchRouteSeqOrder":null,"aligned":true,"feat_type":null,"id":"22","isRoute":null,"otype":"Line","selected":false,"sid":"S22","mapType":"Sketch","gen_id":"g.6"},"geometry":{"type":"LineString","coordinates":[[278.888665,400.5],[423.353385,404.5]]}},{"id":"23","type":"Feature","properties":{"SketchRouteSeqOrder":null,"aligned":true,"feat_type":null,"id":"23","isRoute":null,"otype":"Line","selected":false,"sid":"S23","mapType":"Sketch","gen_id":"g.4"},"geometry":{"type":"LineString","coordinates":[[423.353385,404.5],[491.336782,410],[484.838369,477]]}},{"id":"24","type":"Feature","properties":{"SketchRouteSeqOrder":null,"aligned":true,"feat_type":null,"id":"24","isRoute":null,"otype":"Line","selected":false,"sid":"S24","mapType":"Sketch","gen_id":"g.30"},"geometry":{"type":"LineString","coordinates":[[252.732406,264],[423.853263,267.5]]}},{"id":"25","type":"Feature","properties":{"SketchRouteSeqOrder":11,"aligned":true,"feat_type":null,"id":"26","isRoute":"Yes","otype":"Line","selected":false,"sid":"S26","mapType":"Sketch","gen_id":"g.126.127.128"},"geometry":{"type":"LineString","coordinates":[[268.891107,472],[484.838369,477]]}},{"id":"26","type":"Feature","properties":{"SketchRouteSeqOrder":null,"aligned":true,"feat_type":null,"id":"27","isRoute":null,"otype":"Line","selected":false,"sid":"S27","mapType":"Sketch","gen_id":"g.11"},"geometry":{"type":"LineString","coordinates":[[653.319935,535.5],[647.3214,479.5]]}},{"id":"27","type":"Feature","properties":{"SketchRouteSeqOrder":null,"aligned":true,"feat_type":null,"id":"28","isRoute":null,"otype":"Line","selected":false,"sid":"S28","mapType":"Sketch","gen_id":"g.120.121"},"geometry":{"type":"LineString","coordinates":[[647.3214,479.5],[644.822011,381.5]]}},{"id":"28","type":"Feature","properties":{"SketchRouteSeqOrder":null,"aligned":true,"feat_type":null,"id":"29","isRoute":null,"otype":"Line","selected":false,"sid":"S29","mapType":"Sketch","gen_id":"g.142.144"},"geometry":{"type":"LineString","coordinates":[[644.822011,381.5],[644.822011,350.5]]}},{"id":"29","type":"Feature","properties":{"SketchRouteSeqOrder":null,"aligned":false,"feat_type":null,"id":"30","isRoute":null,"otype":"Line","selected":false,"sid":"S30","mapType":"Sketch"},"geometry":{"type":"LineString","coordinates":[[644.822011,350.5],[646.821522,275.5]]}},{"id":"30","type":"Feature","properties":{"SketchRouteSeqOrder":null,"aligned":true,"feat_type":null,"id":"31","isRoute":null,"otype":"Line","selected":false,"sid":"S31","mapType":"Sketch","gen_id":"g.25.109.110"},"geometry":{"type":"LineString","coordinates":[[646.821522,275.5],[645.646219,148]]}},{"id":"31","type":"Feature","properties":{"SketchRouteSeqOrder":null,"aligned":true,"feat_type":null,"id":"32","isRoute":null,"otype":"Line","selected":false,"sid":"S32","mapType":"Sketch","gen_id":"g.20"},"geometry":{"type":"LineString","coordinates":[[423.853263,267.5],[646.821522,275.5]]}},{"id":"32","type":"Feature","properties":{"SketchRouteSeqOrder":null,"aligned":true,"feat_type":null,"id":"33","isRoute":null,"otype":"Line","selected":false,"sid":"S33","mapType":"Sketch","gen_id":"g.9"},"geometry":{"type":"LineString","coordinates":[[421.853751,350],[644.822011,350.5]]}},{"id":"33","type":"Feature","properties":{"SketchRouteSeqOrder":14,"aligned":true,"feat_type":null,"id":"34","isRoute":"Yes","otype":"Line","selected":false,"sid":"S34","mapType":"Sketch","gen_id":"g.130.131.132"},"geometry":{"type":"LineString","coordinates":[[484.838369,477],[647.3214,479.5]]}},{"id":"34","type":"Feature","properties":{"SketchRouteSeqOrder":15,"aligned":true,"feat_type":null,"id":"35","isRoute":"Yes","otype":"Line","selected":false,"sid":"S35","mapType":"Sketch","gen_id":"g.12"},"geometry":{"type":"LineString","coordinates":[[647.3214,479.5],[726.80199,484]]}},{"id":"35","type":"Feature","properties":{"SketchRouteSeqOrder":16,"aligned":true,"feat_type":null,"id":"36","isRoute":"Yes","otype":"Line","selected":false,"sid":"S36","mapType":"Sketch","gen_id":"g.13"},"geometry":{"type":"LineString","coordinates":[[726.80199,484],[808.781969,490.5]]}},{"id":"36","type":"Feature","properties":{"SketchRouteSeqOrder":null,"aligned":true,"feat_type":null,"id":"37","isRoute":null,"otype":"Line","selected":false,"sid":"S37","mapType":"Sketch","gen_id":"g.14"},"geometry":{"type":"LineString","coordinates":[[726.80199,484],[723.302844,442.5],[764.792712,387.5]]}},{"id":"37","type":"Feature","properties":{"SketchRouteSeqOrder":null,"aligned":true,"feat_type":null,"id":"38","isRoute":null,"otype":"Line","selected":false,"sid":"S38","mapType":"Sketch","gen_id":"g.114"},"geometry":{"type":"LineString","coordinates":[[644.822011,381.5],[764.792712,387.5]]}},{"id":"38","type":"Feature","properties":{"SketchRouteSeqOrder":null,"aligned":true,"feat_type":null,"id":"39","isRoute":null,"otype":"Line","selected":false,"sid":"S39","mapType":"Sketch","gen_id":"g.15"},"geometry":{"type":"LineString","coordinates":[[764.792712,387.5],[806.28258,343],[809.281847,238],[801.783678,189],[812.281115,135.5]]}},{"id":"39","type":"Feature","properties":{"SketchRouteSeqOrder":8,"aligned":true,"feat_type":null,"id":"59","isRoute":"Yes","otype":"Line","selected":false,"sid":"S59","mapType":"Sketch","gen_id":"g.122.123.124.125"},"geometry":{"type":"LineString","coordinates":[[82.783678,465],[268.891107,472]]}},{"type":"Feature","properties":{"id":"40","sid":"S40","isRoute":null,"feat_type":"Landmark","selected":false,"aligned":false,"otype":"Polygon","mapType":"Sketch"},"geometry":{"type":"Polygon","coordinates":[[[29.371452,420],[9.876213,380.5],[15.37487,321],[19.373894,163.5],[71.361198,150],[47.866935,417],[29.371452,420]]]}},{"type":"Feature","properties":{"id":"41","sid":"S41","isRoute":null,"feat_type":"Landmark","selected":false,"aligned":true,"otype":"Polygon","mapType":"Sketch","gen_id":"g.49"},"geometry":{"type":"Polygon","coordinates":[[[179.937923,123.25],[186.186397,116],[146.446103,100.5],[139.447812,115.5],[179.937923,123.25]]]}},{"type":"Feature","properties":{"id":"42","sid":"S42","isRoute":null,"feat_type":"Landmark","selected":false,"aligned":true,"otype":"Polygon","mapType":"Sketch","gen_id":"g.48"},"geometry":{"type":"Polygon","coordinates":[[[144.611663,97.625],[144.299239,82.75],[177.041243,83.9375],[181.665114,104.3125],[144.611663,97.625]]]}},{"type":"Feature","properties":{"id":"43","sid":"S43","isRoute":null,"feat_type":"Landmark","selected":false,"aligned":true,"otype":"Polygon","mapType":"Sketch","gen_id":"g.51"},"geometry":{"type":"Polygon","coordinates":[[[196.983809,122.125],[206.606459,105.375],[215.604262,104.0625],[237.786345,108.3125],[229.225935,125.75],[196.983809,122.125]]]}},{"type":"Feature","properties":{"id":"44","sid":"S44","isRoute":null,"feat_type":"Landmark","selected":false,"aligned":true,"otype":"Polygon","mapType":"Sketch","gen_id":"g.50"},"geometry":{"type":"Polygon","coordinates":[[[196.73387,99.8125],[209.355788,81.1875],[238.223738,85.625],[231.037993,102.375],[196.73387,99.8125]]]}},{"type":"Feature","properties":{"id":"45","sid":"S45","isRoute":null,"feat_type":"Landmark","selected":false,"aligned":true,"otype":"Polygon","mapType":"Sketch","gen_id":"g.47"},"geometry":{"type":"Polygon","coordinates":[[[528.423518,162.25],[526.923885,154.5],[533.422298,152.25],[554.667109,153.5],[554.667109,162.5],[528.423518,162.25]]]}},{"type":"Feature","properties":{"id":"46","sid":"S46","isRoute":null,"feat_type":"Landmark","selected":false,"aligned":true,"otype":"Polygon","mapType":"Sketch","gen_id":"g.81"},"geometry":{"type":"Polygon","coordinates":[[[593.432247,343.5],[592.432491,333.5],[608.928462,335],[609.928218,344.75],[593.432247,343.5]]]}},{"type":"Feature","properties":{"id":"47","sid":"S47","isRoute":null,"feat_type":"Landmark","selected":false,"aligned":true,"otype":"Polygon","mapType":"Sketch","gen_id":"g.60"},"geometry":{"type":"Polygon","coordinates":[[[738.911249,473.75],[736.41186,460],[769.403803,462.25],[767.904169,476.25],[738.911249,473.75]]]}},{"type":"Feature","properties":{"id":"48","sid":"S48","isRoute":null,"feat_type":"Landmark","selected":false,"aligned":true,"otype":"Polygon","mapType":"Sketch","gen_id":"g.61"},"geometry":{"type":"Polygon","coordinates":[[[736.41186,460],[739.911005,444.75],[769.153864,445],[769.403803,462.25],[736.41186,460]]]}},{"type":"Feature","properties":{"id":"49","sid":"S49","isRoute":null,"feat_type":"Landmark","selected":false,"aligned":true,"otype":"Polygon","mapType":"Sketch","gen_id":"g.70"},"geometry":{"type":"Polygon","coordinates":[[[727.663996,520.25],[730.163386,504.5],[770.653498,506.75],[767.904169,524.75],[727.663996,520.25]]]}},{"type":"Feature","properties":{"id":"50","sid":"S50","isRoute":null,"feat_type":"Landmark","selected":false,"aligned":true,"otype":"Polygon","mapType":"Sketch","gen_id":"g.72"},"geometry":{"type":"Polygon","coordinates":[[[727.663996,520.25],[684.174617,520.25],[685.92419,503.25],[730.163386,504.5],[727.663996,520.25]]]}},{"type":"Feature","properties":{"id":"51","sid":"S51","isRoute":null,"feat_type":"Landmark","selected":false,"aligned":true,"otype":"Polygon","mapType":"Sketch","gen_id":"g.71"},"geometry":{"type":"Polygon","coordinates":[[[685.92419,503.25],[689.923213,489],[728.663752,492],[730.163386,504.5],[685.92419,503.25]]]}},{"type":"Feature","properties":{"id":"52","sid":"S52","isRoute":null,"feat_type":"Landmark","selected":false,"aligned":true,"otype":"Polygon","mapType":"Sketch","gen_id":"g.59"},"geometry":{"type":"Polygon","coordinates":[[[562.195187,536],[558.696042,493.75],[625.679683,495.5],[625.929622,541.5],[562.195187,536]]]}},{"type":"Feature","properties":{"id":"53","sid":"S53","isRoute":null,"feat_type":"Landmark","selected":false,"aligned":true,"otype":"Polygon","mapType":"Sketch","gen_id":"g.84.85.86.87.88.89.90.91.92.93.94.95.96.97.98.99.100.101.102.103.104.105.106.107.108"},"geometry":{"type":"Polygon","coordinates":[[[506.187374,467.25],[519.684078,363.75],[622.65893,366.25],[624.908381,471.25],[506.187374,467.25]]]}},{"type":"Feature","properties":{"id":"54","sid":"S54","isRoute":null,"feat_type":"Landmark","selected":false,"aligned":true,"otype":"Polygon","mapType":"Sketch","gen_id":"g.54"},"geometry":{"type":"Polygon","coordinates":[[[344.726805,442],[344.976744,435.75],[422.457822,437.25],[421.708005,444.75],[344.726805,442]]]}},{"type":"Feature","properties":{"id":"55","sid":"S55","isRoute":null,"feat_type":"Landmark","selected":false,"aligned":true,"otype":"Polygon","mapType":"Sketch","gen_id":"g.53"},"geometry":{"type":"Polygon","coordinates":[[[345.9765,430.75],[344.476866,410.25],[419.708494,413.5],[421.957944,431.75],[345.9765,430.75]]]}},{"type":"Feature","properties":{"id":"56","sid":"S56","isRoute":null,"feat_type":"Landmark","selected":false,"aligned":true,"otype":"Polygon","mapType":"Sketch","gen_id":"g.56"},"geometry":{"type":"Polygon","coordinates":[[[433.205197,444.75],[429.955991,434],[473.44537,436.25],[476.194699,444.25],[433.205197,444.75]]]}},{"type":"Feature","properties":{"id":"57","sid":"S57","isRoute":null,"feat_type":"Landmark","selected":false,"aligned":true,"otype":"Polygon","mapType":"Sketch","gen_id":"g.55"},"geometry":{"type":"Polygon","coordinates":[[[435.427734,431.625],[432.490951,413.75],[457.547332,414.5],[455.422851,431.625],[435.427734,431.625]]]}},{"type":"Feature","properties":{"id":"58","sid":"S58","isRoute":null,"feat_type":"Landmark","selected":false,"aligned":true,"otype":"Polygon","mapType":"Sketch","gen_id":"g.57"},"geometry":{"type":"Polygon","coordinates":[[[228.471922,456.5],[228.9718,445],[250.466551,447.5],[248.966917,458],[228.471922,456.5]]]}}]}