{"type":"FeatureCollection","features":[{"type":"Feature","geometry":{"type":"MultiPolygon","coordinates":[[[[199.75,205.437321],[204,195.191221],[228.25,198.190079],[226.5,209.685704],[199.75,205.437321]]],[[[240.25,210.685324],[233.25,198.439984],[263,198.190079],[268,207.93637],[240.25,210.685324]]],[[[204,189.343423],[206.625,177.847798],[230.75,181.596371],[229.5,192.217329],[204,189.343423]]],[[[245.625,193.966663],[242.5,182.471038],[270.875,181.971229],[273.375,193.716758],[245.625,193.966663]]]]},"properties":{"mapType":"Sketch","id":"G4","sid":"S17","isRoute":null,"feat_type":"Landmark","selected":false,"aligned":true,"otype":"Polygon","group":true,"groupID":"4","gen_id":"g.48.49.50.51"}},{"id":"0","type":"Feature","properties":{"SketchRouteSeqOrder":null,"aligned":true,"feat_type":null,"id":"0","isRoute":null,"otype":"Line","selected":false,"sid":"S0","mapType":"Sketch","gen_id":"g.0"},"geometry":{"type":"LineString","coordinates":[[191,470.79551],[193.5,421.314342]]}},{"id":"1","type":"Feature","properties":{"SketchRouteSeqOrder":null,"aligned":false,"feat_type":null,"id":"1","isRoute":null,"otype":"Line","selected":false,"sid":"S1","mapType":"Sketch"},"geometry":{"type":"LineString","coordinates":[[193.5,421.314342],[115,420.314722]]}},{"id":"2","type":"Feature","properties":{"SketchRouteSeqOrder":2,"aligned":true,"feat_type":null,"id":"2","isRoute":"Yes","otype":"Line","selected":false,"sid":"S2","mapType":"Sketch","gen_id":"g.35.42.44"},"geometry":{"type":"LineString","coordinates":[[190.5,215.392714],[197.5,330.848772],[193.5,421.314342]]}},{"id":"3","type":"Feature","properties":{"SketchRouteSeqOrder":null,"aligned":false,"feat_type":null,"id":"3","isRoute":null,"otype":"Line","selected":false,"sid":"S3","mapType":"Sketch"},"geometry":{"type":"LineString","coordinates":[[190.5,215.392714],[97,211.894045]]}},{"id":"4","type":"Feature","properties":{"SketchRouteSeqOrder":1,"aligned":true,"feat_type":null,"id":"4","isRoute":"Yes","otype":"Line","selected":false,"sid":"S4","mapType":"Sketch","gen_id":"g.46"},"geometry":{"type":"LineString","coordinates":[[184.5,169.410214],[190.5,215.392714]]}},{"id":"5","type":"Feature","properties":{"SketchRouteSeqOrder":null,"aligned":true,"feat_type":null,"id":"5","isRoute":null,"otype":"Line","selected":false,"sid":"S5","mapType":"Sketch","gen_id":"g.23.27.45"},"geometry":{"type":"LineString","coordinates":[[190.5,215.392714],[572,228.77097]]}},{"id":"6","type":"Feature","properties":{"SketchRouteSeqOrder":14,"aligned":true,"feat_type":null,"id":"6","isRoute":"Yes","otype":"Line","selected":false,"sid":"S6","mapType":"Sketch","gen_id":"g.122.123.124.125.126.127.128.130.131.132"},"geometry":{"type":"LineString","coordinates":[[193.5,421.314342],[569,431.69374]]}},{"id":"7","type":"Feature","properties":{"SketchRouteSeqOrder":null,"aligned":true,"feat_type":null,"id":"7","isRoute":null,"otype":"Line","selected":false,"sid":"S7","mapType":"Sketch","gen_id":"g.11"},"geometry":{"type":"LineString","coordinates":[[569,431.69374],[569,491.79589]]}},{"id":"8","type":"Feature","properties":{"SketchRouteSeqOrder":15,"aligned":true,"feat_type":null,"id":"8","isRoute":"Yes","otype":"Line","selected":false,"sid":"S8","mapType":"Sketch","gen_id":"g.12"},"geometry":{"type":"LineString","coordinates":[[569,431.69374],[621,433.318146]]}},{"id":"9","type":"Feature","properties":{"SketchRouteSeqOrder":16,"aligned":true,"feat_type":null,"id":"9","isRoute":"Yes","otype":"Line","selected":false,"sid":"S9","mapType":"Sketch","gen_id":"g.13"},"geometry":{"type":"LineString","coordinates":[[621,433.318146],[751,434.317766]]}},{"id":"10","type":"Feature","properties":{"SketchRouteSeqOrder":null,"aligned":true,"feat_type":null,"id":"10","isRoute":null,"otype":"Line","selected":false,"sid":"S10","mapType":"Sketch","gen_id":"g.14"},"geometry":{"type":"LineString","coordinates":[[621,433.318146],[620.5,402.32994],[626.5,387.335647],[707,320.361137]]}},{"id":"11","type":"Feature","properties":{"SketchRouteSeqOrder":null,"aligned":true,"feat_type":null,"id":"11","isRoute":null,"otype":"Line","selected":false,"sid":"S11","mapType":"Sketch","gen_id":"g.25.109.110.120.121.142.144"},"geometry":{"type":"LineString","coordinates":[[569,431.69374],[572,228.77097]]}},{"id":"12","type":"Feature","properties":{"SketchRouteSeqOrder":null,"aligned":true,"feat_type":null,"id":"12","isRoute":null,"otype":"Line","selected":false,"sid":"S12","mapType":"Sketch","gen_id":"g.26"},"geometry":{"type":"LineString","coordinates":[[572,228.77097],[665,226.396898]]}},{"id":"13","type":"Feature","properties":{"SketchRouteSeqOrder":null,"aligned":true,"feat_type":null,"id":"13","isRoute":null,"otype":"Line","selected":false,"sid":"S13","mapType":"Sketch","gen_id":"g.24"},"geometry":{"type":"LineString","coordinates":[[572,228.77097],[568,175.916111]]}},{"type":"Feature","properties":{"id":"18","sid":"S18","isRoute":null,"feat_type":"Landmark","selected":false,"aligned":true,"otype":"Polygon","mapType":"Sketch","gen_id":"g.84.85.86.87.88.89.90.91.92.93.94.95.96.97.98.99.100.101.102.103.104.105.106.107.108"},"geometry":{"type":"Polygon","coordinates":[[[465.5,417.311298],[456,363.331842],[534.5,363.831652],[547.5,419.310538],[465.5,417.311298]]]}},{"type":"Feature","properties":{"id":"19","sid":"S19","isRoute":null,"feat_type":"Landmark","selected":false,"aligned":true,"otype":"Polygon","mapType":"Sketch","gen_id":"g.59"},"geometry":{"type":"Polygon","coordinates":[[[479.5,442.801597],[487.5,484.285809],[559,486.285048],[549.5,443.801217],[479.5,442.801597]]]}}]}