{"type":"FeatureCollection","features":[{"type":"Feature","geometry":{"type":"LineString","coordinates":[[111,446.83869],[234,450.723795],[371,453.722654],[496,454.722273],[660,459.720371]]},"properties":{"mapType":"Sketch","genType3":"Multi-MultiOmissionMerge","id":"G4","sid":"S7","isRoute":"Yes","feat_type":null,"selected":false,"aligned":true,"otype":"Line","SketchRouteSeqOrder":15,"group":true,"groupID":"4","gen_id":"g.122.123.124.125.126.127.128.130.131.132"}},{"type":"Feature","geometry":{"type":"MultiLineString","coordinates":[[[496,454.722273],[495,503.703632]],[[234,450.723795],[235,492.707816]],[[371,453.722654],[368,495.706675]]]},"properties":{"mapType":"Sketch","genType3":"Others","id":"G5","sid":"S10","isRoute":null,"feat_type":null,"selected":false,"aligned":true,"otype":"Line","group":true,"groupID":"5","gen_id":"g.133.134.135.136.137.138.140"}},{"type":"Feature","geometry":{"type":"MultiPolygon","coordinates":[[[[763.25,453.180283],[762.5,442.934183],[782.75,443.933802],[783,453.929998],[763.25,453.180283]]],[[[763.125,440.045737],[761.5,428.550112],[776.25,429.424779],[780.9375,432.298685],[781.1875,440.48307],[763.125,440.045737]]],[[[764.5625,425.488777],[764.625,419.553536],[767.8125,416.867058],[785.25,418.553916],[783.375,428.550112],[764.5625,425.488777]]],[[[770.6875,412.993532],[771.5625,406.058672],[774.8125,401.310479],[792.25,403.996956],[788.75,415.492581],[770.6875,412.993532]]],[[[784.875,397.749334],[784.5625,393.875808],[788.5625,387.878091],[796.3125,387.878091],[810.8125,390.87695],[807.4375,400.935621],[784.875,397.749334]]]]},"properties":{"mapType":"Sketch","id":"G25","sid":"S30","isRoute":null,"feat_type":"Landmark","selected":false,"aligned":true,"otype":"Polygon","group":true,"groupID":"25","gen_id":"g.60.61.62.63.64.65.66.67.68"}},{"type":"Feature","geometry":{"type":"MultiPolygon","coordinates":[[[[735,386.621481],[749.5,372.25195],[731.125,367.503757],[718.75,383.747574],[735,386.621481]]],[[[753.375,367.003947],[768.125,349.2607],[748.5,346.511746],[736.25,364.005088],[753.375,367.003947]]],[[[779.375,340.514029],[788.5,328.143737],[770.25,324.020306],[756.875,338.889647],[779.375,340.514029]]],[[[796.125,317.272874],[808.125,300.779151],[788,298.280102],[777,316.523159],[796.125,317.272874]]]]},"properties":{"mapType":"Sketch","id":"G26","sid":"S34","isRoute":null,"feat_type":"Landmark","selected":false,"aligned":true,"otype":"Polygon","group":true,"groupID":"26","gen_id":"g.73.74.76.77.78.79.80"}},{"type":"Feature","properties":{"id":"0","sid":"S0","isRoute":null,"feat_type":null,"selected":false,"aligned":true,"otype":"Line","mapType":"Sketch","gen_id":"g.0"},"geometry":{"type":"LineString","coordinates":[[108,498.818907],[111,446.83869]]}},{"type":"Feature","properties":{"id":"1","sid":"S1","isRoute":"Yes","feat_type":null,"selected":false,"aligned":true,"otype":"Line","SketchRouteSeqOrder":2,"mapType":"Sketch","gen_id":"g.35.42.44"},"geometry":{"type":"LineString","coordinates":[[111,446.83869],[102,266.793797],[114,137.842874]]}},{"type":"Feature","properties":{"id":"2","sid":"S2","isRoute":"Yes","feat_type":null,"selected":false,"aligned":true,"otype":"Line","SketchRouteSeqOrder":1,"mapType":"Sketch","gen_id":"g.46"},"geometry":{"type":"LineString","coordinates":[[114,137.842874],[115,94.859233]]}},{"type":"Feature","properties":{"id":"3","sid":"S3","isRoute":null,"feat_type":null,"selected":false,"aligned":true,"otype":"Line","mapType":"Sketch","gen_id":"g.23.27.45"},"geometry":{"type":"LineString","coordinates":[[114,137.842874],[431,153.836787],[662,155.836026]]}},{"type":"Feature","properties":{"id":"11","sid":"S11","isRoute":null,"feat_type":null,"selected":false,"aligned":true,"otype":"Line","mapType":"Sketch","gen_id":"g.11"},"geometry":{"type":"LineString","coordinates":[[660,459.720371],[660,508.701729]]}},{"type":"Feature","properties":{"id":"12","sid":"S12","isRoute":null,"feat_type":null,"selected":false,"aligned":true,"otype":"Line","mapType":"Sketch","gen_id":"g.120.121.142.144"},"geometry":{"type":"LineString","coordinates":[[660,459.720371],[665,343.764503]]}},{"type":"Feature","properties":{"id":"13","sid":"S13","isRoute":null,"feat_type":null,"selected":false,"aligned":true,"otype":"Line","mapType":"Sketch","gen_id":"g.25.109.110"},"geometry":{"type":"LineString","coordinates":[[665,343.764503],[662,155.836026]]}},{"type":"Feature","properties":{"id":"14","sid":"S14","isRoute":null,"feat_type":null,"selected":false,"aligned":true,"otype":"Line","mapType":"Sketch","gen_id":"g.9"},"geometry":{"type":"LineString","coordinates":[[665,343.764503],[572,341.765264]]}},{"type":"Feature","properties":{"id":"15","sid":"S15","isRoute":"Yes","feat_type":null,"selected":false,"aligned":true,"otype":"Line","SketchRouteSeqOrder":16,"mapType":"Sketch","gen_id":"g.12"},"geometry":{"type":"LineString","coordinates":[[660,459.720371],[740,467.717328]]}},{"type":"Feature","properties":{"id":"16","sid":"S16","isRoute":"Yes","feat_type":null,"selected":false,"aligned":true,"otype":"Line","SketchRouteSeqOrder":17,"mapType":"Sketch","gen_id":"g.13"},"geometry":{"type":"LineString","coordinates":[[740,467.717328],[844.75,474.926954]]}},{"type":"Feature","properties":{"id":"17","sid":"S17","isRoute":null,"feat_type":null,"selected":false,"aligned":true,"otype":"Line","mapType":"Sketch","gen_id":"g.14"},"geometry":{"type":"LineString","coordinates":[[740,467.717328],[737.5,409.414589],[836,293.458721]]}},{"type":"Feature","properties":{"id":"18","sid":"S18","isRoute":null,"feat_type":null,"selected":false,"aligned":true,"otype":"Line","mapType":"Sketch","gen_id":"g.26"},"geometry":{"type":"LineString","coordinates":[[662,155.836026],[799,160.934561]]}},{"type":"Feature","properties":{"id":"19","sid":"S19","isRoute":null,"feat_type":null,"selected":false,"aligned":true,"otype":"Line","mapType":"Sketch","gen_id":"g.24"},"geometry":{"type":"LineString","coordinates":[[662,155.836026],[660,114.952062]]}},{"type":"Feature","properties":{"id":"20","sid":"S20","isRoute":null,"feat_type":"Landmark","selected":false,"aligned":true,"otype":"Polygon","mapType":"Sketch","gen_id":"g.48.49.50.51"},"geometry":{"type":"Polygon","coordinates":[[[156.5,125.86418],[156,96.875213],[245,102.373121],[253.5,129.362849],[156.5,125.86418]]]}},{"type":"Feature","properties":{"id":"21","sid":"S21","isRoute":null,"feat_type":"Landmark","selected":false,"aligned":true,"otype":"CircleMarker","mapType":"Sketch","gen_id":"g.57"},"geometry":{"type":"Polygon","coordinates":[[[252.75,435.416397],[252.745185,435.31838],[252.730785,435.221307],[252.70694,435.126112],[252.67388,435.033714],[252.631921,434.945],[252.58147,434.860827],[252.52301,434.782004],[252.457107,434.70929],[252.384393,434.643387],[252.30557,434.584927],[252.221397,434.534476],[252.132683,434.492517],[252.040285,434.459457],[251.94509,434.435612],[251.848017,434.421212],[251.75,434.416397],[251.651983,434.421212],[251.55491,434.435612],[251.459715,434.459457],[251.367317,434.492517],[251.278603,434.534476],[251.19443,434.584927],[251.115607,434.643387],[251.042893,434.70929],[250.97699,434.782004],[250.91853,434.860827],[250.868079,434.945],[250.82612,435.033714],[250.79306,435.126112],[250.769215,435.221307],[250.754815,435.31838],[250.75,435.416397],[250.754815,435.514414],[250.769215,435.611487],[250.79306,435.706682],[250.82612,435.79908],[250.868079,435.887794],[250.91853,435.971967],[250.97699,436.05079],[251.042893,436.123504],[251.115607,436.189407],[251.19443,436.247867],[251.278603,436.298318],[251.367317,436.340277],[251.459715,436.373337],[251.55491,436.397182],[251.651983,436.411582],[251.75,436.416397],[251.848017,436.411582],[251.94509,436.397182],[252.040285,436.373337],[252.132683,436.340277],[252.221397,436.298318],[252.30557,436.247867],[252.384393,436.189407],[252.457107,436.123504],[252.52301,436.05079],[252.58147,435.971967],[252.631921,435.887794],[252.67388,435.79908],[252.70694,435.706682],[252.730785,435.611487],[252.745185,435.514414],[252.75,435.416397]]]}},{"type":"Feature","properties":{"id":"22","sid":"S22","isRoute":null,"feat_type":"Landmark","selected":false,"aligned":true,"otype":"Polygon","mapType":"Sketch","gen_id":"g.59"},"geometry":{"type":"Polygon","coordinates":[[[535,518.313581],[532,467.332984],[624,470.831652],[633.5,525.810728],[535,518.313581]]]}},{"type":"Feature","properties":{"id":"23","sid":"S23","isRoute":null,"feat_type":"Landmark","selected":false,"aligned":true,"otype":"Polygon","mapType":"Sketch","gen_id":"g.84.85.86.87.88.89.90.91.92.93.94.95.96.97.98.99.100.101.102.103.104.105.106.107.108"},"geometry":{"type":"Polygon","coordinates":[[[533.5,437.844207],[522.5,408.85524],[526.5,371.869316],[622,377.367224],[634.5,441.342875],[533.5,437.844207]]]}},{"type":"Feature","properties":{"id":"24","sid":"S24","isRoute":null,"feat_type":"Landmark","selected":false,"aligned":true,"otype":"Polygon","mapType":"Sketch","gen_id":"g.70.71.72"},"geometry":{"type":"Polygon","coordinates":[[[691.5,504.66069],[685.25,478.420677],[753.25,479.170391],[757,506.659929],[691.5,504.66069]]]}},{"type":"Feature","properties":{"id":"25","sid":"S25","isRoute":null,"feat_type":"Landmark","selected":false,"aligned":true,"otype":"Polygon","mapType":"Sketch","gen_id":"g.69"},"geometry":{"type":"Polygon","coordinates":[[[682.5,439.935324],[683.75,411.196262],[719.5,414.445025],[720.25,444.433612],[682.5,439.935324]]]}},{"type":"Feature","properties":{"id":"35","sid":"S35","isRoute":null,"feat_type":"Landmark","selected":false,"aligned":true,"otype":"Polygon","mapType":"Sketch","gen_id":"g.81"},"geometry":{"type":"Polygon","coordinates":[[[602.5,334.161546],[602.75,325.414875],[625,327.164209],[624.5,335.660975],[602.5,334.161546]]]}},{"type":"Feature","properties":{"id":"36","sid":"S36","isRoute":null,"feat_type":"Landmark","selected":false,"aligned":true,"otype":"Polygon","mapType":"Sketch","gen_id":"g.82"},"geometry":{"type":"Polygon","coordinates":[[[594.75,303.17334],[592,290.428191],[638.25,289.428571],[644.5,304.672769],[594.75,303.17334]]]}},{"type":"Feature","properties":{"id":"37","sid":"S37","isRoute":null,"feat_type":"Landmark","selected":false,"aligned":true,"otype":"Polygon","mapType":"Sketch","gen_id":"g.83"},"geometry":{"type":"Polygon","coordinates":[[[611,281.681519],[607.75,267.936751],[634.5,268.93637],[637.5,284.180568],[611,281.681519]]]}},{"type":"Feature","properties":{"id":"38","sid":"S38","isRoute":null,"feat_type":"Landmark","selected":false,"aligned":true,"otype":"Polygon","mapType":"Sketch","gen_id":"g.47"},"geometry":{"type":"Polygon","coordinates":[[[542,174.407551],[541,163.411736],[570,165.910785],[572,174.907361],[542,174.407551]]]}}]}