{"type":"FeatureCollection","features":[{"id":"0","type":"Feature","properties":{"SketchRouteSeqOrder":null,"aligned":true,"feat_type":null,"id":"0","isRoute":null,"otype":"Line","selected":false,"sid":"S0","mapType":"Sketch","gen_id":"g.0"},"geometry":{"type":"LineString","coordinates":[[141,511.038425],[141,470.054023]]}},{"id":"1","type":"Feature","properties":{"SketchRouteSeqOrder":2,"aligned":true,"feat_type":null,"id":"1","isRoute":"Yes","otype":"Line","selected":false,"sid":"S1","mapType":"Sketch","gen_id":"g.35.42.44"},"geometry":{"type":"LineString","coordinates":[[121,144.178048],[141,470.054023]]}},{"id":"2","type":"Feature","properties":{"SketchRouteSeqOrder":1,"aligned":true,"feat_type":null,"id":"2","isRoute":"Yes","otype":"Line","selected":false,"sid":"S2","mapType":"Sketch","gen_id":"g.46"},"geometry":{"type":"LineString","coordinates":[[125,91.198212],[121,144.178048]]}},{"id":"3","type":"Feature","properties":{"SketchRouteSeqOrder":null,"aligned":true,"feat_type":null,"id":"3","isRoute":null,"otype":"Line","selected":false,"sid":"S3","mapType":"Sketch","gen_id":"g.23.27.45"},"geometry":{"type":"LineString","coordinates":[[121,144.178048],[668,162.1712]]}},{"id":"4","type":"Feature","properties":{"SketchRouteSeqOrder":14,"aligned":true,"feat_type":null,"id":"4","isRoute":"Yes","otype":"Line","selected":false,"sid":"S4","mapType":"Sketch","gen_id":"g.122.123.124.125.126.127.128.130.131.132"},"geometry":{"type":"LineString","coordinates":[[141,470.054023],[672,474.052501]]}},{"id":"5","type":"Feature","properties":{"SketchRouteSeqOrder":null,"aligned":true,"feat_type":null,"id":"5","isRoute":null,"otype":"Line","selected":false,"sid":"S5","mapType":"Sketch","gen_id":"g.11"},"geometry":{"type":"LineString","coordinates":[[672,474.052501],[681,546.025109]]}},{"id":"6","type":"Feature","properties":{"SketchRouteSeqOrder":15,"aligned":true,"feat_type":null,"id":"6","isRoute":"Yes","otype":"Line","selected":false,"sid":"S6","mapType":"Sketch","gen_id":"g.12"},"geometry":{"type":"LineString","coordinates":[[672,474.052501],[746,477.05136]]}},{"id":"7","type":"Feature","properties":{"SketchRouteSeqOrder":16,"aligned":true,"feat_type":null,"id":"7","isRoute":"Yes","otype":"Line","selected":false,"sid":"S7","mapType":"Sketch","gen_id":"g.13"},"geometry":{"type":"LineString","coordinates":[[746,477.05136],[804,476.05174]]}},{"id":"8","type":"Feature","properties":{"SketchRouteSeqOrder":null,"aligned":true,"feat_type":null,"id":"8","isRoute":null,"otype":"Line","selected":false,"sid":"S8","mapType":"Sketch","gen_id":"g.14"},"geometry":{"type":"LineString","coordinates":[[746,477.05136],[746,446.063154],[797,398.081415]]}},{"id":"9","type":"Feature","properties":{"SketchRouteSeqOrder":null,"aligned":true,"feat_type":null,"id":"9","isRoute":null,"otype":"Line","selected":false,"sid":"S9","mapType":"Sketch","gen_id":"g.120.121.142.144"},"geometry":{"type":"LineString","coordinates":[[672,474.052501],[671,337.104622]]}},{"id":"10","type":"Feature","properties":{"SketchRouteSeqOrder":null,"aligned":true,"feat_type":null,"id":"10","isRoute":null,"otype":"Line","selected":false,"sid":"S10","mapType":"Sketch","gen_id":"g.9"},"geometry":{"type":"LineString","coordinates":[[671,337.104622],[515,337.104622]]}},{"id":"11","type":"Feature","properties":{"SketchRouteSeqOrder":null,"aligned":true,"feat_type":null,"id":"11","isRoute":null,"otype":"Line","selected":false,"sid":"S11","mapType":"Sketch","gen_id":"g.25.109.110"},"geometry":{"type":"LineString","coordinates":[[671,337.104622],[668,162.1712]]}},{"id":"12","type":"Feature","properties":{"SketchRouteSeqOrder":null,"aligned":true,"feat_type":null,"id":"12","isRoute":null,"otype":"Line","selected":false,"sid":"S12","mapType":"Sketch","gen_id":"g.24"},"geometry":{"type":"LineString","coordinates":[[668,162.1712],[672,111.190603]]}},{"type":"Feature","properties":{"id":"13","sid":"S13","isRoute":null,"feat_type":"Landmark","selected":false,"aligned":false,"otype":"Polygon","mapType":"Sketch"},"geometry":{"type":"Polygon","coordinates":[[[169,315.050028],[143.5,287.060681],[148.5,273.066007],[362,275.065246],[375.5,283.562012],[385,317.049268],[169,315.050028]]]}},{"type":"Feature","properties":{"id":"14","sid":"S14","isRoute":null,"feat_type":"Landmark","selected":false,"aligned":true,"otype":"Polygon","mapType":"Sketch","gen_id":"g.48.49.50.51"},"geometry":{"type":"Polygon","coordinates":[[[151,129.620601],[146,96.633156],[240,100.131824],[244,133.119269],[151,129.620601]]]}},{"type":"Feature","properties":{"id":"15","sid":"S15","isRoute":null,"feat_type":"Landmark","selected":false,"aligned":true,"otype":"Polygon","mapType":"Sketch","gen_id":"g.82"},"geometry":{"type":"Polygon","coordinates":[[[600,303.542039],[598,279.55117],[636.5,278.55155],[640.5,304.541659],[600,303.542039]]]}},{"type":"Feature","properties":{"id":"16","sid":"S16","isRoute":null,"feat_type":"Landmark","selected":false,"aligned":true,"otype":"Polygon","mapType":"Sketch","gen_id":"g.84.85.86.87.88.89.90.91.92.93.94.95.96.97.98.99.100.101.102.103.104.105.106.107.108"},"geometry":{"type":"Polygon","coordinates":[[[490.5,451.485733],[473,360.520354],[606.5,366.518071],[625.5,452.985163],[490.5,451.485733]]]}},{"type":"Feature","properties":{"id":"17","sid":"S17","isRoute":null,"feat_type":"Landmark","selected":false,"aligned":true,"otype":"Polygon","mapType":"Sketch","gen_id":"g.59"},"geometry":{"type":"Polygon","coordinates":[[[544,490.470896],[555,541.951303],[652,543.950542],[636,491.970325],[544,490.470896]]]}},{"type":"Feature","properties":{"id":"18","sid":"S18","isRoute":null,"feat_type":"Landmark","selected":false,"aligned":true,"otype":"Polygon","mapType":"Sketch","gen_id":"g.70.71.72"},"geometry":{"type":"Polygon","coordinates":[[[702,517.960434],[696,489.471276],[764,488.471657],[773,518.960053],[702,517.960434]]]}},{"type":"Feature","properties":{"id":"19","sid":"S19","isRoute":null,"feat_type":"Landmark","selected":false,"aligned":false,"otype":"Polygon","mapType":"Sketch"},"geometry":{"type":"Polygon","coordinates":[[[733.036069,518.397395],[740.5,546.949401],[815.5,551.447689],[811,530.955488],[777.5,529.456059],[766.93924,518.874723],[733.036069,518.397395]]]}},{"type":"Feature","properties":{"id":"20","sid":"S20","isRoute":null,"feat_type":"Landmark","selected":false,"aligned":true,"otype":"Polygon","mapType":"Sketch","gen_id":"g.69"},"geometry":{"type":"Polygon","coordinates":[[[697,435.018166],[695.5,418.524444],[736,418.774348],[738,435.517976],[697,435.018166]]]}}]}