{"type":"FeatureCollection","features":[{"type":"Feature","geometry":{"type":"LineString","coordinates":[[630.593672,172.031196],[629.593916,230.031196],[622.595625,318.031196],[623.595381,398.031196]]},"properties":{"mapType":"Sketch","genType3":"Multi-MultiOmissionMerge","SketchRouteSeqOrder":null,"aligned":true,"feat_type":null,"id":"G9","isRoute":null,"otype":"Line","selected":false,"sid":"S8","group":true,"groupID":"9","gen_id":"g.25.109.110.120.121.142.144"}},{"type":"Feature","geometry":{"type":"MultiLineString","coordinates":[[[622.595625,318.031196],[672.583417,317.031196]],[[629.593916,230.031196],[679.581708,234.031196]]]},"properties":{"mapType":"Sketch","genType3":"Others","SketchRouteSeqOrder":null,"aligned":true,"feat_type":null,"id":"G10","isRoute":null,"otype":"Line","selected":false,"sid":"S11","group":true,"groupID":"10","gen_id":"g.111.114.119.146"}},{"type":"Feature","geometry":{"type":"MultiPolygon","coordinates":[[[[163.886563,147.015598],[164.886319,129.015598],[214.374233,132.015598],[214.374233,150.515598],[163.886563,147.015598]]],[[[170.451827,123.507799],[168.952193,106.007799],[218.190169,108.757799],[217.690291,126.757799],[170.451827,123.507799]]]]},"properties":{"mapType":"Sketch","id":"G14","sid":"S17","isRoute":null,"feat_type":"Landmark","selected":false,"aligned":true,"otype":"Polygon","group":true,"groupID":"14","gen_id":"g.48.49.50.51"}},{"id":"0","type":"Feature","properties":{"SketchRouteSeqOrder":null,"aligned":true,"feat_type":null,"group":null,"groupID":null,"id":"0","isRoute":null,"otype":"Line","selected":false,"sid":"S0","mapType":"Sketch","gen_id":"g.0"},"geometry":{"type":"LineString","coordinates":[[132.379119,430.069241],[132.379119,378.089024]]}},{"id":"1","type":"Feature","properties":{"SketchRouteSeqOrder":2,"aligned":true,"feat_type":null,"group":null,"groupID":null,"id":"1","isRoute":"Yes","otype":"Line","selected":false,"sid":"S1","mapType":"Sketch","gen_id":"g.35.42.44"},"geometry":{"type":"LineString","coordinates":[[136.38214,163.17082],[132.379119,378.089024]]}},{"id":"2","type":"Feature","properties":{"SketchRouteSeqOrder":1,"aligned":true,"feat_type":null,"group":null,"groupID":null,"id":"2","isRoute":"Yes","otype":"Line","selected":false,"sid":"S2","mapType":"Sketch","gen_id":"g.46"},"geometry":{"type":"LineString","coordinates":[[140.385161,111.190603],[136.38214,163.17082]]}},{"id":"3","type":"Feature","properties":{"SketchRouteSeqOrder":null,"aligned":true,"feat_type":null,"group":null,"groupID":null,"id":"3","isRoute":null,"otype":"Line","selected":false,"sid":"S3","mapType":"Sketch","gen_id":"g.23.27.45"},"geometry":{"type":"LineString","coordinates":[[136.38214,163.17082],[630.593672,172.031196]]}},{"id":"4","type":"Feature","properties":{"SketchRouteSeqOrder":null,"aligned":true,"feat_type":null,"group":null,"groupID":null,"id":"4","isRoute":null,"otype":"Line","selected":false,"sid":"S4","mapType":"Sketch","gen_id":"g.26"},"geometry":{"type":"LineString","coordinates":[[630.593672,172.031196],[807.550456,218.031196]]}},{"id":"5","type":"Feature","properties":{"SketchRouteSeqOrder":null,"aligned":true,"feat_type":null,"group":null,"groupID":null,"id":"5","isRoute":null,"otype":"Line","selected":false,"sid":"S5","mapType":"Sketch","gen_id":"g.24"},"geometry":{"type":"LineString","coordinates":[[630.593672,172.031196],[631.593428,127.031196]]}},{"id":"9","type":"Feature","properties":{"SketchRouteSeqOrder":null,"aligned":true,"feat_type":null,"group":null,"groupID":null,"id":"9","isRoute":null,"otype":"Line","selected":false,"sid":"S9","mapType":"Sketch","gen_id":"g.11"},"geometry":{"type":"LineString","coordinates":[[623.595381,398.031196],[628.59416,457.031196]]}},{"id":"12","type":"Feature","properties":{"SketchRouteSeqOrder":15,"aligned":true,"feat_type":null,"group":null,"groupID":null,"id":"12","isRoute":"Yes","otype":"Line","selected":false,"sid":"S12","mapType":"Sketch","gen_id":"g.12"},"geometry":{"type":"LineString","coordinates":[[623.595381,398.031196],[706.575116,401.031196]]}},{"id":"13","type":"Feature","properties":{"SketchRouteSeqOrder":16,"aligned":true,"feat_type":null,"group":null,"groupID":null,"id":"13","isRoute":"Yes","otype":"Line","selected":false,"sid":"S13","mapType":"Sketch","gen_id":"g.13"},"geometry":{"type":"LineString","coordinates":[[706.575116,401.031196],[787.55534,409.031196]]}},{"id":"14","type":"Feature","properties":{"SketchRouteSeqOrder":null,"aligned":true,"feat_type":null,"group":null,"groupID":null,"id":"14","isRoute":null,"otype":"Line","selected":false,"sid":"S14","mapType":"Sketch","gen_id":"g.14.15"},"geometry":{"type":"LineString","coordinates":[[706.575116,401.031196],[714.573163,157.031196]]}},{"id":"15","type":"Feature","properties":{"SketchRouteSeqOrder":14,"aligned":true,"feat_type":null,"group":null,"groupID":null,"id":"15","isRoute":"Yes","otype":"Line","selected":false,"sid":"S15","mapType":"Sketch","gen_id":"g.122.123.124.125.126.127.128.130.131.132"},"geometry":{"type":"LineString","coordinates":[[132.379119,378.089024],[623.595381,398.031196]]}},{"type":"Feature","properties":{"id":"18","sid":"S18","isRoute":null,"feat_type":"Landmark","selected":false,"aligned":false,"otype":"Polygon","mapType":"Sketch"},"geometry":{"type":"Polygon","coordinates":[[[380.17303,150.75],[378.923335,137],[433.410029,136.75],[438.158869,152.25],[380.17303,150.75]]]}},{"type":"Feature","properties":{"id":"19","sid":"S19","isRoute":null,"feat_type":"Landmark","selected":false,"aligned":false,"otype":"Polygon","mapType":"Sketch"},"geometry":{"type":"Polygon","coordinates":[[[312.192501,371],[311.942562,345.25],[368.678707,349],[374.177364,372],[312.192501,371]]]}},{"type":"Feature","properties":{"id":"20","sid":"S20","isRoute":null,"feat_type":"Landmark","selected":false,"aligned":true,"otype":"Polygon","mapType":"Sketch","gen_id":"g.53.54.55.56"},"geometry":{"type":"Polygon","coordinates":[[[301.945004,338.25],[305.444149,310.25],[399.17126,316.5],[400.670894,343.5],[301.945004,338.25]]]}},{"type":"Feature","properties":{"id":"21","sid":"S21","isRoute":null,"feat_type":"Landmark","selected":false,"aligned":true,"otype":"Polygon","mapType":"Sketch","gen_id":"g.84.85.86.87.88.89.90.91.92.93.94.95.96.97.98.99.100.101.102.103.104.105.106.107.108"},"geometry":{"type":"Polygon","coordinates":[[[491.173457,376.25],[492.173213,306.75],[592.148798,314.75],[592.648675,384],[491.173457,376.25]]]}},{"type":"Feature","properties":{"id":"22","sid":"S22","isRoute":null,"feat_type":"Landmark","selected":false,"aligned":true,"otype":"Polygon","mapType":"Sketch","gen_id":"g.59"},"geometry":{"type":"Polygon","coordinates":[[[505.683407,451.5],[504.183773,409.75],[587.413447,410],[594.411738,456],[505.683407,451.5]]]}},{"type":"Feature","properties":{"id":"23","sid":"S23","isRoute":null,"feat_type":"Landmark","selected":false,"aligned":true,"otype":"Polygon","mapType":"Sketch","gen_id":"g.70.71.72"},"geometry":{"type":"Polygon","coordinates":[[[657.896234,438.75],[658.396112,411.25],[721.38073,418.5],[724.879875,444.5],[657.896234,438.75]]]}},{"type":"Feature","properties":{"id":"24","sid":"S24","isRoute":null,"feat_type":"Landmark","selected":false,"aligned":true,"otype":"Polygon","mapType":"Sketch","gen_id":"g.69"},"geometry":{"type":"Polygon","coordinates":[[[648.148614,373],[649.648248,356],[691.138116,358.5],[692.887688,375.75],[648.148614,373]]]}}]}